HIERARCHY
ROOT root
{
	OFFSET 0.000000 0.527280 8.889649
	CHANNELS 6 Xposition Yposition Zposition Xrotation Yrotation Zrotation
	JOINT spine05
	{
		OFFSET 0.000000 -0.747100 0.092811
		CHANNELS 6 Xposition Yposition Zposition Xrotation Yrotation Zrotation
		JOINT spine04
		{
			OFFSET 0.000000 0.424880 0.530140
			CHANNELS 6 Xposition Yposition Zposition Xrotation Yrotation Zrotation
			JOINT spine03
			{
				OFFSET 0.000000 -0.146098 0.560400
				CHANNELS 6 Xposition Yposition Zposition Xrotation Yrotation Zrotation
				JOINT spine02
				{
					OFFSET 0.000000 -0.131039 0.858100
					CHANNELS 6 Xposition Yposition Zposition Xrotation Yrotation Zrotation
					JOINT breast.L
					{
						OFFSET 0.000000 0.043860 1.721400
						CHANNELS 6 Xposition Yposition Zposition Xrotation Yrotation Zrotation
						End Site
						{
							OFFSET 1.043424 -1.771390 -0.470232
						}
					}
					JOINT breast.R
					{
						OFFSET 0.000000 0.043860 1.721400
						CHANNELS 6 Xposition Yposition Zposition Xrotation Yrotation Zrotation
						End Site
						{
							OFFSET -1.043447 -1.771353 -0.474693
						}
					}
					JOINT spine01
					{
						OFFSET 0.000000 0.043860 1.721400
						CHANNELS 6 Xposition Yposition Zposition Xrotation Yrotation Zrotation
						JOINT clavicle.L
						{
							OFFSET 0.260820 -0.200753 0.901199
							CHANNELS 6 Xposition Yposition Zposition Xrotation Yrotation Zrotation
							JOINT shoulder01.L
							{
								OFFSET 0.730800 -0.003480 0.213600
								CHANNELS 6 Xposition Yposition Zposition Xrotation Yrotation Zrotation
								JOINT upperarm01.L
								{
									OFFSET 0.547280 0.034110 -0.372499
									CHANNELS 6 Xposition Yposition Zposition Xrotation Yrotation Zrotation
									JOINT upperarm02.L
									{
										OFFSET 0.562300 0.021590 -0.571401
										CHANNELS 6 Xposition Yposition Zposition Xrotation Yrotation Zrotation
										JOINT lowerarm01.L
										{
											OFFSET 1.138400 -0.057990 -1.278399
											CHANNELS 6 Xposition Yposition Zposition Xrotation Yrotation Zrotation
											JOINT lowerarm02.L
											{
												OFFSET 0.581500 -0.757370 -0.629101
												CHANNELS 6 Xposition Yposition Zposition Xrotation Yrotation Zrotation
												JOINT wrist.L
												{
													OFFSET 0.581500 -0.757390 -0.629100
													CHANNELS 6 Xposition Yposition Zposition Xrotation Yrotation Zrotation
													JOINT finger1-1.L
													{
														OFFSET 0.010200 -0.389100 -0.076400
														CHANNELS 6 Xposition Yposition Zposition Xrotation Yrotation Zrotation
														JOINT finger1-2.L
														{
															OFFSET -0.187400 -0.184800 -0.080700
															CHANNELS 6 Xposition Yposition Zposition Xrotation Yrotation Zrotation
															JOINT finger1-3.L
															{
																OFFSET -0.109500 -0.272300 -0.130300
																CHANNELS 6 Xposition Yposition Zposition Xrotation Yrotation Zrotation
																End Site
																{
																	OFFSET -0.048759 -0.189319 -0.161489
																}
															}
														}
													}
													JOINT metacarpal1.L
													{
														OFFSET 0.095800 -0.228900 -0.145200
														CHANNELS 6 Xposition Yposition Zposition Xrotation Yrotation Zrotation
														JOINT finger2-1.L
														{
															OFFSET 0.154200 -0.605500 -0.235200
															CHANNELS 6 Xposition Yposition Zposition Xrotation Yrotation Zrotation
															JOINT finger2-2.L
															{
																OFFSET 0.030200 -0.181000 -0.137500
																CHANNELS 6 Xposition Yposition Zposition Xrotation Yrotation Zrotation
																JOINT finger2-3.L
																{
																	OFFSET -0.005700 -0.140900 -0.148900
																	CHANNELS 6 Xposition Yposition Zposition Xrotation Yrotation Zrotation
																	End Site
																	{
																		OFFSET -0.035171 -0.153538 -0.185974
																	}
																}
															}
														}
													}
													JOINT metacarpal2.L
													{
														OFFSET 0.095800 -0.228900 -0.145200
														CHANNELS 6 Xposition Yposition Zposition Xrotation Yrotation Zrotation
														JOINT finger3-1.L
														{
															OFFSET 0.297300 -0.441300 -0.327300
															CHANNELS 6 Xposition Yposition Zposition Xrotation Yrotation Zrotation
															JOINT finger3-2.L
															{
																OFFSET 0.065200 -0.177400 -0.236500
																CHANNELS 6 Xposition Yposition Zposition Xrotation Yrotation Zrotation
																JOINT finger3-3.L
																{
																	OFFSET 0.022700 -0.149900 -0.195800
																	CHANNELS 6 Xposition Yposition Zposition Xrotation Yrotation Zrotation
																	End Site
																	{
																		OFFSET -0.002849 -0.127995 -0.205563
																	}
																}
															}
														}
													}
													JOINT metacarpal3.L
													{
														OFFSET 0.199700 -0.133000 -0.278700
														CHANNELS 6 Xposition Yposition Zposition Xrotation Yrotation Zrotation
														JOINT finger4-1.L
														{
															OFFSET 0.258100 -0.386000 -0.260099
															CHANNELS 6 Xposition Yposition Zposition Xrotation Yrotation Zrotation
															JOINT finger4-2.L
															{
																OFFSET 0.087500 -0.120900 -0.221701
																CHANNELS 6 Xposition Yposition Zposition Xrotation Yrotation Zrotation
																JOINT finger4-3.L
																{
																	OFFSET 0.036300 -0.107700 -0.188300
																	CHANNELS 6 Xposition Yposition Zposition Xrotation Yrotation Zrotation
																	End Site
																	{
																		OFFSET 0.019546 -0.094125 -0.219304
																	}
																}
															}
														}
													}
													JOINT metacarpal4.L
													{
														OFFSET 0.199700 -0.133000 -0.278700
														CHANNELS 6 Xposition Yposition Zposition Xrotation Yrotation Zrotation
														JOINT finger5-1.L
														{
															OFFSET 0.274800 -0.212700 -0.334000
															CHANNELS 6 Xposition Yposition Zposition Xrotation Yrotation Zrotation
															JOINT finger5-2.L
															{
																OFFSET 0.053800 -0.061100 -0.171300
																CHANNELS 6 Xposition Yposition Zposition Xrotation Yrotation Zrotation
																JOINT finger5-3.L
																{
																	OFFSET 0.016000 -0.048500 -0.130500
																	CHANNELS 6 Xposition Yposition Zposition Xrotation Yrotation Zrotation
																	End Site
																	{
																		OFFSET 0.021102 -0.057175 -0.165609
																	}
																}
															}
														}
													}
												}
											}
										}
									}
								}
							}
						}
						JOINT clavicle.R
						{
							OFFSET -0.260820 -0.200753 0.901199
							CHANNELS 6 Xposition Yposition Zposition Xrotation Yrotation Zrotation
							JOINT shoulder01.R
							{
								OFFSET -0.730800 -0.003480 0.213600
								CHANNELS 6 Xposition Yposition Zposition Xrotation Yrotation Zrotation
								JOINT upperarm01.R
								{
									OFFSET -0.547280 0.034110 -0.372499
									CHANNELS 6 Xposition Yposition Zposition Xrotation Yrotation Zrotation
									JOINT upperarm02.R
									{
										OFFSET -0.518200 0.013000 -0.571200
										CHANNELS 6 Xposition Yposition Zposition Xrotation Yrotation Zrotation
										JOINT lowerarm01.R
										{
											OFFSET -1.182500 -0.049400 -1.278600
											CHANNELS 6 Xposition Yposition Zposition Xrotation Yrotation Zrotation
											JOINT lowerarm02.R
											{
												OFFSET -0.581500 -0.757370 -0.629101
												CHANNELS 6 Xposition Yposition Zposition Xrotation Yrotation Zrotation
												JOINT wrist.R
												{
													OFFSET -0.581500 -0.757390 -0.629100
													CHANNELS 6 Xposition Yposition Zposition Xrotation Yrotation Zrotation
													JOINT finger1-1.R
													{
														OFFSET -0.010200 -0.389100 -0.076400
														CHANNELS 6 Xposition Yposition Zposition Xrotation Yrotation Zrotation
														JOINT finger1-2.R
														{
															OFFSET 0.187400 -0.184800 -0.080700
															CHANNELS 6 Xposition Yposition Zposition Xrotation Yrotation Zrotation
															JOINT finger1-3.R
															{
																OFFSET 0.109500 -0.272300 -0.130300
																CHANNELS 6 Xposition Yposition Zposition Xrotation Yrotation Zrotation
																End Site
																{
																	OFFSET 0.048759 -0.189319 -0.161489
																}
															}
														}
													}
													JOINT metacarpal1.R
													{
														OFFSET -0.095800 -0.228900 -0.145200
														CHANNELS 6 Xposition Yposition Zposition Xrotation Yrotation Zrotation
														JOINT finger2-1.R
														{
															OFFSET -0.154200 -0.605500 -0.235200
															CHANNELS 6 Xposition Yposition Zposition Xrotation Yrotation Zrotation
															JOINT finger2-2.R
															{
																OFFSET -0.030200 -0.181000 -0.137500
																CHANNELS 6 Xposition Yposition Zposition Xrotation Yrotation Zrotation
																JOINT finger2-3.R
																{
																	OFFSET 0.005700 -0.140900 -0.148900
																	CHANNELS 6 Xposition Yposition Zposition Xrotation Yrotation Zrotation
																	End Site
																	{
																		OFFSET 0.035171 -0.153538 -0.185974
																	}
																}
															}
														}
													}
													JOINT metacarpal2.R
													{
														OFFSET -0.095800 -0.228900 -0.145200
														CHANNELS 6 Xposition Yposition Zposition Xrotation Yrotation Zrotation
														JOINT finger3-1.R
														{
															OFFSET -0.297300 -0.441300 -0.327300
															CHANNELS 6 Xposition Yposition Zposition Xrotation Yrotation Zrotation
															JOINT finger3-2.R
															{
																OFFSET -0.065200 -0.177400 -0.236500
																CHANNELS 6 Xposition Yposition Zposition Xrotation Yrotation Zrotation
																JOINT finger3-3.R
																{
																	OFFSET -0.022700 -0.149900 -0.195800
																	CHANNELS 6 Xposition Yposition Zposition Xrotation Yrotation Zrotation
																	End Site
																	{
																		OFFSET 0.002849 -0.127990 -0.205555
																	}
																}
															}
														}
													}
													JOINT metacarpal3.R
													{
														OFFSET -0.199700 -0.133000 -0.278700
														CHANNELS 6 Xposition Yposition Zposition Xrotation Yrotation Zrotation
														JOINT finger4-1.R
														{
															OFFSET -0.258100 -0.386000 -0.260099
															CHANNELS 6 Xposition Yposition Zposition Xrotation Yrotation Zrotation
															JOINT finger4-2.R
															{
																OFFSET -0.087500 -0.120900 -0.221701
																CHANNELS 6 Xposition Yposition Zposition Xrotation Yrotation Zrotation
																JOINT finger4-3.R
																{
																	OFFSET -0.036300 -0.107700 -0.188300
																	CHANNELS 6 Xposition Yposition Zposition Xrotation Yrotation Zrotation
																	End Site
																	{
																		OFFSET -0.019546 -0.094125 -0.219304
																	}
																}
															}
														}
													}
													JOINT metacarpal4.R
													{
														OFFSET -0.199700 -0.133000 -0.278700
														CHANNELS 6 Xposition Yposition Zposition Xrotation Yrotation Zrotation
														JOINT finger5-1.R
														{
															OFFSET -0.274800 -0.212700 -0.334000
															CHANNELS 6 Xposition Yposition Zposition Xrotation Yrotation Zrotation
															JOINT finger5-2.R
															{
																OFFSET -0.053800 -0.061100 -0.171300
																CHANNELS 6 Xposition Yposition Zposition Xrotation Yrotation Zrotation
																JOINT finger5-3.R
																{
																	OFFSET -0.016000 -0.048500 -0.130500
																	CHANNELS 6 Xposition Yposition Zposition Xrotation Yrotation Zrotation
																	End Site
																	{
																		OFFSET -0.021102 -0.057175 -0.165609
																	}
																}
															}
														}
													}
												}
											}
										}
									}
								}
							}
						}
						JOINT neck01
						{
							OFFSET 0.000000 0.024172 1.633900
							CHANNELS 6 Xposition Yposition Zposition Xrotation Yrotation Zrotation
							JOINT neck02
							{
								OFFSET 0.000000 -0.093413 0.403299
								CHANNELS 6 Xposition Yposition Zposition Xrotation Yrotation Zrotation
								JOINT neck03
								{
									OFFSET 0.000000 0.025619 0.450100
									CHANNELS 6 Xposition Yposition Zposition Xrotation Yrotation Zrotation
									JOINT head
									{
										OFFSET 0.000000 -0.306921 0.221401
										CHANNELS 6 Xposition Yposition Zposition Xrotation Yrotation Zrotation
										JOINT jaw
										{
											OFFSET 0.000000 -0.186060 0.001400
											CHANNELS 6 Xposition Yposition Zposition Xrotation Yrotation Zrotation
											JOINT special04
											{
												OFFSET 0.000000 -0.464480 -0.712400
												CHANNELS 6 Xposition Yposition Zposition Xrotation Yrotation Zrotation
												JOINT oris02
												{
													OFFSET 0.000000 -0.269300 0.173000
													CHANNELS 6 Xposition Yposition Zposition Xrotation Yrotation Zrotation
													JOINT oris01
													{
														OFFSET 0.000000 -0.083600 0.105999
														CHANNELS 6 Xposition Yposition Zposition Xrotation Yrotation Zrotation
														End Site
														{
															OFFSET 0.000000 -0.063340 0.109678
														}
													}
												}
												JOINT oris06.L
												{
													OFFSET 0.000000 -0.269300 0.173000
													CHANNELS 6 Xposition Yposition Zposition Xrotation Yrotation Zrotation
													JOINT oris07.L
													{
														OFFSET 0.106760 -0.053600 0.036400
														CHANNELS 6 Xposition Yposition Zposition Xrotation Yrotation Zrotation
														End Site
														{
															OFFSET 0.054616 -0.024864 0.133882
														}
													}
												}
												JOINT oris06.R
												{
													OFFSET 0.000000 -0.269300 0.173000
													CHANNELS 6 Xposition Yposition Zposition Xrotation Yrotation Zrotation
													JOINT oris07.R
													{
														OFFSET -0.106760 -0.053600 0.035799
														CHANNELS 6 Xposition Yposition Zposition Xrotation Yrotation Zrotation
														End Site
														{
															OFFSET -0.054627 -0.024868 0.134477
														}
													}
												}
											}
											JOINT tongue00
											{
												OFFSET 0.000000 -0.464480 -0.712400
												CHANNELS 6 Xposition Yposition Zposition Xrotation Yrotation Zrotation
												JOINT tongue01
												{
													OFFSET 0.000000 0.411920 0.397500
													CHANNELS 6 Xposition Yposition Zposition Xrotation Yrotation Zrotation
													JOINT tongue02
													{
														OFFSET 0.000000 -0.304280 0.055800
														CHANNELS 6 Xposition Yposition Zposition Xrotation Yrotation Zrotation
														JOINT tongue03
														{
															OFFSET 0.000000 -0.210340 -0.003700
															CHANNELS 6 Xposition Yposition Zposition Xrotation Yrotation Zrotation
															JOINT tongue04
															{
																OFFSET 0.000000 -0.086200 -0.048500
																CHANNELS 6 Xposition Yposition Zposition Xrotation Yrotation Zrotation
																End Site
																{
																	OFFSET 0.000000 -0.086201 -0.048499
																}
															}
															JOINT tongue07.L
															{
																OFFSET 0.000000 -0.086200 -0.048500
																CHANNELS 6 Xposition Yposition Zposition Xrotation Yrotation Zrotation
																End Site
																{
																	OFFSET 0.116865 -0.008361 -0.034772
																}
															}
															JOINT tongue07.R
															{
																OFFSET 0.000000 -0.086200 -0.048500
																CHANNELS 6 Xposition Yposition Zposition Xrotation Yrotation Zrotation
																End Site
																{
																	OFFSET -0.116865 -0.008361 -0.034772
																}
															}
														}
														JOINT tongue06.L
														{
															OFFSET 0.000000 -0.210340 -0.003700
															CHANNELS 6 Xposition Yposition Zposition Xrotation Yrotation Zrotation
															End Site
															{
																OFFSET 0.168433 0.014602 -0.052929
															}
														}
														JOINT tongue06.R
														{
															OFFSET 0.000000 -0.210340 -0.003700
															CHANNELS 6 Xposition Yposition Zposition Xrotation Yrotation Zrotation
															End Site
															{
																OFFSET -0.168433 0.014602 -0.052929
															}
														}
													}
													JOINT tongue05.L
													{
														OFFSET 0.000000 -0.304280 0.055800
														CHANNELS 6 Xposition Yposition Zposition Xrotation Yrotation Zrotation
														End Site
														{
															OFFSET 0.202986 -0.028612 -0.038815
														}
													}
													JOINT tongue05.R
													{
														OFFSET 0.000000 -0.304280 0.055800
														CHANNELS 6 Xposition Yposition Zposition Xrotation Yrotation Zrotation
														End Site
														{
															OFFSET -0.202986 -0.028612 -0.038815
														}
													}
												}
											}
										}
										JOINT levator02.L
										{
											OFFSET 0.031653 -1.116140 0.219399
											CHANNELS 6 Xposition Yposition Zposition Xrotation Yrotation Zrotation
											JOINT levator03.L
											{
												OFFSET 0.167157 0.130500 -0.161500
												CHANNELS 6 Xposition Yposition Zposition Xrotation Yrotation Zrotation
												JOINT levator04.L
												{
													OFFSET 0.051110 -0.000100 -0.171300
													CHANNELS 6 Xposition Yposition Zposition Xrotation Yrotation Zrotation
													JOINT levator05.L
													{
														OFFSET 0.014070 0.030900 -0.156899
														CHANNELS 6 Xposition Yposition Zposition Xrotation Yrotation Zrotation
														End Site
														{
															OFFSET -0.033578 0.013470 -0.085302
														}
													}
												}
											}
										}
										JOINT levator02.R
										{
											OFFSET -0.031653 -1.116140 0.219399
											CHANNELS 6 Xposition Yposition Zposition Xrotation Yrotation Zrotation
											JOINT levator03.R
											{
												OFFSET -0.167157 0.130500 -0.161500
												CHANNELS 6 Xposition Yposition Zposition Xrotation Yrotation Zrotation
												JOINT levator04.R
												{
													OFFSET -0.051110 -0.001000 -0.174200
													CHANNELS 6 Xposition Yposition Zposition Xrotation Yrotation Zrotation
													JOINT levator05.R
													{
														OFFSET -0.014070 0.031800 -0.153999
														CHANNELS 6 Xposition Yposition Zposition Xrotation Yrotation Zrotation
														End Site
														{
															OFFSET 0.033578 0.013470 -0.085302
														}
													}
												}
											}
										}
										JOINT special01
										{
											OFFSET 0.000000 0.593810 -0.063801
											CHANNELS 6 Xposition Yposition Zposition Xrotation Yrotation Zrotation
											JOINT oris04.L
											{
												OFFSET 0.000000 -1.693150 -0.050300
												CHANNELS 6 Xposition Yposition Zposition Xrotation Yrotation Zrotation
												JOINT oris03.L
												{
													OFFSET 0.127420 0.026300 -0.063400
													CHANNELS 6 Xposition Yposition Zposition Xrotation Yrotation Zrotation
													End Site
													{
														OFFSET 0.026971 0.012473 -0.055301
													}
												}
											}
											JOINT oris04.R
											{
												OFFSET 0.000000 -1.693150 -0.050300
												CHANNELS 6 Xposition Yposition Zposition Xrotation Yrotation Zrotation
												JOINT oris03.R
												{
													OFFSET -0.127420 0.026300 -0.064600
													CHANNELS 6 Xposition Yposition Zposition Xrotation Yrotation Zrotation
													End Site
													{
														OFFSET -0.026995 0.012484 -0.054087
													}
												}
											}
											JOINT oris06
											{
												OFFSET 0.000000 -1.693150 -0.050300
												CHANNELS 6 Xposition Yposition Zposition Xrotation Yrotation Zrotation
												JOINT oris05
												{
													OFFSET 0.000000 -0.018300 -0.061100
													CHANNELS 6 Xposition Yposition Zposition Xrotation Yrotation Zrotation
													End Site
													{
														OFFSET 0.000000 -0.012784 -0.072203
													}
												}
											}
										}
										JOINT special03
										{
											OFFSET 0.000000 -0.186060 0.001400
											CHANNELS 6 Xposition Yposition Zposition Xrotation Yrotation Zrotation
											JOINT levator06.L
											{
												OFFSET 0.060459 -1.015280 0.028199
												CHANNELS 6 Xposition Yposition Zposition Xrotation Yrotation Zrotation
												End Site
												{
													OFFSET 0.106574 0.197296 -0.004251
												}
											}
											JOINT levator06.R
											{
												OFFSET -0.060459 -1.015280 0.025599
												CHANNELS 6 Xposition Yposition Zposition Xrotation Yrotation Zrotation
												End Site
												{
													OFFSET -0.106576 0.197298 -0.001611
												}
											}
										}
										JOINT special06.L
										{
											OFFSET 0.000000 0.055750 1.460299
											CHANNELS 6 Xposition Yposition Zposition Xrotation Yrotation Zrotation
											JOINT special05.L
											{
												OFFSET 0.202540 -0.561960 -0.090900
												CHANNELS 6 Xposition Yposition Zposition Xrotation Yrotation Zrotation
												JOINT eye.L
												{
													OFFSET 0.107450 -0.246330 -1.028699
													CHANNELS 6 Xposition Yposition Zposition Xrotation Yrotation Zrotation
													End Site
													{
														OFFSET 0.010895 -0.417801 0.001160
													}
												}
												JOINT orbicularis03.L
												{
													OFFSET 0.107450 -0.246330 -1.028699
													CHANNELS 6 Xposition Yposition Zposition Xrotation Yrotation Zrotation
													End Site
													{
														OFFSET 0.009646 -0.390291 0.120629
													}
												}
												JOINT orbicularis04.L
												{
													OFFSET 0.107450 -0.246330 -1.028699
													CHANNELS 6 Xposition Yposition Zposition Xrotation Yrotation Zrotation
													End Site
													{
														OFFSET 0.011095 -0.398117 -0.118242
													}
												}
											}
										}
										JOINT special06.R
										{
											OFFSET 0.000000 0.055750 1.460299
											CHANNELS 6 Xposition Yposition Zposition Xrotation Yrotation Zrotation
											JOINT special05.R
											{
												OFFSET -0.202540 -0.561960 -0.090900
												CHANNELS 6 Xposition Yposition Zposition Xrotation Yrotation Zrotation
												JOINT eye.R
												{
													OFFSET -0.107450 -0.246330 -1.028699
													CHANNELS 6 Xposition Yposition Zposition Xrotation Yrotation Zrotation
													End Site
													{
														OFFSET -0.010895 -0.417801 0.001160
													}
												}
												JOINT orbicularis03.R
												{
													OFFSET -0.107450 -0.246330 -1.028699
													CHANNELS 6 Xposition Yposition Zposition Xrotation Yrotation Zrotation
													End Site
													{
														OFFSET -0.009646 -0.390291 0.120629
													}
												}
												JOINT orbicularis04.R
												{
													OFFSET -0.107450 -0.246330 -1.028699
													CHANNELS 6 Xposition Yposition Zposition Xrotation Yrotation Zrotation
													End Site
													{
														OFFSET -0.011095 -0.398117 -0.118242
													}
												}
											}
										}
										JOINT temporalis01.L
										{
											OFFSET 0.639200 -0.615180 0.421099
											CHANNELS 6 Xposition Yposition Zposition Xrotation Yrotation Zrotation
											JOINT oculi02.L
											{
												OFFSET -0.073610 -0.154360 0.007101
												CHANNELS 6 Xposition Yposition Zposition Xrotation Yrotation Zrotation
												JOINT oculi01.L
												{
													OFFSET -0.225600 -0.218100 0.146099
													CHANNELS 6 Xposition Yposition Zposition Xrotation Yrotation Zrotation
													End Site
													{
														OFFSET -0.175880 -0.061063 0.022470
													}
												}
											}
										}
										JOINT temporalis01.R
										{
											OFFSET -0.639200 -0.615180 0.421099
											CHANNELS 6 Xposition Yposition Zposition Xrotation Yrotation Zrotation
											JOINT oculi02.R
											{
												OFFSET 0.073610 -0.154360 0.007101
												CHANNELS 6 Xposition Yposition Zposition Xrotation Yrotation Zrotation
												JOINT oculi01.R
												{
													OFFSET 0.225600 -0.218100 0.146099
													CHANNELS 6 Xposition Yposition Zposition Xrotation Yrotation Zrotation
													End Site
													{
														OFFSET 0.175880 -0.061063 0.022470
													}
												}
											}
										}
										JOINT temporalis02.L
										{
											OFFSET 0.644400 -0.597290 0.197700
											CHANNELS 6 Xposition Yposition Zposition Xrotation Yrotation Zrotation
											JOINT risorius02.L
											{
												OFFSET -0.079350 -0.159350 0.034400
												CHANNELS 6 Xposition Yposition Zposition Xrotation Yrotation Zrotation
												JOINT risorius03.L
												{
													OFFSET -0.064460 -0.075300 -0.254101
													CHANNELS 6 Xposition Yposition Zposition Xrotation Yrotation Zrotation
													End Site
													{
														OFFSET 0.025657 0.158557 -0.192436
													}
												}
											}
										}
										JOINT temporalis02.R
										{
											OFFSET -0.644400 -0.597290 0.197700
											CHANNELS 6 Xposition Yposition Zposition Xrotation Yrotation Zrotation
											JOINT risorius02.R
											{
												OFFSET 0.079260 -0.159350 0.034400
												CHANNELS 6 Xposition Yposition Zposition Xrotation Yrotation Zrotation
												JOINT risorius03.R
												{
													OFFSET 0.064550 -0.075300 -0.254101
													CHANNELS 6 Xposition Yposition Zposition Xrotation Yrotation Zrotation
													End Site
													{
														OFFSET -0.025657 0.158557 -0.192436
													}
												}
											}
										}
									}
								}
							}
						}
					}
				}
			}
		}
	}
	JOINT pelvis.L
	{
		OFFSET 0.000000 -0.747100 0.092811
		CHANNELS 6 Xposition Yposition Zposition Xrotation Yrotation Zrotation
		JOINT upperleg01.L
		{
			OFFSET 0.937130 -0.001960 -0.153380
			CHANNELS 6 Xposition Yposition Zposition Xrotation Yrotation Zrotation
			JOINT upperleg02.L
			{
				OFFSET 0.066270 -0.188820 -0.618761
				CHANNELS 6 Xposition Yposition Zposition Xrotation Yrotation Zrotation
				JOINT lowerleg01.L
				{
					OFFSET 0.358400 -0.063880 -3.347119
					CHANNELS 6 Xposition Yposition Zposition Xrotation Yrotation Zrotation
					JOINT lowerleg02.L
					{
						OFFSET 0.135500 0.154660 -2.100400
						CHANNELS 6 Xposition Yposition Zposition Xrotation Yrotation Zrotation
						JOINT foot.L
						{
							OFFSET 0.135600 0.154660 -2.100500
							CHANNELS 6 Xposition Yposition Zposition Xrotation Yrotation Zrotation
							JOINT toe1-1.L
							{
								OFFSET 0.056700 -1.075440 -0.583800
								CHANNELS 6 Xposition Yposition Zposition Xrotation Yrotation Zrotation
								End Site
								{
									OFFSET 0.042948 -0.728792 0.096843
								}
							}
						}
					}
				}
			}
		}
	}
	JOINT pelvis.R
	{
		OFFSET 0.000000 -0.747100 0.092811
		CHANNELS 6 Xposition Yposition Zposition Xrotation Yrotation Zrotation
		JOINT upperleg01.R
		{
			OFFSET -0.937130 -0.001960 -0.153380
			CHANNELS 6 Xposition Yposition Zposition Xrotation Yrotation Zrotation
			JOINT upperleg02.R
			{
				OFFSET -0.065770 -0.188820 -0.618761
				CHANNELS 6 Xposition Yposition Zposition Xrotation Yrotation Zrotation
				JOINT lowerleg01.R
				{
					OFFSET -0.358900 -0.063880 -3.347119
					CHANNELS 6 Xposition Yposition Zposition Xrotation Yrotation Zrotation
					JOINT lowerleg02.R
					{
						OFFSET -0.135500 0.154660 -2.100400
						CHANNELS 6 Xposition Yposition Zposition Xrotation Yrotation Zrotation
						JOINT foot.R
						{
							OFFSET -0.135600 0.154660 -2.100500
							CHANNELS 6 Xposition Yposition Zposition Xrotation Yrotation Zrotation
							JOINT toe1-1.R
							{
								OFFSET -0.056700 -1.075440 -0.583800
								CHANNELS 6 Xposition Yposition Zposition Xrotation Yrotation Zrotation
								End Site
								{
									OFFSET -0.042948 -0.728792 0.096843
								}
							}
						}
					}
				}
			}
		}
	}
}
MOTION
Frames: 1
Frame Time: 0.041667
-0.000000 0.527280 1.5 6.436215 22.451477 -15.840944 0.000000 -0.747100 0.092811 0.074676 -3.264625 2.619860 0.000000 0.424880 0.530140 -0.005324 -1.530194 -0.399066 -0.000002 -0.146098 0.560399 -0.171040 -11.237189 -1.738424 -0.000006 -0.131039 0.858100 0.029907 -11.501802 0.296989 -0.000001 0.043863 1.721400 -2.786207 -0.655552 0.106385 0.000002 0.043865 1.721400 -4.570254 2.472893 0.769714 -0.000005 0.043860 1.721401 0.003108 -4.899901 0.072637 0.260803 -0.200751 0.901197 -1.163495 -10.561729 3.719283 0.730754 -0.003492 0.213591 8.699187 -27.157838 12.891606 0.547226 0.034131 -0.372555 -34.146475 -47.704401 -1.613607 0.562256 0.021609 -0.571439 -37.807409 -13.233332 43.257965 1.138431 -0.057982 -1.278435 -39.075550 11.178037 -34.189875 0.581485 -0.757366 -0.629122 -42.074768 25.506855 44.014074 0.581515 -0.757391 -0.629105 1.868388 31.612875 -4.003997 0.010207 -0.389104 -0.076395 7.625704 -1.614558 -13.928804 -0.187400 -0.184799 -0.080698 0.000002 -0.000001 0.000000 -0.109502 -0.272300 -0.130298 0.000003 -0.000002 0.000001 0.095798 -0.228900 -0.145201 -0.000003 0.000000 -0.000003 0.154202 -0.605500 -0.235199 -0.000002 -0.000002 -0.000002 0.030199 -0.181001 -0.137500 0.000004 0.000002 0.000004 -0.005700 -0.140900 -0.148900 -0.000004 0.000000 0.000003 0.095800 -0.228899 -0.145204 -2.943400 0.478083 -3.207368 0.297302 -0.441299 -0.327298 0.000001 0.000005 0.000002 0.065200 -0.177401 -0.236500 -0.000003 -0.000002 -0.000001 0.022700 -0.149900 -0.195799 -0.000004 -0.000003 -0.000006 0.199703 -0.133000 -0.278703 -3.259593 0.488270 -3.800393 0.258100 -0.386000 -0.260100 -0.000001 -0.000001 -0.000008 0.087497 -0.120900 -0.221701 -0.000001 0.000001 0.000002 0.036302 -0.107702 -0.188301 0.000006 0.000000 0.000002 0.199701 -0.133000 -0.278706 -5.440337 0.363041 -4.565558 0.274799 -0.212700 -0.334001 -0.000003 0.000002 0.000000 0.053801 -0.061100 -0.171300 -0.000002 0.000000 0.000001 0.016000 -0.048500 -0.130501 0.000003 0.000001 -0.000002 -0.260795 -0.200753 0.901195 -0.235737 17.948047 -0.492243 -0.730767 -0.003483 0.213594 2.282481 20.828085 -6.384103 -0.547244 0.034110 -0.372507 0.244403 27.576395 0.293149 -0.518142 0.013007 -0.571254 -48.512160 23.218929 -53.804477 -1.182538 -0.049397 -1.278640 -43.094532 -16.017506 39.183877 -0.581478 -0.757365 -0.629127 -60.301261 -25.236470 -62.812469 -0.581510 -0.757396 -0.629095 11.596649 -8.143043 13.711697 -0.010205 -0.389101 -0.076398 2.021945 -1.462626 8.147217 0.187401 -0.184800 -0.080700 -0.000001 -0.000002 0.000005 0.109500 -0.272301 -0.130300 0.000002 -0.000001 -0.000003 -0.095800 -0.228900 -0.145199 0.776285 0.183011 -0.997889 -0.154206 -0.605503 -0.235193 11.577344 -6.483108 7.774582 -0.030200 -0.180999 -0.137498 -0.000002 -0.000003 -0.000001 0.005702 -0.140901 -0.148899 -0.000002 -0.000001 -0.000006 -0.095802 -0.228899 -0.145201 -2.374276 -0.372402 2.586827 -0.297304 -0.441301 -0.327293 9.110553 -10.447304 6.738690 -0.065199 -0.177400 -0.236501 -0.000005 0.000007 0.000004 -0.022704 -0.149902 -0.195800 -0.000004 -0.000003 -0.000003 -0.199699 -0.132999 -0.278703 -3.025774 -0.445831 3.527419 -0.258103 -0.386001 -0.260097 7.512288 -12.364550 5.006522 -0.087500 -0.120900 -0.221701 0.000003 0.000000 0.000000 -0.036300 -0.107700 -0.188300 0.000002 0.000001 -0.000000 -0.199699 -0.132999 -0.278702 -3.877207 -0.214092 3.254919 -0.274804 -0.212701 -0.333998 4.428360 -13.866542 4.344635 -0.053800 -0.061100 -0.171300 -0.000002 -0.000000 -0.000000 -0.016000 -0.048500 -0.130500 0.000003 -0.000000 -0.000001 0.000001 0.024174 1.633900 -0.992412 0.449395 0.323627 0.000020 -0.093452 0.403312 15.390342 -6.035853 -36.052809 0.000000 0.025591 0.450110 14.159122 0.000012 0.000019 0.000017 -0.306889 0.221379 -19.192844 -0.671935 -17.897561 -0.000000 -0.186061 0.001398 -0.000002 -0.000001 0.000000 -0.000000 -0.464481 -0.712399 0.000002 0.000001 0.000002 0.000000 -0.269301 0.172998 0.000002 0.000001 0.000002 0.000000 -0.083600 0.106000 0.000005 -0.000001 -0.000001 0.000000 -0.269301 0.172998 -0.000003 0.000001 0.000002 0.106760 -0.053599 0.036400 -0.000002 -0.000002 -0.000006 0.000001 -0.269302 0.172999 0.000000 0.000000 -0.000003 -0.106761 -0.053600 0.035799 0.000002 0.000002 0.000001 -0.000000 -0.464481 -0.712399 0.000005 -0.000000 -0.000001 -0.000000 0.411921 0.397502 -0.000004 0.000000 0.000000 -0.000000 -0.304280 0.055800 0.000001 -0.000000 -0.000004 0.000000 -0.210339 -0.003701 0.000003 -0.000002 -0.000001 -0.000000 -0.086197 -0.048501 -0.000002 -0.000001 -0.000002 -0.000001 -0.086199 -0.048500 -0.000002 -0.000005 -0.000002 -0.000000 -0.086198 -0.048501 -0.000001 -0.000002 -0.000001 0.000001 -0.210340 -0.003699 -0.000002 0.000003 0.000000 -0.000000 -0.210339 -0.003700 -0.000003 0.000002 0.000000 -0.000000 -0.304281 0.055801 0.000001 -0.000000 -0.000004 -0.000000 -0.304280 0.055801 0.000001 -0.000002 -0.000004 0.031653 -1.116139 0.219398 -0.000004 0.000003 -0.000000 0.167158 0.130500 -0.161502 -0.000001 0.000002 -0.000006 0.051110 -0.000100 -0.171301 0.000001 -0.000001 -0.000002 0.014069 0.030900 -0.156899 0.000001 -0.000004 -0.000000 -0.031652 -1.116141 0.219401 -0.000001 0.000003 -0.000002 -0.167156 0.130500 -0.161499 -0.000002 0.000003 -0.000001 -0.051109 -0.001001 -0.174200 0.000001 0.000001 -0.000002 -0.014070 0.031800 -0.154001 -0.000001 -0.000001 0.000001 -0.000000 0.593809 -0.063802 0.000000 -0.000000 0.000003 0.000000 -1.693151 -0.050300 0.000000 -0.000003 -0.000002 0.127420 0.026301 -0.063399 0.000002 0.000000 -0.000003 -0.000001 -1.693151 -0.050298 0.000000 -0.000006 -0.000002 -0.127418 0.026300 -0.064600 0.000000 -0.000000 -0.000001 -0.000000 -1.693150 -0.050298 0.000000 0.000001 -0.000000 0.000000 -0.018299 -0.061098 0.000001 -0.000000 -0.000001 -0.000000 -0.186060 0.001399 -0.000001 -0.000000 0.000000 0.060460 -1.015281 0.028194 -0.000001 0.000000 0.000001 -0.060459 -1.015280 0.025600 0.000000 -0.000000 0.000001 0.000000 0.055750 1.460299 -0.000001 -0.000000 0.000003 0.202541 -0.561960 -0.090898 -0.000002 0.000003 0.000003 0.107450 -0.246330 -1.028698 0.000001 0.000001 0.000001 0.107450 -0.246330 -1.028698 0.000001 0.000001 0.000001 0.107450 -0.246330 -1.028697 -0.000002 0.000000 0.000001 -0.000000 0.055750 1.460299 -0.000002 0.000000 -0.000001 -0.202540 -0.561960 -0.090897 -0.000000 0.000000 -0.000000 -0.107450 -0.246329 -1.028699 -0.000000 -0.000000 0.000001 -0.107450 -0.246329 -1.028699 0.000001 -0.000001 -0.000001 -0.107450 -0.246330 -1.028698 -0.000000 0.000002 -0.000001 0.639200 -0.615180 0.421101 0.000001 0.000004 0.000003 -0.073609 -0.154361 0.007102 -0.000003 0.000001 -0.000003 -0.225601 -0.218099 0.146100 0.000000 0.000000 0.000002 -0.639200 -0.615180 0.421098 0.000001 0.000001 0.000002 0.073609 -0.154360 0.007101 -0.000007 0.000001 -0.000003 0.225601 -0.218098 0.146099 0.000004 -0.000003 -0.000004 0.644400 -0.597290 0.197700 0.000001 0.000000 0.000000 -0.079349 -0.159350 0.034404 -0.000001 0.000000 -0.000002 -0.064459 -0.075298 -0.254100 -0.000005 0.000000 0.000000 -0.644400 -0.597291 0.197700 0.000001 0.000000 -0.000001 0.079261 -0.159351 0.034397 0.000001 0.000001 -0.000003 0.064550 -0.075299 -0.254100 -0.000001 -0.000004 -0.000003 -0.000000 -0.747100 0.092810 0.000000 0.000001 -0.000000 0.937129 -0.001959 -0.153379 0.332024 -15.262346 4.699109 0.066269 -0.188820 -0.618761 -5.227214 -1.471000 51.627511 0.358400 -0.063880 -3.347119 -0.000001 0.000000 0.000001 0.135500 0.154660 -2.100400 -0.000000 0.000000 -0.000003 0.135598 0.154794 -2.100410 62.849263 0.432003 7.364459 0.056700 -1.075440 -0.583800 0.000000 0.000006 0.000001 -0.000000 -0.747100 0.092811 -0.000001 -0.000000 0.000001 -0.937131 -0.001960 -0.153380 -27.274530 30.902224 -11.916398 -0.065769 -0.188821 -0.618762 -9.828969 4.400502 -61.596804 -0.358891 -0.063824 -3.346997 126.071700 -6.770179 -1.497756 -0.135500 0.154660 -2.100401 0.000001 -0.000000 -0.000002 -0.135596 0.154766 -2.100453 44.064272 -1.739657 -2.347999 -0.056702 -1.075478 -0.583797 -13.060129 0.781180 1.112366 
