HIERARCHY
ROOT root
{
	OFFSET 0.000000 0.646900 1.101900
	CHANNELS 6 Xposition Yposition Zposition Xrotation Yrotation Zrotation
	JOINT spine05
	{
		OFFSET 0.000000 -0.714400 0.105000
		CHANNELS 6 Xposition Yposition Zposition Xrotation Yrotation Zrotation
		JOINT spine04
		{
			OFFSET 0.000000 0.320750 0.878200
			CHANNELS 6 Xposition Yposition Zposition Xrotation Yrotation Zrotation
			JOINT spine03
			{
				OFFSET 0.000000 -0.094550 0.705800
				CHANNELS 6 Xposition Yposition Zposition Xrotation Yrotation Zrotation
				JOINT spine02
				{
					OFFSET 0.000000 0.083100 0.613200
					CHANNELS 6 Xposition Yposition Zposition Xrotation Yrotation Zrotation
					JOINT breast.L
					{
						OFFSET 0.000000 0.221200 1.374900
						CHANNELS 6 Xposition Yposition Zposition Xrotation Yrotation Zrotation
						End Site
						{
							OFFSET 1.009306 -1.909601 -0.105749
						}
					}
					JOINT breast.R
					{
						OFFSET 0.000000 0.221200 1.374900
						CHANNELS 6 Xposition Yposition Zposition Xrotation Yrotation Zrotation
						End Site
						{
							OFFSET -1.009306 -1.909601 -0.105749
						}
					}
					JOINT spine01
					{
						OFFSET 0.000000 0.221200 1.374900
						CHANNELS 6 Xposition Yposition Zposition Xrotation Yrotation Zrotation
						JOINT clavicle.L
						{
							OFFSET 0.230920 -0.730500 1.332500
							CHANNELS 6 Xposition Yposition Zposition Xrotation Yrotation Zrotation
							JOINT shoulder01.L
							{
								OFFSET 0.869180 0.004800 0.142500
								CHANNELS 6 Xposition Yposition Zposition Xrotation Yrotation Zrotation
								JOINT upperarm01.L
								{
									OFFSET 0.781700 0.048530 -0.438900
									CHANNELS 6 Xposition Yposition Zposition Xrotation Yrotation Zrotation
									JOINT upperarm02.L
									{
										OFFSET 0.379800 0.020950 -0.507300
										CHANNELS 6 Xposition Yposition Zposition Xrotation Yrotation Zrotation
										JOINT lowerarm01.L
										{
											OFFSET 1.291300 0.000960 -1.408900
											CHANNELS 6 Xposition Yposition Zposition Xrotation Yrotation Zrotation
											JOINT lowerarm02.L
											{
												OFFSET 0.664800 -0.938040 -0.632200
												CHANNELS 6 Xposition Yposition Zposition Xrotation Yrotation Zrotation
												JOINT wrist.L
												{
													OFFSET 0.664800 -0.938000 -0.632300
													CHANNELS 6 Xposition Yposition Zposition Xrotation Yrotation Zrotation
													JOINT finger1-1.L
													{
														OFFSET 0.022100 -0.494700 -0.059800
														CHANNELS 6 Xposition Yposition Zposition Xrotation Yrotation Zrotation
														JOINT finger1-2.L
														{
															OFFSET -0.237500 -0.232100 -0.090400
															CHANNELS 6 Xposition Yposition Zposition Xrotation Yrotation Zrotation
															JOINT finger1-3.L
															{
																OFFSET -0.142800 -0.355200 -0.133500
																CHANNELS 6 Xposition Yposition Zposition Xrotation Yrotation Zrotation
																End Site
																{
																	OFFSET -0.055318 -0.234628 -0.188559
																}
															}
														}
													}
													JOINT metacarpal1.L
													{
														OFFSET 0.128200 -0.301800 -0.157400
														CHANNELS 6 Xposition Yposition Zposition Xrotation Yrotation Zrotation
														JOINT finger2-1.L
														{
															OFFSET 0.181500 -0.760100 -0.245000
															CHANNELS 6 Xposition Yposition Zposition Xrotation Yrotation Zrotation
															JOINT finger2-2.L
															{
																OFFSET 0.034000 -0.234800 -0.162100
																CHANNELS 6 Xposition Yposition Zposition Xrotation Yrotation Zrotation
																JOINT finger2-3.L
																{
																	OFFSET -0.006400 -0.191400 -0.176100
																	CHANNELS 6 Xposition Yposition Zposition Xrotation Yrotation Zrotation
																	End Site
																	{
																		OFFSET -0.037805 -0.198917 -0.210083
																	}
																}
															}
														}
													}
													JOINT metacarpal2.L
													{
														OFFSET 0.128200 -0.301800 -0.157400
														CHANNELS 6 Xposition Yposition Zposition Xrotation Yrotation Zrotation
														JOINT finger3-1.L
														{
															OFFSET 0.364700 -0.570900 -0.372300
															CHANNELS 6 Xposition Yposition Zposition Xrotation Yrotation Zrotation
															JOINT finger3-2.L
															{
																OFFSET 0.077200 -0.238400 -0.285200
																CHANNELS 6 Xposition Yposition Zposition Xrotation Yrotation Zrotation
																JOINT finger3-3.L
																{
																	OFFSET 0.027100 -0.194100 -0.227300
																	CHANNELS 6 Xposition Yposition Zposition Xrotation Yrotation Zrotation
																	End Site
																	{
																		OFFSET -0.001600 -0.172684 -0.241412
																	}
																}
															}
														}
													}
													JOINT metacarpal3.L
													{
														OFFSET 0.257000 -0.193400 -0.329600
														CHANNELS 6 Xposition Yposition Zposition Xrotation Yrotation Zrotation
														JOINT finger4-1.L
														{
															OFFSET 0.318500 -0.490300 -0.289700
															CHANNELS 6 Xposition Yposition Zposition Xrotation Yrotation Zrotation
															JOINT finger4-2.L
															{
																OFFSET 0.096700 -0.165200 -0.272300
																CHANNELS 6 Xposition Yposition Zposition Xrotation Yrotation Zrotation
																JOINT finger4-3.L
																{
																	OFFSET 0.050700 -0.150100 -0.224100
																	CHANNELS 6 Xposition Yposition Zposition Xrotation Yrotation Zrotation
																	End Site
																	{
																		OFFSET 0.025513 -0.132174 -0.261011
																	}
																}
															}
														}
													}
													JOINT metacarpal4.L
													{
														OFFSET 0.257000 -0.193400 -0.329600
														CHANNELS 6 Xposition Yposition Zposition Xrotation Yrotation Zrotation
														JOINT finger5-1.L
														{
															OFFSET 0.330600 -0.279200 -0.400800
															CHANNELS 6 Xposition Yposition Zposition Xrotation Yrotation Zrotation
															JOINT finger5-2.L
															{
																OFFSET 0.065600 -0.091100 -0.205500
																CHANNELS 6 Xposition Yposition Zposition Xrotation Yrotation Zrotation
																JOINT finger5-3.L
																{
																	OFFSET 0.022700 -0.070800 -0.156500
																	CHANNELS 6 Xposition Yposition Zposition Xrotation Yrotation Zrotation
																	End Site
																	{
																		OFFSET 0.024409 -0.082413 -0.201894
																	}
																}
															}
														}
													}
												}
											}
										}
									}
								}
							}
						}
						JOINT clavicle.R
						{
							OFFSET -0.230920 -0.730500 1.332500
							CHANNELS 6 Xposition Yposition Zposition Xrotation Yrotation Zrotation
							JOINT shoulder01.R
							{
								OFFSET -0.869180 0.004800 0.142500
								CHANNELS 6 Xposition Yposition Zposition Xrotation Yrotation Zrotation
								JOINT upperarm01.R
								{
									OFFSET -0.781700 0.048530 -0.438900
									CHANNELS 6 Xposition Yposition Zposition Xrotation Yrotation Zrotation
									JOINT upperarm02.R
									{
										OFFSET -0.379800 0.020950 -0.507300
										CHANNELS 6 Xposition Yposition Zposition Xrotation Yrotation Zrotation
										JOINT lowerarm01.R
										{
											OFFSET -1.291300 0.000960 -1.408900
											CHANNELS 6 Xposition Yposition Zposition Xrotation Yrotation Zrotation
											JOINT lowerarm02.R
											{
												OFFSET -0.664800 -0.938040 -0.632200
												CHANNELS 6 Xposition Yposition Zposition Xrotation Yrotation Zrotation
												JOINT wrist.R
												{
													OFFSET -0.664800 -0.938000 -0.632300
													CHANNELS 6 Xposition Yposition Zposition Xrotation Yrotation Zrotation
													JOINT finger1-1.R
													{
														OFFSET -0.022100 -0.494700 -0.059800
														CHANNELS 6 Xposition Yposition Zposition Xrotation Yrotation Zrotation
														JOINT finger1-2.R
														{
															OFFSET 0.237500 -0.232100 -0.090400
															CHANNELS 6 Xposition Yposition Zposition Xrotation Yrotation Zrotation
															JOINT finger1-3.R
															{
																OFFSET 0.142800 -0.355200 -0.133500
																CHANNELS 6 Xposition Yposition Zposition Xrotation Yrotation Zrotation
																End Site
																{
																	OFFSET 0.055318 -0.234628 -0.188559
																}
															}
														}
													}
													JOINT metacarpal1.R
													{
														OFFSET -0.128200 -0.301800 -0.157400
														CHANNELS 6 Xposition Yposition Zposition Xrotation Yrotation Zrotation
														JOINT finger2-1.R
														{
															OFFSET -0.181500 -0.760100 -0.245000
															CHANNELS 6 Xposition Yposition Zposition Xrotation Yrotation Zrotation
															JOINT finger2-2.R
															{
																OFFSET -0.034000 -0.234800 -0.162100
																CHANNELS 6 Xposition Yposition Zposition Xrotation Yrotation Zrotation
																JOINT finger2-3.R
																{
																	OFFSET 0.006400 -0.191400 -0.176100
																	CHANNELS 6 Xposition Yposition Zposition Xrotation Yrotation Zrotation
																	End Site
																	{
																		OFFSET 0.037805 -0.198917 -0.210083
																	}
																}
															}
														}
													}
													JOINT metacarpal2.R
													{
														OFFSET -0.128200 -0.301800 -0.157400
														CHANNELS 6 Xposition Yposition Zposition Xrotation Yrotation Zrotation
														JOINT finger3-1.R
														{
															OFFSET -0.364700 -0.570900 -0.372300
															CHANNELS 6 Xposition Yposition Zposition Xrotation Yrotation Zrotation
															JOINT finger3-2.R
															{
																OFFSET -0.077200 -0.238400 -0.285200
																CHANNELS 6 Xposition Yposition Zposition Xrotation Yrotation Zrotation
																JOINT finger3-3.R
																{
																	OFFSET -0.027100 -0.194100 -0.227300
																	CHANNELS 6 Xposition Yposition Zposition Xrotation Yrotation Zrotation
																	End Site
																	{
																		OFFSET 0.001600 -0.172684 -0.241412
																	}
																}
															}
														}
													}
													JOINT metacarpal3.R
													{
														OFFSET -0.257000 -0.193400 -0.329600
														CHANNELS 6 Xposition Yposition Zposition Xrotation Yrotation Zrotation
														JOINT finger4-1.R
														{
															OFFSET -0.318500 -0.490300 -0.289700
															CHANNELS 6 Xposition Yposition Zposition Xrotation Yrotation Zrotation
															JOINT finger4-2.R
															{
																OFFSET -0.096700 -0.165200 -0.272300
																CHANNELS 6 Xposition Yposition Zposition Xrotation Yrotation Zrotation
																JOINT finger4-3.R
																{
																	OFFSET -0.050700 -0.150100 -0.224100
																	CHANNELS 6 Xposition Yposition Zposition Xrotation Yrotation Zrotation
																	End Site
																	{
																		OFFSET -0.025513 -0.132174 -0.261011
																	}
																}
															}
														}
													}
													JOINT metacarpal4.R
													{
														OFFSET -0.257000 -0.193400 -0.329600
														CHANNELS 6 Xposition Yposition Zposition Xrotation Yrotation Zrotation
														JOINT finger5-1.R
														{
															OFFSET -0.330600 -0.279200 -0.400800
															CHANNELS 6 Xposition Yposition Zposition Xrotation Yrotation Zrotation
															JOINT finger5-2.R
															{
																OFFSET -0.065600 -0.091100 -0.205500
																CHANNELS 6 Xposition Yposition Zposition Xrotation Yrotation Zrotation
																JOINT finger5-3.R
																{
																	OFFSET -0.022700 -0.070800 -0.156500
																	CHANNELS 6 Xposition Yposition Zposition Xrotation Yrotation Zrotation
																	End Site
																	{
																		OFFSET -0.024409 -0.082413 -0.201894
																	}
																}
															}
														}
													}
												}
											}
										}
									}
								}
							}
						}
						JOINT neck01
						{
							OFFSET 0.000000 -0.613300 2.084500
							CHANNELS 6 Xposition Yposition Zposition Xrotation Yrotation Zrotation
							JOINT neck02
							{
								OFFSET 0.000000 -0.036520 0.231100
								CHANNELS 6 Xposition Yposition Zposition Xrotation Yrotation Zrotation
								JOINT neck03
								{
									OFFSET 0.000000 -0.105960 0.358700
									CHANNELS 6 Xposition Yposition Zposition Xrotation Yrotation Zrotation
									JOINT head
									{
										OFFSET 0.000000 -0.177220 0.374400
										CHANNELS 6 Xposition Yposition Zposition Xrotation Yrotation Zrotation
										JOINT jaw
										{
											OFFSET 0.000000 -0.170450 0.065100
											CHANNELS 6 Xposition Yposition Zposition Xrotation Yrotation Zrotation
											JOINT special04
											{
												OFFSET 0.000000 -0.583150 -0.879300
												CHANNELS 6 Xposition Yposition Zposition Xrotation Yrotation Zrotation
												JOINT oris02
												{
													OFFSET 0.000000 -0.216800 0.226500
													CHANNELS 6 Xposition Yposition Zposition Xrotation Yrotation Zrotation
													JOINT oris01
													{
														OFFSET 0.000000 -0.089800 0.131300
														CHANNELS 6 Xposition Yposition Zposition Xrotation Yrotation Zrotation
														End Site
														{
															OFFSET 0.000000 -0.049001 0.125200
														}
													}
												}
												JOINT oris06.L
												{
													OFFSET 0.000000 -0.216800 0.226500
													CHANNELS 6 Xposition Yposition Zposition Xrotation Yrotation Zrotation
													JOINT oris07.L
													{
														OFFSET 0.127900 -0.054500 0.056500
														CHANNELS 6 Xposition Yposition Zposition Xrotation Yrotation Zrotation
														End Site
														{
															OFFSET 0.054600 -0.015899 0.142399
														}
													}
												}
												JOINT oris06.R
												{
													OFFSET 0.000000 -0.216800 0.226500
													CHANNELS 6 Xposition Yposition Zposition Xrotation Yrotation Zrotation
													JOINT oris07.R
													{
														OFFSET -0.127900 -0.054500 0.056500
														CHANNELS 6 Xposition Yposition Zposition Xrotation Yrotation Zrotation
														End Site
														{
															OFFSET -0.054600 -0.015899 0.142399
														}
													}
												}
											}
											JOINT tongue00
											{
												OFFSET 0.000000 -0.583150 -0.879300
												CHANNELS 6 Xposition Yposition Zposition Xrotation Yrotation Zrotation
												JOINT tongue01
												{
													OFFSET 0.000000 0.449800 0.516000
													CHANNELS 6 Xposition Yposition Zposition Xrotation Yrotation Zrotation
													JOINT tongue02
													{
														OFFSET 0.000000 -0.295600 0.026800
														CHANNELS 6 Xposition Yposition Zposition Xrotation Yrotation Zrotation
														JOINT tongue03
														{
															OFFSET 0.000000 -0.206100 -0.009700
															CHANNELS 6 Xposition Yposition Zposition Xrotation Yrotation Zrotation
															JOINT tongue04
															{
																OFFSET 0.000000 -0.081500 -0.048800
																CHANNELS 6 Xposition Yposition Zposition Xrotation Yrotation Zrotation
																End Site
																{
																	OFFSET 0.000000 -0.081489 -0.048818
																}
															}
															JOINT tongue07.L
															{
																OFFSET 0.000000 -0.081500 -0.048800
																CHANNELS 6 Xposition Yposition Zposition Xrotation Yrotation Zrotation
																End Site
																{
																	OFFSET 0.116608 -0.002750 -0.038277
																}
															}
															JOINT tongue07.R
															{
																OFFSET 0.000000 -0.081500 -0.048800
																CHANNELS 6 Xposition Yposition Zposition Xrotation Yrotation Zrotation
																End Site
																{
																	OFFSET -0.116608 -0.002750 -0.038277
																}
															}
														}
														JOINT tongue06.L
														{
															OFFSET 0.000000 -0.206100 -0.009700
															CHANNELS 6 Xposition Yposition Zposition Xrotation Yrotation Zrotation
															End Site
															{
																OFFSET 0.165194 0.023250 -0.048398
															}
														}
														JOINT tongue06.R
														{
															OFFSET 0.000000 -0.206100 -0.009700
															CHANNELS 6 Xposition Yposition Zposition Xrotation Yrotation Zrotation
															End Site
															{
																OFFSET -0.165194 0.023250 -0.048398
															}
														}
													}
													JOINT tongue05.L
													{
														OFFSET 0.000000 -0.295600 0.026800
														CHANNELS 6 Xposition Yposition Zposition Xrotation Yrotation Zrotation
														End Site
														{
															OFFSET 0.198014 -0.021651 -0.041953
														}
													}
													JOINT tongue05.R
													{
														OFFSET 0.000000 -0.295600 0.026800
														CHANNELS 6 Xposition Yposition Zposition Xrotation Yrotation Zrotation
														End Site
														{
															OFFSET -0.198014 -0.021651 -0.041953
														}
													}
												}
											}
										}
										JOINT levator02.L
										{
											OFFSET 0.029700 -1.174700 0.196300
											CHANNELS 6 Xposition Yposition Zposition Xrotation Yrotation Zrotation
											JOINT levator03.L
											{
												OFFSET 0.163700 0.160900 -0.107700
												CHANNELS 6 Xposition Yposition Zposition Xrotation Yrotation Zrotation
												JOINT levator04.L
												{
													OFFSET 0.057100 0.005400 -0.209200
													CHANNELS 6 Xposition Yposition Zposition Xrotation Yrotation Zrotation
													JOINT levator05.L
													{
														OFFSET 0.033200 0.026900 -0.189500
														CHANNELS 6 Xposition Yposition Zposition Xrotation Yrotation Zrotation
														End Site
														{
															OFFSET -0.023200 0.001400 -0.079201
														}
													}
												}
											}
										}
										JOINT levator02.R
										{
											OFFSET -0.029700 -1.174700 0.196300
											CHANNELS 6 Xposition Yposition Zposition Xrotation Yrotation Zrotation
											JOINT levator03.R
											{
												OFFSET -0.163700 0.160900 -0.107700
												CHANNELS 6 Xposition Yposition Zposition Xrotation Yrotation Zrotation
												JOINT levator04.R
												{
													OFFSET -0.057100 0.005400 -0.209200
													CHANNELS 6 Xposition Yposition Zposition Xrotation Yrotation Zrotation
													JOINT levator05.R
													{
														OFFSET -0.033200 0.026900 -0.189500
														CHANNELS 6 Xposition Yposition Zposition Xrotation Yrotation Zrotation
														End Site
														{
															OFFSET 0.023200 0.001400 -0.079201
														}
													}
												}
											}
										}
										JOINT special01
										{
											OFFSET 0.000000 0.764300 0.023000
											CHANNELS 6 Xposition Yposition Zposition Xrotation Yrotation Zrotation
											JOINT oris04.L
											{
												OFFSET 0.000000 -1.908000 -0.161300
												CHANNELS 6 Xposition Yposition Zposition Xrotation Yrotation Zrotation
												JOINT oris03.L
												{
													OFFSET 0.137100 0.031400 -0.082500
													CHANNELS 6 Xposition Yposition Zposition Xrotation Yrotation Zrotation
													End Site
													{
														OFFSET 0.029600 0.015800 -0.048900
													}
												}
											}
											JOINT oris04.R
											{
												OFFSET 0.000000 -1.908000 -0.161300
												CHANNELS 6 Xposition Yposition Zposition Xrotation Yrotation Zrotation
												JOINT oris03.R
												{
													OFFSET -0.137100 0.031400 -0.082500
													CHANNELS 6 Xposition Yposition Zposition Xrotation Yrotation Zrotation
													End Site
													{
														OFFSET -0.029600 0.015800 -0.048900
													}
												}
											}
											JOINT oris06
											{
												OFFSET 0.000000 -1.908000 -0.161300
												CHANNELS 6 Xposition Yposition Zposition Xrotation Yrotation Zrotation
												JOINT oris05
												{
													OFFSET 0.000000 0.003200 -0.067200
													CHANNELS 6 Xposition Yposition Zposition Xrotation Yrotation Zrotation
													End Site
													{
														OFFSET 0.000000 -0.024400 -0.062601
													}
												}
											}
										}
										JOINT special03
										{
											OFFSET 0.000000 -0.170450 0.065100
											CHANNELS 6 Xposition Yposition Zposition Xrotation Yrotation Zrotation
											JOINT levator06.L
											{
												OFFSET 0.056900 -1.100950 -0.084100
												CHANNELS 6 Xposition Yposition Zposition Xrotation Yrotation Zrotation
												End Site
												{
													OFFSET 0.101099 0.236300 0.057201
												}
											}
											JOINT levator06.R
											{
												OFFSET -0.056900 -1.100950 -0.084100
												CHANNELS 6 Xposition Yposition Zposition Xrotation Yrotation Zrotation
												End Site
												{
													OFFSET -0.101099 0.236300 0.057201
												}
											}
										}
										JOINT special06.L
										{
											OFFSET 0.000000 0.005050 1.538700
											CHANNELS 6 Xposition Yposition Zposition Xrotation Yrotation Zrotation
											JOINT special05.L
											{
												OFFSET 0.188700 -0.634050 -0.187900
												CHANNELS 6 Xposition Yposition Zposition Xrotation Yrotation Zrotation
												JOINT eye.L
												{
													OFFSET 0.104430 -0.205400 -0.962100
													CHANNELS 6 Xposition Yposition Zposition Xrotation Yrotation Zrotation
													End Site
													{
														OFFSET 0.014097 -0.387100 -0.048192
													}
												}
												JOINT orbicularis03.L
												{
													OFFSET 0.104430 -0.205400 -0.962100
													CHANNELS 6 Xposition Yposition Zposition Xrotation Yrotation Zrotation
													End Site
													{
														OFFSET 0.012750 -0.370295 0.071524
													}
												}
												JOINT orbicularis04.L
												{
													OFFSET 0.104430 -0.205400 -0.962100
													CHANNELS 6 Xposition Yposition Zposition Xrotation Yrotation Zrotation
													End Site
													{
														OFFSET 0.014174 -0.356890 -0.159719
													}
												}
											}
										}
										JOINT special06.R
										{
											OFFSET 0.000000 0.005050 1.538700
											CHANNELS 6 Xposition Yposition Zposition Xrotation Yrotation Zrotation
											JOINT special05.R
											{
												OFFSET -0.188700 -0.634050 -0.187900
												CHANNELS 6 Xposition Yposition Zposition Xrotation Yrotation Zrotation
												JOINT eye.R
												{
													OFFSET -0.104430 -0.205400 -0.962100
													CHANNELS 6 Xposition Yposition Zposition Xrotation Yrotation Zrotation
													End Site
													{
														OFFSET -0.014097 -0.387100 -0.048192
													}
												}
												JOINT orbicularis03.R
												{
													OFFSET -0.104430 -0.205400 -0.962100
													CHANNELS 6 Xposition Yposition Zposition Xrotation Yrotation Zrotation
													End Site
													{
														OFFSET -0.012750 -0.370295 0.071524
													}
												}
												JOINT orbicularis04.R
												{
													OFFSET -0.104430 -0.205400 -0.962100
													CHANNELS 6 Xposition Yposition Zposition Xrotation Yrotation Zrotation
													End Site
													{
														OFFSET -0.014174 -0.356890 -0.159719
													}
												}
											}
										}
										JOINT temporalis01.L
										{
											OFFSET 0.633200 -0.660200 0.464400
											CHANNELS 6 Xposition Yposition Zposition Xrotation Yrotation Zrotation
											JOINT oculi02.L
											{
												OFFSET -0.083100 -0.198900 -0.015000
												CHANNELS 6 Xposition Yposition Zposition Xrotation Yrotation Zrotation
												JOINT oculi01.L
												{
													OFFSET -0.206800 -0.202100 0.149501
													CHANNELS 6 Xposition Yposition Zposition Xrotation Yrotation Zrotation
													End Site
													{
														OFFSET -0.183600 -0.036499 0.009901
													}
												}
											}
										}
										JOINT temporalis01.R
										{
											OFFSET -0.633200 -0.660200 0.464400
											CHANNELS 6 Xposition Yposition Zposition Xrotation Yrotation Zrotation
											JOINT oculi02.R
											{
												OFFSET 0.083100 -0.198900 -0.015000
												CHANNELS 6 Xposition Yposition Zposition Xrotation Yrotation Zrotation
												JOINT oculi01.R
												{
													OFFSET 0.206800 -0.202100 0.149501
													CHANNELS 6 Xposition Yposition Zposition Xrotation Yrotation Zrotation
													End Site
													{
														OFFSET 0.183600 -0.036499 0.009901
													}
												}
											}
										}
										JOINT temporalis02.L
										{
											OFFSET 0.633900 -0.625700 0.234000
											CHANNELS 6 Xposition Yposition Zposition Xrotation Yrotation Zrotation
											JOINT risorius02.L
											{
												OFFSET -0.096600 -0.200300 0.063400
												CHANNELS 6 Xposition Yposition Zposition Xrotation Yrotation Zrotation
												JOINT risorius03.L
												{
													OFFSET -0.065900 -0.042700 -0.303900
													CHANNELS 6 Xposition Yposition Zposition Xrotation Yrotation Zrotation
													End Site
													{
														OFFSET 0.054400 0.162100 -0.209099
													}
												}
											}
										}
										JOINT temporalis02.R
										{
											OFFSET -0.633900 -0.625700 0.234000
											CHANNELS 6 Xposition Yposition Zposition Xrotation Yrotation Zrotation
											JOINT risorius02.R
											{
												OFFSET 0.096600 -0.200300 0.063400
												CHANNELS 6 Xposition Yposition Zposition Xrotation Yrotation Zrotation
												JOINT risorius03.R
												{
													OFFSET 0.065900 -0.042700 -0.303900
													CHANNELS 6 Xposition Yposition Zposition Xrotation Yrotation Zrotation
													End Site
													{
														OFFSET -0.054400 0.162100 -0.209099
													}
												}
											}
										}
									}
								}
							}
						}
					}
				}
			}
		}
	}
	JOINT pelvis.L
	{
		OFFSET 0.000000 -0.714400 0.105000
		CHANNELS 6 Xposition Yposition Zposition Xrotation Yrotation Zrotation
		JOINT upperleg01.L
		{
			OFFSET 1.097700 0.105800 -0.054700
			CHANNELS 6 Xposition Yposition Zposition Xrotation Yrotation Zrotation
			JOINT upperleg02.L
			{
				OFFSET -0.067000 -0.252900 -0.810950
				CHANNELS 6 Xposition Yposition Zposition Xrotation Yrotation Zrotation
				JOINT lowerleg01.L
				{
					OFFSET 0.494600 -0.092900 -3.450050
					CHANNELS 6 Xposition Yposition Zposition Xrotation Yrotation Zrotation
					JOINT lowerleg02.L
					{
						OFFSET 0.219100 0.059180 -2.174500
						CHANNELS 6 Xposition Yposition Zposition Xrotation Yrotation Zrotation
						JOINT foot.L
						{
							OFFSET 0.219200 0.059170 -2.174400
							CHANNELS 6 Xposition Yposition Zposition Xrotation Yrotation Zrotation
							JOINT toe1-1.L
							{
								OFFSET -0.285100 -1.426450 -0.381900
								CHANNELS 6 Xposition Yposition Zposition Xrotation Yrotation Zrotation
								JOINT toe1-2.L
								{
									OFFSET 0.022500 -0.271700 -0.080100
									CHANNELS 6 Xposition Yposition Zposition Xrotation Yrotation Zrotation
									End Site
									{
										OFFSET 0.040604 -0.300377 -0.121360
									}
								}
							}
							JOINT toe2-1.L
							{
								OFFSET -0.039500 -1.457250 -0.421100
								CHANNELS 6 Xposition Yposition Zposition Xrotation Yrotation Zrotation
								JOINT toe2-2.L
								{
									OFFSET 0.014200 -0.226200 -0.033700
									CHANNELS 6 Xposition Yposition Zposition Xrotation Yrotation Zrotation
									JOINT toe2-3.L
									{
										OFFSET 0.002500 -0.141600 -0.059100
										CHANNELS 6 Xposition Yposition Zposition Xrotation Yrotation Zrotation
										End Site
										{
											OFFSET 0.008549 -0.174398 -0.066314
										}
									}
								}
							}
							JOINT toe3-1.L
							{
								OFFSET 0.135100 -1.426550 -0.452800
								CHANNELS 6 Xposition Yposition Zposition Xrotation Yrotation Zrotation
								JOINT toe3-2.L
								{
									OFFSET 0.004600 -0.208700 -0.026000
									CHANNELS 6 Xposition Yposition Zposition Xrotation Yrotation Zrotation
									JOINT toe3-3.L
									{
										OFFSET -0.004100 -0.129800 -0.047100
										CHANNELS 6 Xposition Yposition Zposition Xrotation Yrotation Zrotation
										End Site
										{
											OFFSET 0.000275 -0.136402 -0.041994
										}
									}
								}
							}
							JOINT toe4-1.L
							{
								OFFSET 0.288700 -1.345450 -0.462000
								CHANNELS 6 Xposition Yposition Zposition Xrotation Yrotation Zrotation
								JOINT toe4-2.L
								{
									OFFSET 0.002200 -0.162600 -0.023900
									CHANNELS 6 Xposition Yposition Zposition Xrotation Yrotation Zrotation
									JOINT toe4-3.L
									{
										OFFSET -0.011600 -0.126400 -0.044000
										CHANNELS 6 Xposition Yposition Zposition Xrotation Yrotation Zrotation
										End Site
										{
											OFFSET 0.006230 -0.114617 -0.058372
										}
									}
								}
							}
							JOINT toe5-1.L
							{
								OFFSET 0.436600 -1.306450 -0.478700
								CHANNELS 6 Xposition Yposition Zposition Xrotation Yrotation Zrotation
								JOINT toe5-2.L
								{
									OFFSET -0.001200 -0.120100 -0.028500
									CHANNELS 6 Xposition Yposition Zposition Xrotation Yrotation Zrotation
									JOINT toe5-3.L
									{
										OFFSET -0.015300 -0.086200 -0.027500
										CHANNELS 6 Xposition Yposition Zposition Xrotation Yrotation Zrotation
										End Site
										{
											OFFSET -0.000650 -0.115707 -0.072088
										}
									}
								}
							}
						}
					}
				}
			}
		}
	}
	JOINT pelvis.R
	{
		OFFSET 0.000000 -0.714400 0.105000
		CHANNELS 6 Xposition Yposition Zposition Xrotation Yrotation Zrotation
		JOINT upperleg01.R
		{
			OFFSET -1.097700 0.105800 -0.054700
			CHANNELS 6 Xposition Yposition Zposition Xrotation Yrotation Zrotation
			JOINT upperleg02.R
			{
				OFFSET 0.067000 -0.252900 -0.810950
				CHANNELS 6 Xposition Yposition Zposition Xrotation Yrotation Zrotation
				JOINT lowerleg01.R
				{
					OFFSET -0.494600 -0.092900 -3.450050
					CHANNELS 6 Xposition Yposition Zposition Xrotation Yrotation Zrotation
					JOINT lowerleg02.R
					{
						OFFSET -0.219100 0.059180 -2.174500
						CHANNELS 6 Xposition Yposition Zposition Xrotation Yrotation Zrotation
						JOINT foot.R
						{
							OFFSET -0.219200 0.059170 -2.174400
							CHANNELS 6 Xposition Yposition Zposition Xrotation Yrotation Zrotation
							JOINT toe1-1.R
							{
								OFFSET 0.285100 -1.426450 -0.381900
								CHANNELS 6 Xposition Yposition Zposition Xrotation Yrotation Zrotation
								JOINT toe1-2.R
								{
									OFFSET -0.022500 -0.271700 -0.080100
									CHANNELS 6 Xposition Yposition Zposition Xrotation Yrotation Zrotation
									End Site
									{
										OFFSET -0.040604 -0.300377 -0.121360
									}
								}
							}
							JOINT toe2-1.R
							{
								OFFSET 0.039500 -1.457250 -0.421100
								CHANNELS 6 Xposition Yposition Zposition Xrotation Yrotation Zrotation
								JOINT toe2-2.R
								{
									OFFSET -0.014200 -0.226200 -0.033700
									CHANNELS 6 Xposition Yposition Zposition Xrotation Yrotation Zrotation
									JOINT toe2-3.R
									{
										OFFSET -0.002500 -0.141600 -0.059100
										CHANNELS 6 Xposition Yposition Zposition Xrotation Yrotation Zrotation
										End Site
										{
											OFFSET -0.008549 -0.174398 -0.066314
										}
									}
								}
							}
							JOINT toe3-1.R
							{
								OFFSET -0.135100 -1.426550 -0.452800
								CHANNELS 6 Xposition Yposition Zposition Xrotation Yrotation Zrotation
								JOINT toe3-2.R
								{
									OFFSET -0.004600 -0.208700 -0.026000
									CHANNELS 6 Xposition Yposition Zposition Xrotation Yrotation Zrotation
									JOINT toe3-3.R
									{
										OFFSET 0.004100 -0.129800 -0.047100
										CHANNELS 6 Xposition Yposition Zposition Xrotation Yrotation Zrotation
										End Site
										{
											OFFSET -0.000275 -0.136402 -0.041994
										}
									}
								}
							}
							JOINT toe4-1.R
							{
								OFFSET -0.288700 -1.345450 -0.462000
								CHANNELS 6 Xposition Yposition Zposition Xrotation Yrotation Zrotation
								JOINT toe4-2.R
								{
									OFFSET -0.002200 -0.162600 -0.023900
									CHANNELS 6 Xposition Yposition Zposition Xrotation Yrotation Zrotation
									JOINT toe4-3.R
									{
										OFFSET 0.011600 -0.126400 -0.044000
										CHANNELS 6 Xposition Yposition Zposition Xrotation Yrotation Zrotation
										End Site
										{
											OFFSET -0.006230 -0.114617 -0.058372
										}
									}
								}
							}
							JOINT toe5-1.R
							{
								OFFSET -0.436600 -1.306450 -0.478700
								CHANNELS 6 Xposition Yposition Zposition Xrotation Yrotation Zrotation
								JOINT toe5-2.R
								{
									OFFSET 0.001200 -0.120100 -0.028500
									CHANNELS 6 Xposition Yposition Zposition Xrotation Yrotation Zrotation
									JOINT toe5-3.R
									{
										OFFSET 0.015300 -0.086200 -0.027500
										CHANNELS 6 Xposition Yposition Zposition Xrotation Yrotation Zrotation
										End Site
										{
											OFFSET 0.000650 -0.115707 -0.072088
										}
									}
								}
							}
						}
					}
				}
			}
		}
	}
}
MOTION
Frames: 1
Frame Time: 0.041667
0.000000 0.646900 -2.410111 -0.000000 0.000000 -0.000000 0.000000 -0.714400 0.105000 4.563609 -16.740918 23.829009 0.000000 0.320750 0.878201 2.686894 13.898925 -2.366971 0.000000 -0.094550 0.705801 -0.000002 -0.000000 -0.000000 -0.000000 0.083100 0.613200 -0.000001 0.000000 0.000001 0.000000 0.221200 1.374900 -0.000000 0.000000 -0.000000 0.000000 0.221200 1.374900 -0.000001 0.000000 0.000000 0.000000 0.221200 1.374900 0.000002 0.000000 -0.000002 0.230920 -0.730500 1.332500 0.000001 0.000001 -0.000001 0.869180 0.004800 0.142500 -7.250137 -33.789086 -2.851667 0.781700 0.048530 -0.438900 -1.156190 -6.264924 -0.179354 0.379800 0.020950 -0.507300 -0.000000 -0.000001 0.000001 1.291300 0.000960 -1.408900 20.115136 1.213956 22.437979 0.664800 -0.938039 -0.632200 21.063554 -37.633010 -16.022242 0.664799 -0.937998 -0.632300 -30.250355 19.397710 41.686752 0.022100 -0.494700 -0.059800 -10.661066 -22.663068 10.728311 -0.237500 -0.232100 -0.090399 10.945743 -2.420706 4.390288 -0.142799 -0.355200 -0.133500 -0.000003 -0.000001 -0.000001 0.128200 -0.301800 -0.157400 1.791448 -0.456181 0.690774 0.181501 -0.760099 -0.244999 0.000002 0.000003 0.000004 0.034000 -0.234801 -0.162101 -6.197149 -3.262934 0.286439 -0.006401 -0.191401 -0.176100 -0.000000 0.000001 -0.000004 0.128200 -0.301800 -0.157400 0.000003 0.000004 0.000004 0.364700 -0.570899 -0.372300 -6.250587 1.768537 -2.307913 0.077201 -0.238400 -0.285199 -3.673620 -3.130691 0.425287 0.027100 -0.194101 -0.227300 -0.000004 -0.000003 -0.000002 0.257000 -0.193400 -0.329600 0.000004 0.000003 0.000004 0.318500 -0.490301 -0.289700 -13.300699 4.077094 -4.691804 0.096700 -0.165200 -0.272300 0.000001 0.000002 0.000006 0.050699 -0.150100 -0.224100 -0.000000 -0.000001 -0.000000 0.257000 -0.193400 -0.329600 1.372726 -0.009046 0.652149 0.330601 -0.279201 -0.400800 -18.217545 -7.437559 -4.864325 0.065600 -0.091100 -0.205500 -0.000000 0.000002 -0.000000 0.022700 -0.070800 -0.156500 0.000000 0.000000 0.000001 -0.230920 -0.730500 1.332500 1.118496 0.223583 14.766193 -0.869181 0.004800 0.142500 -32.625286 34.523379 24.109200 -0.781701 0.048530 -0.438900 -43.746576 30.494828 33.063969 -0.379800 0.020950 -0.507300 -0.000000 0.000005 -0.000000 -1.291300 0.000959 -1.408900 -33.968795 -3.351851 40.274736 -0.664800 -0.938039 -0.632201 -44.070580 -26.274681 -50.217094 -0.664801 -0.937999 -0.632299 2.572908 -6.632934 -9.368027 -0.022099 -0.494700 -0.059800 -0.000003 0.000001 0.000002 0.237501 -0.232100 -0.090400 -0.000001 0.000002 0.000001 0.142799 -0.355200 -0.133500 -0.000003 -0.000000 -0.000000 -0.128201 -0.301800 -0.157400 -0.000005 0.000005 0.000003 -0.181501 -0.760100 -0.244999 0.000002 -0.000001 -0.000003 -0.034000 -0.234800 -0.162101 -0.000001 0.000008 0.000004 0.006400 -0.191400 -0.176100 0.000007 -0.000005 0.000001 -0.128200 -0.301800 -0.157400 -0.000001 -0.000003 -0.000001 -0.364700 -0.570900 -0.372300 -0.000001 0.000001 0.000002 -0.077201 -0.238401 -0.285199 -0.000002 0.000001 0.000002 -0.027101 -0.194100 -0.227300 -0.000003 -0.000000 -0.000003 -0.257000 -0.193400 -0.329600 -0.000002 -0.000001 -0.000000 -0.318499 -0.490300 -0.289701 0.000003 -0.000002 0.000001 -0.096701 -0.165200 -0.272300 0.000006 -0.000001 0.000000 -0.050699 -0.150100 -0.224100 0.000000 -0.000005 -0.000002 -0.257000 -0.193400 -0.329600 -0.000002 0.000003 -0.000002 -0.330600 -0.279200 -0.400800 0.000002 -0.000003 -0.000000 -0.065599 -0.091100 -0.205500 -0.000002 -0.000006 0.000002 -0.022701 -0.070801 -0.156500 0.000001 0.000001 0.000004 0.000000 -0.613300 2.084500 3.387665 3.191861 65.046986 -0.000000 -0.036520 0.231100 -0.000002 0.000000 -0.000000 0.000000 -0.105960 0.358699 -0.000000 0.000000 0.000000 0.000000 -0.177220 0.374400 -0.000000 -0.000000 0.000000 0.000000 -0.170450 0.065099 -0.000000 0.000001 0.000000 0.000000 -0.583150 -0.879300 0.000002 0.000000 0.000000 0.000000 -0.216800 0.226499 0.000003 -0.000000 -0.000000 0.000000 -0.089800 0.131300 0.000002 0.000000 0.000000 -0.000000 -0.216800 0.226501 -0.000001 0.000001 0.000003 0.127900 -0.054500 0.056500 0.000003 0.000004 -0.000004 0.000000 -0.216800 0.226500 -0.000000 -0.000004 -0.000000 -0.127899 -0.054500 0.056500 -0.000003 0.000001 -0.000000 0.000000 -0.583150 -0.879300 -0.000002 0.000000 0.000000 -0.000000 0.449800 0.515999 -0.000003 0.000000 0.000001 0.000000 -0.295600 0.026801 0.000000 0.000000 0.000000 0.000000 -0.206100 -0.009701 0.000002 0.000000 0.000000 -0.000000 -0.081500 -0.048800 0.000003 -0.000000 -0.000000 -0.000000 -0.081500 -0.048799 0.000004 -0.000001 -0.000000 0.000000 -0.081500 -0.048800 0.000000 0.000001 0.000000 0.000000 -0.206100 -0.009700 -0.000001 0.000000 0.000000 0.000000 -0.206100 -0.009701 -0.000000 0.000001 0.000000 -0.000000 -0.295600 0.026800 -0.000000 -0.000001 0.000000 -0.000000 -0.295600 0.026801 -0.000000 -0.000001 0.000001 0.029700 -1.174700 0.196300 -0.000002 0.000002 -0.000001 0.163700 0.160900 -0.107700 -0.000000 0.000001 -0.000001 0.057100 0.005400 -0.209200 -0.000000 0.000000 -0.000001 0.033200 0.026900 -0.189499 -0.000001 0.000001 0.000001 -0.029700 -1.174700 0.196300 -0.000002 0.000001 0.000001 -0.163699 0.160900 -0.107699 0.000001 -0.000002 0.000006 -0.057100 0.005400 -0.209200 -0.000001 0.000001 -0.000003 -0.033200 0.026900 -0.189499 -0.000000 -0.000001 -0.000003 0.000000 0.764300 0.023000 0.000001 0.000001 -0.000000 0.000001 -1.908000 -0.161299 -0.000002 0.000000 -0.000001 0.137101 0.031400 -0.082501 0.000001 -0.000002 -0.000001 -0.000000 -1.908000 -0.161300 -0.000002 0.000005 0.000001 -0.137101 0.031400 -0.082500 -0.000001 -0.000002 -0.000000 0.000000 -1.908000 -0.161299 0.000000 0.000000 0.000000 -0.000000 0.003200 -0.067200 -0.000002 0.000000 0.000000 0.000000 -0.170450 0.065100 0.000000 0.000000 0.000000 0.056900 -1.100950 -0.084099 0.000001 -0.000001 0.000001 -0.056900 -1.100950 -0.084100 -0.000000 -0.000003 0.000001 0.000000 0.005050 1.538702 0.000001 0.000001 -0.000002 0.188700 -0.634050 -0.187900 -0.000001 0.000000 -0.000002 0.104430 -0.205400 -0.962100 -0.000001 -0.000001 -0.000001 0.104430 -0.205400 -0.962100 -0.000001 -0.000000 -0.000001 0.104430 -0.205400 -0.962100 -0.000000 0.000000 -0.000001 0.000000 0.005050 1.538702 -0.000000 0.000000 -0.000001 -0.188700 -0.634049 -0.187901 -0.000002 -0.000000 -0.000004 -0.104430 -0.205400 -0.962101 0.000001 -0.000000 -0.000000 -0.104430 -0.205400 -0.962102 0.000000 -0.000000 0.000002 -0.104430 -0.205400 -0.962101 -0.000000 0.000000 0.000000 0.633200 -0.660200 0.464399 -0.000000 0.000001 0.000003 -0.083100 -0.198901 -0.015002 0.000005 0.000001 -0.000006 -0.206800 -0.202100 0.149500 -0.000001 -0.000003 -0.000000 -0.633200 -0.660200 0.464400 0.000000 0.000000 -0.000003 0.083100 -0.198900 -0.015001 0.000003 0.000000 0.000001 0.206800 -0.202100 0.149500 -0.000001 0.000002 -0.000002 0.633900 -0.625700 0.234000 0.000001 -0.000000 0.000002 -0.096600 -0.200299 0.063400 -0.000001 0.000002 -0.000000 -0.065900 -0.042700 -0.303901 0.000002 -0.000000 0.000003 -0.633900 -0.625700 0.234000 0.000002 0.000000 -0.000002 0.096600 -0.200299 0.063401 -0.000003 -0.000001 -0.000001 0.065900 -0.042701 -0.303900 0.000002 -0.000001 -0.000002 0.000000 -0.714400 0.105000 -0.000000 0.000000 -0.000000 1.097700 0.105800 -0.054699 14.641549 -28.242448 11.075588 -0.067000 -0.252900 -0.810950 1.569122 -9.448006 1.998899 0.494600 -0.092900 -3.450049 0.000000 0.000004 0.000000 0.219100 0.059180 -2.174500 -2.859822 6.875345 -0.867422 0.219200 0.059170 -2.174401 -8.241946 29.556018 19.079628 -0.285099 -1.426449 -0.381901 0.000002 0.000001 0.000001 0.022500 -0.271700 -0.080100 0.000001 0.000000 0.000003 -0.039500 -1.457249 -0.421102 0.000003 -0.000001 0.000004 0.014200 -0.226200 -0.033700 0.000002 -0.000001 0.000002 0.002501 -0.141599 -0.059100 0.000000 -0.000001 0.000004 0.135100 -1.426549 -0.452801 -0.000001 0.000000 0.000001 0.004600 -0.208700 -0.026001 -0.000004 0.000001 -0.000001 -0.004100 -0.129801 -0.047099 0.000003 -0.000000 0.000000 0.288701 -1.345449 -0.462002 0.000004 -0.000000 0.000001 0.002200 -0.162600 -0.023900 -0.000003 0.000000 -0.000000 -0.011600 -0.126401 -0.043999 0.000005 0.000000 -0.000000 0.436601 -1.306449 -0.478700 0.000003 -0.000000 0.000000 -0.001200 -0.120100 -0.028499 0.000003 0.000000 -0.000000 -0.015302 -0.086200 -0.027496 -0.000001 0.000002 -0.000001 -0.000000 -0.714400 0.105000 -0.000000 -0.000000 0.000000 -1.097700 0.105800 -0.054699 -30.496747 32.637574 12.207104 0.067000 -0.252900 -0.810950 -27.303867 -8.057443 -9.831875 -0.494600 -0.092901 -3.450049 68.458727 -12.030682 7.328842 -0.219100 0.059179 -2.174500 -0.000001 0.000000 -0.000000 -0.219200 0.059169 -2.174401 -13.541643 -7.260324 -8.037619 0.285100 -1.426450 -0.381900 0.000002 -0.000002 0.000001 -0.022500 -0.271701 -0.080099 0.000003 0.000001 0.000000 0.039500 -1.457250 -0.421100 0.000001 -0.000000 0.000001 -0.014200 -0.226199 -0.033700 0.000002 0.000000 -0.000001 -0.002499 -0.141599 -0.059100 0.000002 0.000000 -0.000001 -0.135100 -1.426551 -0.452801 -0.000002 -0.000001 0.000001 -0.004600 -0.208700 -0.026001 -0.000002 -0.000001 0.000001 0.004100 -0.129800 -0.047101 0.000003 -0.000000 -0.000001 -0.288700 -1.345451 -0.462000 0.000001 -0.000001 0.000001 -0.002199 -0.162600 -0.023900 -0.000001 -0.000000 -0.000000 0.011600 -0.126400 -0.043999 0.000007 0.000000 0.000001 -0.436600 -1.306450 -0.478700 -0.000000 -0.000001 0.000000 0.001200 -0.120099 -0.028501 0.000002 0.000000 0.000001 0.015300 -0.086200 -0.027497 0.000001 -0.000000 0.000001 
