HIERARCHY
ROOT root
{
	OFFSET 0.000000 0.647730 8.700670
	CHANNELS 6 Xposition Yposition Zposition Xrotation Yrotation Zrotation
	JOINT spine05
	{
		OFFSET 0.000000 -0.779770 0.042199
		CHANNELS 6 Xposition Yposition Zposition Xrotation Yrotation Zrotation
		JOINT spine04
		{
			OFFSET 0.000000 0.387330 0.797730
			CHANNELS 6 Xposition Yposition Zposition Xrotation Yrotation Zrotation
			JOINT spine03
			{
				OFFSET 0.000000 -0.154170 0.662600
				CHANNELS 6 Xposition Yposition Zposition Xrotation Yrotation Zrotation
				JOINT spine02
				{
					OFFSET 0.000000 -0.017320 0.750501
					CHANNELS 6 Xposition Yposition Zposition Xrotation Yrotation Zrotation
					JOINT breast.L
					{
						OFFSET 0.000000 0.103200 1.439199
						CHANNELS 6 Xposition Yposition Zposition Xrotation Yrotation Zrotation
						End Site
						{
							OFFSET 1.020987 -1.674111 -0.248674
						}
					}
					JOINT breast.R
					{
						OFFSET 0.000000 0.103200 1.439199
						CHANNELS 6 Xposition Yposition Zposition Xrotation Yrotation Zrotation
						End Site
						{
							OFFSET -1.020987 -1.674111 -0.248674
						}
					}
					JOINT spine01
					{
						OFFSET 0.000000 0.103200 1.439199
						CHANNELS 6 Xposition Yposition Zposition Xrotation Yrotation Zrotation
						JOINT clavicle.L
						{
							OFFSET 0.227360 -0.403210 1.038200
							CHANNELS 6 Xposition Yposition Zposition Xrotation Yrotation Zrotation
							JOINT shoulder01.L
							{
								OFFSET 0.763140 -0.000450 0.160800
								CHANNELS 6 Xposition Yposition Zposition Xrotation Yrotation Zrotation
								JOINT upperarm01.L
								{
									OFFSET 0.709900 0.023550 -0.387501
									CHANNELS 6 Xposition Yposition Zposition Xrotation Yrotation Zrotation
									JOINT upperarm02.L
									{
										OFFSET 0.469600 0.016360 -0.541699
										CHANNELS 6 Xposition Yposition Zposition Xrotation Yrotation Zrotation
										JOINT lowerarm01.L
										{
											OFFSET 1.143500 -0.024510 -1.264200
											CHANNELS 6 Xposition Yposition Zposition Xrotation Yrotation Zrotation
											JOINT lowerarm02.L
											{
												OFFSET 0.609800 -0.815940 -0.621200
												CHANNELS 6 Xposition Yposition Zposition Xrotation Yrotation Zrotation
												JOINT wrist.L
												{
													OFFSET 0.609900 -0.815900 -0.621100
													CHANNELS 6 Xposition Yposition Zposition Xrotation Yrotation Zrotation
													JOINT finger1-1.L
													{
														OFFSET 0.010900 -0.438600 -0.075299
														CHANNELS 6 Xposition Yposition Zposition Xrotation Yrotation Zrotation
														JOINT finger1-2.L
														{
															OFFSET -0.209000 -0.209800 -0.086801
															CHANNELS 6 Xposition Yposition Zposition Xrotation Yrotation Zrotation
															JOINT finger1-3.L
															{
																OFFSET -0.123800 -0.310300 -0.139500
																CHANNELS 6 Xposition Yposition Zposition Xrotation Yrotation Zrotation
																End Site
																{
																	OFFSET -0.055006 -0.213001 -0.173997
																}
															}
														}
													}
													JOINT metacarpal1.L
													{
														OFFSET 0.107100 -0.260600 -0.156699
														CHANNELS 6 Xposition Yposition Zposition Xrotation Yrotation Zrotation
														JOINT finger2-1.L
														{
															OFFSET 0.170600 -0.683000 -0.249201
															CHANNELS 6 Xposition Yposition Zposition Xrotation Yrotation Zrotation
															JOINT finger2-2.L
															{
																OFFSET 0.033400 -0.207100 -0.150700
																CHANNELS 6 Xposition Yposition Zposition Xrotation Yrotation Zrotation
																JOINT finger2-3.L
																{
																	OFFSET -0.005600 -0.163400 -0.162900
																	CHANNELS 6 Xposition Yposition Zposition Xrotation Yrotation Zrotation
																	End Site
																	{
																		OFFSET -0.036675 -0.175730 -0.201578
																	}
																}
															}
														}
													}
													JOINT metacarpal2.L
													{
														OFFSET 0.107100 -0.260600 -0.156699
														CHANNELS 6 Xposition Yposition Zposition Xrotation Yrotation Zrotation
														JOINT finger3-1.L
														{
															OFFSET 0.333200 -0.504800 -0.358101
															CHANNELS 6 Xposition Yposition Zposition Xrotation Yrotation Zrotation
															JOINT finger3-2.L
															{
																OFFSET 0.072100 -0.204500 -0.259600
																CHANNELS 6 Xposition Yposition Zposition Xrotation Yrotation Zrotation
																JOINT finger3-3.L
																{
																	OFFSET 0.026600 -0.171100 -0.215110
																	CHANNELS 6 Xposition Yposition Zposition Xrotation Yrotation Zrotation
																	End Site
																	{
																		OFFSET -0.001996 -0.148388 -0.225368
																	}
																}
															}
														}
													}
													JOINT metacarpal3.L
													{
														OFFSET 0.223800 -0.156300 -0.308700
														CHANNELS 6 Xposition Yposition Zposition Xrotation Yrotation Zrotation
														JOINT finger4-1.L
														{
															OFFSET 0.291800 -0.438100 -0.282600
															CHANNELS 6 Xposition Yposition Zposition Xrotation Yrotation Zrotation
															JOINT finger4-2.L
															{
																OFFSET 0.092900 -0.140700 -0.244699
																CHANNELS 6 Xposition Yposition Zposition Xrotation Yrotation Zrotation
																JOINT finger4-3.L
																{
																	OFFSET 0.042400 -0.125200 -0.209790
																	CHANNELS 6 Xposition Yposition Zposition Xrotation Yrotation Zrotation
																	End Site
																	{
																		OFFSET 0.024430 -0.112092 -0.241180
																	}
																}
															}
														}
													}
													JOINT metacarpal4.L
													{
														OFFSET 0.223800 -0.156300 -0.308700
														CHANNELS 6 Xposition Yposition Zposition Xrotation Yrotation Zrotation
														JOINT finger5-1.L
														{
															OFFSET 0.306800 -0.244600 -0.369200
															CHANNELS 6 Xposition Yposition Zposition Xrotation Yrotation Zrotation
															JOINT finger5-2.L
															{
																OFFSET 0.058900 -0.074400 -0.190600
																CHANNELS 6 Xposition Yposition Zposition Xrotation Yrotation Zrotation
																JOINT finger5-3.L
																{
																	OFFSET 0.017300 -0.056900 -0.144350
																	CHANNELS 6 Xposition Yposition Zposition Xrotation Yrotation Zrotation
																	End Site
																	{
																		OFFSET 0.026555 -0.069063 -0.184319
																	}
																}
															}
														}
													}
												}
											}
										}
									}
								}
							}
						}
						JOINT clavicle.R
						{
							OFFSET -0.227360 -0.403210 1.038200
							CHANNELS 6 Xposition Yposition Zposition Xrotation Yrotation Zrotation
							JOINT shoulder01.R
							{
								OFFSET -0.763140 -0.000450 0.160800
								CHANNELS 6 Xposition Yposition Zposition Xrotation Yrotation Zrotation
								JOINT upperarm01.R
								{
									OFFSET -0.709900 0.023550 -0.387501
									CHANNELS 6 Xposition Yposition Zposition Xrotation Yrotation Zrotation
									JOINT upperarm02.R
									{
										OFFSET -0.469600 0.016360 -0.541699
										CHANNELS 6 Xposition Yposition Zposition Xrotation Yrotation Zrotation
										JOINT lowerarm01.R
										{
											OFFSET -1.143500 -0.024510 -1.264200
											CHANNELS 6 Xposition Yposition Zposition Xrotation Yrotation Zrotation
											JOINT lowerarm02.R
											{
												OFFSET -0.609800 -0.815940 -0.621200
												CHANNELS 6 Xposition Yposition Zposition Xrotation Yrotation Zrotation
												JOINT wrist.R
												{
													OFFSET -0.609900 -0.815900 -0.621100
													CHANNELS 6 Xposition Yposition Zposition Xrotation Yrotation Zrotation
													JOINT finger1-1.R
													{
														OFFSET -0.010900 -0.438600 -0.075299
														CHANNELS 6 Xposition Yposition Zposition Xrotation Yrotation Zrotation
														JOINT finger1-2.R
														{
															OFFSET 0.209000 -0.209800 -0.086801
															CHANNELS 6 Xposition Yposition Zposition Xrotation Yrotation Zrotation
															JOINT finger1-3.R
															{
																OFFSET 0.123800 -0.310300 -0.139500
																CHANNELS 6 Xposition Yposition Zposition Xrotation Yrotation Zrotation
																End Site
																{
																	OFFSET 0.055006 -0.213001 -0.173997
																}
															}
														}
													}
													JOINT metacarpal1.R
													{
														OFFSET -0.107100 -0.260600 -0.156699
														CHANNELS 6 Xposition Yposition Zposition Xrotation Yrotation Zrotation
														JOINT finger2-1.R
														{
															OFFSET -0.170600 -0.683000 -0.249201
															CHANNELS 6 Xposition Yposition Zposition Xrotation Yrotation Zrotation
															JOINT finger2-2.R
															{
																OFFSET -0.033400 -0.207100 -0.150700
																CHANNELS 6 Xposition Yposition Zposition Xrotation Yrotation Zrotation
																JOINT finger2-3.R
																{
																	OFFSET 0.005600 -0.163400 -0.162900
																	CHANNELS 6 Xposition Yposition Zposition Xrotation Yrotation Zrotation
																	End Site
																	{
																		OFFSET 0.036675 -0.175730 -0.201578
																	}
																}
															}
														}
													}
													JOINT metacarpal2.R
													{
														OFFSET -0.107100 -0.260600 -0.156699
														CHANNELS 6 Xposition Yposition Zposition Xrotation Yrotation Zrotation
														JOINT finger3-1.R
														{
															OFFSET -0.333200 -0.504800 -0.358101
															CHANNELS 6 Xposition Yposition Zposition Xrotation Yrotation Zrotation
															JOINT finger3-2.R
															{
																OFFSET -0.072100 -0.204500 -0.259600
																CHANNELS 6 Xposition Yposition Zposition Xrotation Yrotation Zrotation
																JOINT finger3-3.R
																{
																	OFFSET -0.026600 -0.171100 -0.215110
																	CHANNELS 6 Xposition Yposition Zposition Xrotation Yrotation Zrotation
																	End Site
																	{
																		OFFSET 0.001996 -0.148388 -0.225368
																	}
																}
															}
														}
													}
													JOINT metacarpal3.R
													{
														OFFSET -0.223800 -0.156300 -0.308700
														CHANNELS 6 Xposition Yposition Zposition Xrotation Yrotation Zrotation
														JOINT finger4-1.R
														{
															OFFSET -0.291800 -0.438100 -0.282600
															CHANNELS 6 Xposition Yposition Zposition Xrotation Yrotation Zrotation
															JOINT finger4-2.R
															{
																OFFSET -0.092900 -0.140700 -0.244699
																CHANNELS 6 Xposition Yposition Zposition Xrotation Yrotation Zrotation
																JOINT finger4-3.R
																{
																	OFFSET -0.042400 -0.125200 -0.209790
																	CHANNELS 6 Xposition Yposition Zposition Xrotation Yrotation Zrotation
																	End Site
																	{
																		OFFSET -0.024430 -0.112092 -0.241180
																	}
																}
															}
														}
													}
													JOINT metacarpal4.R
													{
														OFFSET -0.223800 -0.156300 -0.308700
														CHANNELS 6 Xposition Yposition Zposition Xrotation Yrotation Zrotation
														JOINT finger5-1.R
														{
															OFFSET -0.306800 -0.244600 -0.369200
															CHANNELS 6 Xposition Yposition Zposition Xrotation Yrotation Zrotation
															JOINT finger5-2.R
															{
																OFFSET -0.058900 -0.074400 -0.190600
																CHANNELS 6 Xposition Yposition Zposition Xrotation Yrotation Zrotation
																JOINT finger5-3.R
																{
																	OFFSET -0.017300 -0.056900 -0.144350
																	CHANNELS 6 Xposition Yposition Zposition Xrotation Yrotation Zrotation
																	End Site
																	{
																		OFFSET -0.026555 -0.069063 -0.184319
																	}
																}
															}
														}
													}
												}
											}
										}
									}
								}
							}
						}
						JOINT neck01
						{
							OFFSET 0.000000 -0.238134 1.749801
							CHANNELS 6 Xposition Yposition Zposition Xrotation Yrotation Zrotation
							JOINT neck02
							{
								OFFSET 0.000000 -0.113826 0.312099
								CHANNELS 6 Xposition Yposition Zposition Xrotation Yrotation Zrotation
								JOINT neck03
								{
									OFFSET 0.000000 -0.106450 0.369500
									CHANNELS 6 Xposition Yposition Zposition Xrotation Yrotation Zrotation
									JOINT head
									{
										OFFSET 0.000000 -0.171470 0.327100
										CHANNELS 6 Xposition Yposition Zposition Xrotation Yrotation Zrotation
										JOINT jaw
										{
											OFFSET 0.000000 -0.121400 0.064199
											CHANNELS 6 Xposition Yposition Zposition Xrotation Yrotation Zrotation
											JOINT special04
											{
												OFFSET 0.000000 -0.505020 -0.776999
												CHANNELS 6 Xposition Yposition Zposition Xrotation Yrotation Zrotation
												JOINT oris02
												{
													OFFSET 0.000000 -0.253800 0.178800
													CHANNELS 6 Xposition Yposition Zposition Xrotation Yrotation Zrotation
													JOINT oris01
													{
														OFFSET 0.000000 -0.104400 0.096300
														CHANNELS 6 Xposition Yposition Zposition Xrotation Yrotation Zrotation
														End Site
														{
															OFFSET 0.000000 -0.057194 0.138602
														}
													}
												}
												JOINT oris06.L
												{
													OFFSET 0.000000 -0.253800 0.178800
													CHANNELS 6 Xposition Yposition Zposition Xrotation Yrotation Zrotation
													JOINT oris07.L
													{
														OFFSET 0.123900 -0.072600 0.044901
														CHANNELS 6 Xposition Yposition Zposition Xrotation Yrotation Zrotation
														End Site
														{
															OFFSET 0.047759 -0.031062 0.125713
														}
													}
												}
												JOINT oris06.R
												{
													OFFSET 0.000000 -0.253800 0.178800
													CHANNELS 6 Xposition Yposition Zposition Xrotation Yrotation Zrotation
													JOINT oris07.R
													{
														OFFSET -0.123900 -0.072600 0.044901
														CHANNELS 6 Xposition Yposition Zposition Xrotation Yrotation Zrotation
														End Site
														{
															OFFSET -0.047759 -0.031062 0.125713
														}
													}
												}
											}
											JOINT tongue00
											{
												OFFSET 0.000000 -0.505020 -0.776999
												CHANNELS 6 Xposition Yposition Zposition Xrotation Yrotation Zrotation
												JOINT tongue01
												{
													OFFSET 0.000000 0.379750 0.436800
													CHANNELS 6 Xposition Yposition Zposition Xrotation Yrotation Zrotation
													JOINT tongue02
													{
														OFFSET 0.000000 -0.288650 0.036700
														CHANNELS 6 Xposition Yposition Zposition Xrotation Yrotation Zrotation
														JOINT tongue03
														{
															OFFSET 0.000000 -0.202400 -0.002000
															CHANNELS 6 Xposition Yposition Zposition Xrotation Yrotation Zrotation
															JOINT tongue04
															{
																OFFSET 0.000000 -0.081600 -0.045000
																CHANNELS 6 Xposition Yposition Zposition Xrotation Yrotation Zrotation
																End Site
																{
																	OFFSET 0.000000 -0.081700 -0.045001
																}
															}
															JOINT tongue07.L
															{
																OFFSET 0.000000 -0.081600 -0.045000
																CHANNELS 6 Xposition Yposition Zposition Xrotation Yrotation Zrotation
																End Site
																{
																	OFFSET 0.114280 -0.002229 -0.034674
																}
															}
															JOINT tongue07.R
															{
																OFFSET 0.000000 -0.081600 -0.045000
																CHANNELS 6 Xposition Yposition Zposition Xrotation Yrotation Zrotation
																End Site
																{
																	OFFSET -0.114280 -0.002229 -0.034674
																}
															}
														}
														JOINT tongue06.L
														{
															OFFSET 0.000000 -0.202400 -0.002000
															CHANNELS 6 Xposition Yposition Zposition Xrotation Yrotation Zrotation
															End Site
															{
																OFFSET 0.161696 0.021125 -0.052106
															}
														}
														JOINT tongue06.R
														{
															OFFSET 0.000000 -0.202400 -0.002000
															CHANNELS 6 Xposition Yposition Zposition Xrotation Yrotation Zrotation
															End Site
															{
																OFFSET -0.161696 0.021125 -0.052106
															}
														}
													}
													JOINT tongue05.L
													{
														OFFSET 0.000000 -0.288650 0.036700
														CHANNELS 6 Xposition Yposition Zposition Xrotation Yrotation Zrotation
														End Site
														{
															OFFSET 0.194008 -0.022401 -0.039660
														}
													}
													JOINT tongue05.R
													{
														OFFSET 0.000000 -0.288650 0.036700
														CHANNELS 6 Xposition Yposition Zposition Xrotation Yrotation Zrotation
														End Site
														{
															OFFSET -0.194008 -0.022401 -0.039660
														}
													}
												}
											}
										}
										JOINT levator02.L
										{
											OFFSET 0.031033 -1.042320 0.209200
											CHANNELS 6 Xposition Yposition Zposition Xrotation Yrotation Zrotation
											JOINT levator03.L
											{
												OFFSET 0.167197 0.119200 -0.118400
												CHANNELS 6 Xposition Yposition Zposition Xrotation Yrotation Zrotation
												JOINT levator04.L
												{
													OFFSET 0.060940 -0.003700 -0.184300
													CHANNELS 6 Xposition Yposition Zposition Xrotation Yrotation Zrotation
													JOINT levator05.L
													{
														OFFSET 0.017530 -0.001500 -0.174200
														CHANNELS 6 Xposition Yposition Zposition Xrotation Yrotation Zrotation
														End Site
														{
															OFFSET -0.028190 -0.003099 -0.083503
														}
													}
												}
											}
										}
										JOINT levator02.R
										{
											OFFSET -0.031033 -1.042320 0.209200
											CHANNELS 6 Xposition Yposition Zposition Xrotation Yrotation Zrotation
											JOINT levator03.R
											{
												OFFSET -0.167197 0.119200 -0.118400
												CHANNELS 6 Xposition Yposition Zposition Xrotation Yrotation Zrotation
												JOINT levator04.R
												{
													OFFSET -0.060940 -0.003700 -0.184300
													CHANNELS 6 Xposition Yposition Zposition Xrotation Yrotation Zrotation
													JOINT levator05.R
													{
														OFFSET -0.017530 -0.001500 -0.174200
														CHANNELS 6 Xposition Yposition Zposition Xrotation Yrotation Zrotation
														End Site
														{
															OFFSET 0.028190 -0.003099 -0.083503
														}
													}
												}
											}
										}
										JOINT special01
										{
											OFFSET 0.000000 0.699350 -0.006900
											CHANNELS 6 Xposition Yposition Zposition Xrotation Yrotation Zrotation
											JOINT oris04.L
											{
												OFFSET 0.000000 -1.749470 -0.087800
												CHANNELS 6 Xposition Yposition Zposition Xrotation Yrotation Zrotation
												JOINT oris03.L
												{
													OFFSET 0.134270 0.023000 -0.064000
													CHANNELS 6 Xposition Yposition Zposition Xrotation Yrotation Zrotation
													End Site
													{
														OFFSET 0.029934 0.003633 -0.059402
													}
												}
											}
											JOINT oris04.R
											{
												OFFSET 0.000000 -1.749470 -0.087800
												CHANNELS 6 Xposition Yposition Zposition Xrotation Yrotation Zrotation
												JOINT oris03.R
												{
													OFFSET -0.134270 0.023000 -0.064000
													CHANNELS 6 Xposition Yposition Zposition Xrotation Yrotation Zrotation
													End Site
													{
														OFFSET -0.029934 0.003633 -0.059402
													}
												}
											}
											JOINT oris06
											{
												OFFSET 0.000000 -1.749470 -0.087800
												CHANNELS 6 Xposition Yposition Zposition Xrotation Yrotation Zrotation
												JOINT oris05
												{
													OFFSET 0.000000 -0.007000 -0.051400
													CHANNELS 6 Xposition Yposition Zposition Xrotation Yrotation Zrotation
													End Site
													{
														OFFSET 0.000000 -0.033213 -0.064393
													}
												}
											}
										}
										JOINT special03
										{
											OFFSET 0.000000 -0.121400 0.064199
											CHANNELS 6 Xposition Yposition Zposition Xrotation Yrotation Zrotation
											JOINT levator06.L
											{
												OFFSET 0.056567 -1.013320 -0.053999
												CHANNELS 6 Xposition Yposition Zposition Xrotation Yrotation Zrotation
												End Site
												{
													OFFSET 0.112632 0.186186 0.038878
												}
											}
											JOINT levator06.R
											{
												OFFSET -0.056567 -1.013320 -0.053999
												CHANNELS 6 Xposition Yposition Zposition Xrotation Yrotation Zrotation
												End Site
												{
													OFFSET -0.112632 0.186186 0.038878
												}
											}
										}
										JOINT special06.L
										{
											OFFSET 0.000000 0.069350 1.479799
											CHANNELS 6 Xposition Yposition Zposition Xrotation Yrotation Zrotation
											JOINT special05.L
											{
												OFFSET 0.186870 -0.560300 -0.149599
												CHANNELS 6 Xposition Yposition Zposition Xrotation Yrotation Zrotation
												JOINT eye.L
												{
													OFFSET 0.102070 -0.246970 -0.943399
													CHANNELS 6 Xposition Yposition Zposition Xrotation Yrotation Zrotation
													End Site
													{
														OFFSET 0.017767 -0.379798 -0.029534
													}
												}
												JOINT orbicularis03.L
												{
													OFFSET 0.102070 -0.246970 -0.943399
													CHANNELS 6 Xposition Yposition Zposition Xrotation Yrotation Zrotation
													End Site
													{
														OFFSET 0.017041 -0.359513 0.088355
													}
												}
												JOINT orbicularis04.L
												{
													OFFSET 0.102070 -0.246970 -0.943399
													CHANNELS 6 Xposition Yposition Zposition Xrotation Yrotation Zrotation
													End Site
													{
														OFFSET 0.018009 -0.354187 -0.142336
													}
												}
											}
										}
										JOINT special06.R
										{
											OFFSET 0.000000 0.069350 1.479799
											CHANNELS 6 Xposition Yposition Zposition Xrotation Yrotation Zrotation
											JOINT special05.R
											{
												OFFSET -0.186870 -0.560300 -0.149599
												CHANNELS 6 Xposition Yposition Zposition Xrotation Yrotation Zrotation
												JOINT eye.R
												{
													OFFSET -0.102070 -0.246970 -0.943399
													CHANNELS 6 Xposition Yposition Zposition Xrotation Yrotation Zrotation
													End Site
													{
														OFFSET -0.017767 -0.379798 -0.029534
													}
												}
												JOINT orbicularis03.R
												{
													OFFSET -0.102070 -0.246970 -0.943399
													CHANNELS 6 Xposition Yposition Zposition Xrotation Yrotation Zrotation
													End Site
													{
														OFFSET -0.017041 -0.359513 0.088355
													}
												}
												JOINT orbicularis04.R
												{
													OFFSET -0.102070 -0.246970 -0.943399
													CHANNELS 6 Xposition Yposition Zposition Xrotation Yrotation Zrotation
													End Site
													{
														OFFSET -0.018009 -0.354187 -0.142336
													}
												}
											}
										}
										JOINT temporalis01.L
										{
											OFFSET 0.604530 -0.593820 0.456800
											CHANNELS 6 Xposition Yposition Zposition Xrotation Yrotation Zrotation
											JOINT oculi02.L
											{
												OFFSET -0.081930 -0.176200 -0.003500
												CHANNELS 6 Xposition Yposition Zposition Xrotation Yrotation Zrotation
												JOINT oculi01.L
												{
													OFFSET -0.202470 -0.180000 0.146799
													CHANNELS 6 Xposition Yposition Zposition Xrotation Yrotation Zrotation
													End Site
													{
														OFFSET -0.167592 -0.041332 0.012400
													}
												}
											}
										}
										JOINT temporalis01.R
										{
											OFFSET -0.604530 -0.593820 0.456800
											CHANNELS 6 Xposition Yposition Zposition Xrotation Yrotation Zrotation
											JOINT oculi02.R
											{
												OFFSET 0.081930 -0.176200 -0.003500
												CHANNELS 6 Xposition Yposition Zposition Xrotation Yrotation Zrotation
												JOINT oculi01.R
												{
													OFFSET 0.202470 -0.180000 0.146799
													CHANNELS 6 Xposition Yposition Zposition Xrotation Yrotation Zrotation
													End Site
													{
														OFFSET 0.167592 -0.041332 0.012400
													}
												}
											}
										}
										JOINT temporalis02.L
										{
											OFFSET 0.623070 -0.571620 0.233100
											CHANNELS 6 Xposition Yposition Zposition Xrotation Yrotation Zrotation
											JOINT risorius02.L
											{
												OFFSET -0.097270 -0.177300 0.049900
												CHANNELS 6 Xposition Yposition Zposition Xrotation Yrotation Zrotation
												JOINT risorius03.L
												{
													OFFSET -0.050400 -0.060600 -0.276799
													CHANNELS 6 Xposition Yposition Zposition Xrotation Yrotation Zrotation
													End Site
													{
														OFFSET 0.046399 0.157765 -0.197430
													}
												}
											}
										}
										JOINT temporalis02.R
										{
											OFFSET -0.623070 -0.571620 0.233100
											CHANNELS 6 Xposition Yposition Zposition Xrotation Yrotation Zrotation
											JOINT risorius02.R
											{
												OFFSET 0.097270 -0.177300 0.049900
												CHANNELS 6 Xposition Yposition Zposition Xrotation Yrotation Zrotation
												JOINT risorius03.R
												{
													OFFSET 0.050400 -0.060600 -0.276799
													CHANNELS 6 Xposition Yposition Zposition Xrotation Yrotation Zrotation
													End Site
													{
														OFFSET -0.046399 0.157765 -0.197430
													}
												}
											}
										}
									}
								}
							}
						}
					}
				}
			}
		}
	}
	JOINT pelvis.L
	{
		OFFSET 0.000000 -0.779770 0.042199
		CHANNELS 6 Xposition Yposition Zposition Xrotation Yrotation Zrotation
		JOINT upperleg01.L
		{
			OFFSET 1.013800 0.082736 -0.080870
			CHANNELS 6 Xposition Yposition Zposition Xrotation Yrotation Zrotation
			JOINT upperleg02.L
			{
				OFFSET 0.010700 -0.247546 -0.780900
				CHANNELS 6 Xposition Yposition Zposition Xrotation Yrotation Zrotation
				JOINT lowerleg01.L
				{
					OFFSET 0.400300 -0.076940 -3.128600
					CHANNELS 6 Xposition Yposition Zposition Xrotation Yrotation Zrotation
					JOINT lowerleg02.L
					{
						OFFSET 0.190500 0.073500 -2.027800
						CHANNELS 6 Xposition Yposition Zposition Xrotation Yrotation Zrotation
						JOINT foot.L
						{
							OFFSET 0.190500 0.073490 -2.027700
							CHANNELS 6 Xposition Yposition Zposition Xrotation Yrotation Zrotation
							JOINT toe1-1.L
							{
								OFFSET -0.245400 -1.319500 -0.405000
								CHANNELS 6 Xposition Yposition Zposition Xrotation Yrotation Zrotation
								JOINT toe1-2.L
								{
									OFFSET 0.021400 -0.242700 -0.064600
									CHANNELS 6 Xposition Yposition Zposition Xrotation Yrotation Zrotation
									End Site
									{
										OFFSET 0.040190 -0.272593 -0.082779
									}
								}
							}
							JOINT toe2-1.L
							{
								OFFSET -0.017700 -1.332900 -0.430000
								CHANNELS 6 Xposition Yposition Zposition Xrotation Yrotation Zrotation
								JOINT toe2-2.L
								{
									OFFSET 0.017700 -0.203900 -0.032300
									CHANNELS 6 Xposition Yposition Zposition Xrotation Yrotation Zrotation
									JOINT toe2-3.L
									{
										OFFSET 0.006700 -0.124800 -0.044100
										CHANNELS 6 Xposition Yposition Zposition Xrotation Yrotation Zrotation
										End Site
										{
											OFFSET 0.004299 -0.166087 -0.064731
										}
									}
								}
							}
							JOINT toe3-1.L
							{
								OFFSET 0.139600 -1.307900 -0.446200
								CHANNELS 6 Xposition Yposition Zposition Xrotation Yrotation Zrotation
								JOINT toe3-2.L
								{
									OFFSET 0.016100 -0.180900 -0.024700
									CHANNELS 6 Xposition Yposition Zposition Xrotation Yrotation Zrotation
									JOINT toe3-3.L
									{
										OFFSET 0.003300 -0.120200 -0.044200
										CHANNELS 6 Xposition Yposition Zposition Xrotation Yrotation Zrotation
										End Site
										{
											OFFSET -0.003204 -0.127180 -0.043355
										}
									}
								}
							}
							JOINT toe4-1.L
							{
								OFFSET 0.288800 -1.237700 -0.448000
								CHANNELS 6 Xposition Yposition Zposition Xrotation Yrotation Zrotation
								JOINT toe4-2.L
								{
									OFFSET 0.016000 -0.149100 -0.033200
									CHANNELS 6 Xposition Yposition Zposition Xrotation Yrotation Zrotation
									JOINT toe4-3.L
									{
										OFFSET -0.003600 -0.113900 -0.025100
										CHANNELS 6 Xposition Yposition Zposition Xrotation Yrotation Zrotation
										End Site
										{
											OFFSET 0.008891 -0.096953 -0.056881
										}
									}
								}
							}
							JOINT toe5-1.L
							{
								OFFSET 0.425800 -1.171200 -0.446700
								CHANNELS 6 Xposition Yposition Zposition Xrotation Yrotation Zrotation
								JOINT toe5-2.L
								{
									OFFSET 0.004600 -0.098200 -0.026600
									CHANNELS 6 Xposition Yposition Zposition Xrotation Yrotation Zrotation
									JOINT toe5-3.L
									{
										OFFSET -0.008700 -0.079100 -0.037200
										CHANNELS 6 Xposition Yposition Zposition Xrotation Yrotation Zrotation
										End Site
										{
											OFFSET 0.004433 -0.108578 -0.055548
										}
									}
								}
							}
						}
					}
				}
			}
		}
	}
	JOINT pelvis.R
	{
		OFFSET 0.000000 -0.779770 0.042199
		CHANNELS 6 Xposition Yposition Zposition Xrotation Yrotation Zrotation
		JOINT upperleg01.R
		{
			OFFSET -1.013800 0.082736 -0.080870
			CHANNELS 6 Xposition Yposition Zposition Xrotation Yrotation Zrotation
			JOINT upperleg02.R
			{
				OFFSET -0.010700 -0.247546 -0.780900
				CHANNELS 6 Xposition Yposition Zposition Xrotation Yrotation Zrotation
				JOINT lowerleg01.R
				{
					OFFSET -0.400300 -0.076940 -3.128600
					CHANNELS 6 Xposition Yposition Zposition Xrotation Yrotation Zrotation
					JOINT lowerleg02.R
					{
						OFFSET -0.190500 0.073500 -2.027800
						CHANNELS 6 Xposition Yposition Zposition Xrotation Yrotation Zrotation
						JOINT foot.R
						{
							OFFSET -0.190500 0.073490 -2.027700
							CHANNELS 6 Xposition Yposition Zposition Xrotation Yrotation Zrotation
							JOINT toe1-1.R
							{
								OFFSET 0.245400 -1.319500 -0.405000
								CHANNELS 6 Xposition Yposition Zposition Xrotation Yrotation Zrotation
								JOINT toe1-2.R
								{
									OFFSET -0.021400 -0.242700 -0.064600
									CHANNELS 6 Xposition Yposition Zposition Xrotation Yrotation Zrotation
									End Site
									{
										OFFSET -0.040190 -0.272593 -0.082779
									}
								}
							}
							JOINT toe2-1.R
							{
								OFFSET 0.017700 -1.332900 -0.430000
								CHANNELS 6 Xposition Yposition Zposition Xrotation Yrotation Zrotation
								JOINT toe2-2.R
								{
									OFFSET -0.017700 -0.203900 -0.032300
									CHANNELS 6 Xposition Yposition Zposition Xrotation Yrotation Zrotation
									JOINT toe2-3.R
									{
										OFFSET -0.006700 -0.124800 -0.044100
										CHANNELS 6 Xposition Yposition Zposition Xrotation Yrotation Zrotation
										End Site
										{
											OFFSET -0.004299 -0.166087 -0.064731
										}
									}
								}
							}
							JOINT toe3-1.R
							{
								OFFSET -0.139600 -1.307900 -0.446200
								CHANNELS 6 Xposition Yposition Zposition Xrotation Yrotation Zrotation
								JOINT toe3-2.R
								{
									OFFSET -0.016100 -0.180900 -0.024700
									CHANNELS 6 Xposition Yposition Zposition Xrotation Yrotation Zrotation
									JOINT toe3-3.R
									{
										OFFSET -0.003300 -0.120200 -0.044200
										CHANNELS 6 Xposition Yposition Zposition Xrotation Yrotation Zrotation
										End Site
										{
											OFFSET 0.003204 -0.127180 -0.043355
										}
									}
								}
							}
							JOINT toe4-1.R
							{
								OFFSET -0.288800 -1.237700 -0.448000
								CHANNELS 6 Xposition Yposition Zposition Xrotation Yrotation Zrotation
								JOINT toe4-2.R
								{
									OFFSET -0.016000 -0.149100 -0.033200
									CHANNELS 6 Xposition Yposition Zposition Xrotation Yrotation Zrotation
									JOINT toe4-3.R
									{
										OFFSET 0.003600 -0.113900 -0.025100
										CHANNELS 6 Xposition Yposition Zposition Xrotation Yrotation Zrotation
										End Site
										{
											OFFSET -0.008891 -0.096953 -0.056881
										}
									}
								}
							}
							JOINT toe5-1.R
							{
								OFFSET -0.425800 -1.171200 -0.446700
								CHANNELS 6 Xposition Yposition Zposition Xrotation Yrotation Zrotation
								JOINT toe5-2.R
								{
									OFFSET -0.004600 -0.098200 -0.026600
									CHANNELS 6 Xposition Yposition Zposition Xrotation Yrotation Zrotation
									JOINT toe5-3.R
									{
										OFFSET 0.008700 -0.079100 -0.037200
										CHANNELS 6 Xposition Yposition Zposition Xrotation Yrotation Zrotation
										End Site
										{
											OFFSET -0.004433 -0.108578 -0.055548
										}
									}
								}
							}
						}
					}
				}
			}
		}
	}
}
MOTION
Frames: 1
Frame Time: 0.040000
0.000000 0.647729 -4.244376 90.000016 0.000000 -0.000000 0.000000 -0.779770 0.042200 -67.510628 0.000000 -0.000000 0.000000 0.387330 0.797732 0.342510 0.000000 -0.000000 0.000000 -0.154170 0.662600 -0.000001 0.000000 -0.000000 -0.000000 -0.017320 0.750500 10.563277 6.589540 -0.571150 0.000000 0.103200 1.439198 -0.033356 0.024262 0.575220 -0.000000 0.103200 1.439198 -0.033358 0.024262 0.575217 -0.000000 0.103200 1.439199 19.374981 -8.548766 -0.199033 0.227360 -0.403210 1.038201 -22.528394 19.214528 5.416735 0.763140 -0.000450 0.160800 -19.999955 -0.000005 0.000002 0.709901 0.023550 -0.387503 5.870387 17.825265 -15.264387 0.469600 0.016360 -0.541701 0.000000 0.000002 0.000001 1.143499 -0.024510 -1.264202 -30.255750 10.290886 -19.309551 0.609800 -0.815941 -0.621200 0.000005 0.000002 -0.000003 0.609899 -0.815900 -0.621101 35.308161 -28.301819 -21.893478 0.010902 -0.438601 -0.075300 4.808139 7.896417 7.657866 -0.208999 -0.209800 -0.086802 -1.659660 2.369266 -10.699000 -0.123800 -0.310300 -0.139498 -25.226110 21.149351 -4.839962 0.107101 -0.260599 -0.156700 12.981508 -2.002635 -0.626789 0.170601 -0.682998 -0.249201 10.984545 0.241746 -7.731976 0.033399 -0.207100 -0.150699 4.105965 8.726547 -8.654100 -0.005600 -0.163401 -0.162900 -0.000000 -0.000000 0.000000 0.107100 -0.260600 -0.156698 9.001914 -1.772951 -2.258401 0.333199 -0.504799 -0.358101 0.000003 0.000001 -0.000003 0.072101 -0.204500 -0.259598 3.876763 9.407072 -8.003587 0.026601 -0.171102 -0.215110 -0.000005 -0.000001 -0.000003 0.223799 -0.156300 -0.308702 7.309350 -1.640859 -2.947706 0.291800 -0.438101 -0.282601 -0.000001 0.000001 -0.000000 0.092899 -0.140699 -0.244697 3.768933 9.681161 -7.711078 0.042400 -0.125200 -0.209792 -0.000001 -0.000000 0.000004 0.223799 -0.156301 -0.308700 -3.692000 -14.520921 6.769895 0.306798 -0.244600 -0.369199 -11.337063 -14.981291 4.080924 0.058901 -0.074400 -0.190599 3.584764 10.097659 -7.226414 0.017300 -0.056900 -0.144351 -0.000003 0.000001 0.000006 -0.227360 -0.403210 1.038200 -0.410026 0.700726 -0.649122 -0.763141 -0.000450 0.160800 23.479772 23.354696 25.670463 -0.709901 0.023550 -0.387502 -47.639617 4.845273 48.541222 -0.469600 0.016360 -0.541700 -0.000001 0.000000 0.000000 -1.143501 -0.024510 -1.264202 -29.273474 70.639558 17.874356 -0.609799 -0.815941 -0.621200 0.000001 0.000000 0.000001 -0.609901 -0.815900 -0.621101 27.611081 -21.386874 4.403557 -0.010901 -0.438600 -0.075299 -15.325763 -16.658077 -53.253493 0.208999 -0.209800 -0.086801 -0.000000 0.000001 -0.000001 0.123800 -0.310300 -0.139499 0.000002 0.000001 -0.000002 -0.107100 -0.260599 -0.156699 1.571056 -33.255153 -25.405112 -0.170602 -0.682998 -0.249199 20.853184 -8.724995 11.016472 -0.033398 -0.207100 -0.150699 17.620952 -11.373102 11.638393 0.005601 -0.163399 -0.162899 19.451656 -13.809254 12.759645 -0.107101 -0.260600 -0.156698 3.259340 -38.367222 -19.680466 -0.333198 -0.504799 -0.358101 0.000002 0.000005 0.000005 -0.072101 -0.204499 -0.259600 3.876758 -9.407072 8.003579 -0.026600 -0.171102 -0.215110 -0.000000 0.000003 0.000001 -0.223799 -0.156300 -0.308700 2.005744 -38.300477 -24.648754 -0.291802 -0.438101 -0.282601 0.000003 0.000001 -0.000005 -0.092900 -0.140699 -0.244697 -2.435067 6.114090 -1.470837 -0.042401 -0.125199 -0.209792 -0.000002 -0.000002 -0.000005 -0.223800 -0.156300 -0.308700 -7.176506 -35.020361 -36.719862 -0.306798 -0.244600 -0.369199 4.061491 -3.803445 2.771623 -0.058900 -0.074400 -0.190599 3.584756 -10.097648 7.226413 -0.017300 -0.056900 -0.144351 -0.000001 -0.000001 -0.000004 0.000000 -0.238134 1.749802 9.979466 0.468117 -0.480549 -0.000000 -0.113826 0.312100 19.963335 0.845856 -1.034996 0.000000 -0.106451 0.369499 -50.704346 -3.185151 0.878065 -0.000000 -0.171470 0.327100 0.000001 0.000000 0.000000 0.000000 -0.121400 0.064199 0.000002 0.000000 0.000000 0.000000 -0.505019 -0.777000 -0.000000 -0.000000 0.000000 0.000000 -0.253801 0.178801 0.000002 0.000000 0.000000 0.000000 -0.104400 0.096299 -0.000000 0.000000 0.000001 0.000000 -0.253800 0.178798 -0.000003 0.000005 -0.000001 0.123901 -0.072600 0.044901 0.000003 0.000001 0.000003 -0.000000 -0.253801 0.178801 0.000003 -0.000002 0.000003 -0.123900 -0.072600 0.044900 0.000000 -0.000001 -0.000000 0.000000 -0.505020 -0.777000 0.000002 0.000000 0.000000 0.000000 0.379751 0.436802 0.000003 0.000000 0.000001 -0.000000 -0.288650 0.036701 0.000004 0.000000 -0.000000 0.000000 -0.202401 -0.001999 0.000000 -0.000000 -0.000000 -0.000000 -0.081600 -0.045000 0.000002 -0.000000 -0.000000 -0.000000 -0.081601 -0.045000 0.000003 -0.000002 0.000001 0.000000 -0.081599 -0.045001 0.000003 0.000002 0.000001 -0.000000 -0.202400 -0.002000 0.000001 0.000001 0.000001 -0.000001 -0.202400 -0.001999 0.000002 0.000001 -0.000001 0.000000 -0.288650 0.036700 0.000002 0.000001 0.000001 -0.000000 -0.288650 0.036701 -0.000000 -0.000001 -0.000001 0.031032 -1.042320 0.209201 0.000002 0.000000 0.000002 0.167197 0.119199 -0.118401 0.000004 0.000001 0.000008 0.060940 -0.003700 -0.184300 -0.000002 0.000000 0.000007 0.017531 -0.001501 -0.174200 0.000000 0.000001 0.000003 -0.031032 -1.042320 0.209201 -0.000000 0.000000 -0.000002 -0.167197 0.119199 -0.118400 0.000003 -0.000001 -0.000006 -0.060940 -0.003700 -0.184300 0.000004 0.000004 -0.000002 -0.017530 -0.001500 -0.174200 -0.000000 -0.000001 -0.000000 -0.000000 0.699350 -0.006900 0.000003 0.000001 0.000000 0.000000 -1.749470 -0.087799 0.000002 -0.000000 -0.000000 0.134270 0.023000 -0.063999 -0.000000 -0.000001 0.000001 0.000000 -1.749470 -0.087800 -0.000000 0.000000 -0.000000 -0.134269 0.023000 -0.064000 -0.000002 -0.000003 -0.000001 -0.000000 -1.749470 -0.087801 0.000001 0.000000 0.000000 -0.000000 -0.006998 -0.051399 0.000000 0.000000 0.000000 0.000000 -0.121400 0.064199 0.000003 0.000000 0.000000 0.056567 -1.013320 -0.054001 0.000005 0.000002 0.000000 -0.056567 -1.013319 -0.053998 0.000004 0.000004 0.000004 -0.000000 0.069350 1.479801 0.000003 0.000000 0.000003 0.186870 -0.560300 -0.149601 -0.000001 0.000001 -0.000001 0.102070 -0.246970 -0.943399 0.000002 -0.000001 0.000002 0.102070 -0.246970 -0.943399 -0.000002 0.000000 0.000001 0.102070 -0.246969 -0.943401 0.000002 -0.000002 0.000001 0.000000 0.069350 1.479799 0.000003 0.000000 0.000001 -0.186870 -0.560300 -0.149601 -0.000005 0.000000 -0.000001 -0.102070 -0.246970 -0.943399 -0.000000 -0.000001 -0.000003 -0.102070 -0.246970 -0.943399 -0.000006 -0.000001 -0.000002 -0.102070 -0.246969 -0.943400 -0.000005 0.000000 -0.000002 0.604530 -0.593820 0.456800 0.000003 0.000003 -0.000000 -0.081931 -0.176199 -0.003500 -0.000003 0.000000 -0.000000 -0.202470 -0.179999 0.146798 -0.000001 0.000001 -0.000002 -0.604530 -0.593819 0.456800 0.000001 0.000001 0.000001 0.081930 -0.176199 -0.003500 -0.000000 0.000001 -0.000004 0.202470 -0.179999 0.146798 0.000000 0.000001 -0.000001 0.623070 -0.571620 0.233099 0.000001 0.000000 0.000001 -0.097270 -0.177300 0.049900 0.000002 -0.000001 -0.000001 -0.050400 -0.060600 -0.276800 0.000003 0.000001 -0.000005 -0.623070 -0.571620 0.233099 0.000005 -0.000000 -0.000002 0.097270 -0.177300 0.049899 -0.000001 0.000001 -0.000002 0.050400 -0.060600 -0.276800 0.000002 0.000001 0.000004 -0.000000 -0.779769 0.042200 -47.874637 -14.373243 3.563944 1.013800 0.082736 -0.080867 -30.884391 -11.278982 -4.804515 0.010700 -0.247546 -0.780899 -11.235922 8.370880 -4.586703 0.400300 -0.076940 -3.128603 95.550364 12.503294 6.920375 0.190500 0.073501 -2.027799 0.000000 -0.000001 -0.000002 0.190500 0.073491 -2.027700 25.525573 -4.103258 20.270673 -0.245401 -1.319500 -0.405000 20.887781 -3.593904 -22.502012 0.021400 -0.242701 -0.064601 10.188371 0.765533 -5.979059 -0.017701 -1.332900 -0.430000 18.948922 3.474567 -3.008438 0.017701 -0.203899 -0.032301 -0.000004 -0.000001 0.000001 0.006699 -0.124799 -0.044100 15.799939 -32.938690 -9.248360 0.139600 -1.307900 -0.446200 20.155873 -1.709150 2.999480 0.016099 -0.180900 -0.024700 0.000002 -0.000003 -0.000002 0.003300 -0.120201 -0.044201 -0.000003 -0.000003 -0.000001 0.288799 -1.237700 -0.448000 20.155880 -1.709153 2.999479 0.015999 -0.149101 -0.033200 -0.000003 -0.000001 -0.000008 -0.003600 -0.113900 -0.025100 -0.000008 0.000004 -0.000001 0.425799 -1.171201 -0.446700 20.155880 -1.709150 2.999477 0.004601 -0.098200 -0.026600 5.368603 2.283281 -1.440046 -0.008699 -0.079099 -0.037200 -0.000006 0.000008 0.000004 -0.000000 -0.779769 0.042200 -47.874630 14.373238 -3.563944 -1.013800 0.082737 -0.080868 -30.884391 11.278983 4.804513 -0.010700 -0.247546 -0.780899 -11.235920 -8.370878 4.586703 -0.400300 -0.076941 -3.128603 99.296068 -11.371932 -5.859169 -0.190500 0.073501 -2.027799 0.000001 0.000000 -0.000002 -0.190500 0.073490 -2.027700 7.257683 6.257458 17.855463 0.245400 -1.319502 -0.405000 55.292249 5.908263 15.996383 -0.021399 -0.242701 -0.064599 11.841051 -1.355676 10.970445 0.017700 -1.332901 -0.430000 55.003196 6.996325 11.684268 -0.017701 -0.203900 -0.032299 0.000002 0.000001 0.000000 -0.006700 -0.124800 -0.044101 -0.000001 -0.000000 0.000000 -0.139600 -1.307901 -0.446200 54.670156 9.291065 2.773242 -0.016100 -0.180901 -0.024700 -0.000002 0.000002 -0.000000 -0.003300 -0.120200 -0.044201 0.000001 0.000001 -0.000000 -0.288799 -1.237701 -0.448000 54.670159 9.291062 2.773240 -0.016000 -0.149100 -0.033200 0.000002 -0.000001 -0.000000 0.003601 -0.113900 -0.025101 -0.000005 0.000000 -0.000000 -0.425800 -1.171200 -0.446700 55.097080 13.864741 -15.120135 -0.004600 -0.098199 -0.026600 -19.019729 0.884332 -2.301221 0.008700 -0.079100 -0.037200 24.200737 0.032251 3.124584 
