HIERARCHY
ROOT root
{
	OFFSET 0.000000 0.647730 8.700670
	CHANNELS 6 Xposition Yposition Zposition Xrotation Yrotation Zrotation
	JOINT spine05
	{
		OFFSET 0.000000 -0.779770 0.042199
		CHANNELS 6 Xposition Yposition Zposition Xrotation Yrotation Zrotation
		JOINT spine04
		{
			OFFSET 0.000000 0.387330 0.797730
			CHANNELS 6 Xposition Yposition Zposition Xrotation Yrotation Zrotation
			JOINT spine03
			{
				OFFSET 0.000000 -0.154170 0.662600
				CHANNELS 6 Xposition Yposition Zposition Xrotation Yrotation Zrotation
				JOINT spine02
				{
					OFFSET 0.000000 -0.017320 0.750501
					CHANNELS 6 Xposition Yposition Zposition Xrotation Yrotation Zrotation
					JOINT breast.L
					{
						OFFSET 0.000000 0.103200 1.439199
						CHANNELS 6 Xposition Yposition Zposition Xrotation Yrotation Zrotation
						End Site
						{
							OFFSET 1.020987 -1.674111 -0.248674
						}
					}
					JOINT breast.R
					{
						OFFSET 0.000000 0.103200 1.439199
						CHANNELS 6 Xposition Yposition Zposition Xrotation Yrotation Zrotation
						End Site
						{
							OFFSET -1.020987 -1.674111 -0.248674
						}
					}
					JOINT spine01
					{
						OFFSET 0.000000 0.103200 1.439199
						CHANNELS 6 Xposition Yposition Zposition Xrotation Yrotation Zrotation
						JOINT clavicle.L
						{
							OFFSET 0.227360 -0.403210 1.038200
							CHANNELS 6 Xposition Yposition Zposition Xrotation Yrotation Zrotation
							JOINT shoulder01.L
							{
								OFFSET 0.763140 -0.000450 0.160800
								CHANNELS 6 Xposition Yposition Zposition Xrotation Yrotation Zrotation
								JOINT upperarm01.L
								{
									OFFSET 0.709900 0.023550 -0.387501
									CHANNELS 6 Xposition Yposition Zposition Xrotation Yrotation Zrotation
									JOINT upperarm02.L
									{
										OFFSET 0.469600 0.016360 -0.541699
										CHANNELS 6 Xposition Yposition Zposition Xrotation Yrotation Zrotation
										JOINT lowerarm01.L
										{
											OFFSET 1.143500 -0.024510 -1.264200
											CHANNELS 6 Xposition Yposition Zposition Xrotation Yrotation Zrotation
											JOINT lowerarm02.L
											{
												OFFSET 0.609800 -0.815940 -0.621200
												CHANNELS 6 Xposition Yposition Zposition Xrotation Yrotation Zrotation
												JOINT wrist.L
												{
													OFFSET 0.609900 -0.815900 -0.621100
													CHANNELS 6 Xposition Yposition Zposition Xrotation Yrotation Zrotation
													JOINT finger1-1.L
													{
														OFFSET 0.010900 -0.438600 -0.075299
														CHANNELS 6 Xposition Yposition Zposition Xrotation Yrotation Zrotation
														JOINT finger1-2.L
														{
															OFFSET -0.209000 -0.209800 -0.086801
															CHANNELS 6 Xposition Yposition Zposition Xrotation Yrotation Zrotation
															JOINT finger1-3.L
															{
																OFFSET -0.123800 -0.310300 -0.139500
																CHANNELS 6 Xposition Yposition Zposition Xrotation Yrotation Zrotation
																End Site
																{
																	OFFSET -0.055006 -0.213001 -0.173997
																}
															}
														}
													}
													JOINT metacarpal1.L
													{
														OFFSET 0.107100 -0.260600 -0.156699
														CHANNELS 6 Xposition Yposition Zposition Xrotation Yrotation Zrotation
														JOINT finger2-1.L
														{
															OFFSET 0.170600 -0.683000 -0.249201
															CHANNELS 6 Xposition Yposition Zposition Xrotation Yrotation Zrotation
															JOINT finger2-2.L
															{
																OFFSET 0.033400 -0.207100 -0.150700
																CHANNELS 6 Xposition Yposition Zposition Xrotation Yrotation Zrotation
																JOINT finger2-3.L
																{
																	OFFSET -0.005600 -0.163400 -0.162900
																	CHANNELS 6 Xposition Yposition Zposition Xrotation Yrotation Zrotation
																	End Site
																	{
																		OFFSET -0.036675 -0.175730 -0.201578
																	}
																}
															}
														}
													}
													JOINT metacarpal2.L
													{
														OFFSET 0.107100 -0.260600 -0.156699
														CHANNELS 6 Xposition Yposition Zposition Xrotation Yrotation Zrotation
														JOINT finger3-1.L
														{
															OFFSET 0.333200 -0.504800 -0.358101
															CHANNELS 6 Xposition Yposition Zposition Xrotation Yrotation Zrotation
															JOINT finger3-2.L
															{
																OFFSET 0.072100 -0.204500 -0.259600
																CHANNELS 6 Xposition Yposition Zposition Xrotation Yrotation Zrotation
																JOINT finger3-3.L
																{
																	OFFSET 0.026600 -0.171100 -0.215110
																	CHANNELS 6 Xposition Yposition Zposition Xrotation Yrotation Zrotation
																	End Site
																	{
																		OFFSET -0.001996 -0.148388 -0.225368
																	}
																}
															}
														}
													}
													JOINT metacarpal3.L
													{
														OFFSET 0.223800 -0.156300 -0.308700
														CHANNELS 6 Xposition Yposition Zposition Xrotation Yrotation Zrotation
														JOINT finger4-1.L
														{
															OFFSET 0.291800 -0.438100 -0.282600
															CHANNELS 6 Xposition Yposition Zposition Xrotation Yrotation Zrotation
															JOINT finger4-2.L
															{
																OFFSET 0.092900 -0.140700 -0.244699
																CHANNELS 6 Xposition Yposition Zposition Xrotation Yrotation Zrotation
																JOINT finger4-3.L
																{
																	OFFSET 0.042400 -0.125200 -0.209790
																	CHANNELS 6 Xposition Yposition Zposition Xrotation Yrotation Zrotation
																	End Site
																	{
																		OFFSET 0.024430 -0.112092 -0.241180
																	}
																}
															}
														}
													}
													JOINT metacarpal4.L
													{
														OFFSET 0.223800 -0.156300 -0.308700
														CHANNELS 6 Xposition Yposition Zposition Xrotation Yrotation Zrotation
														JOINT finger5-1.L
														{
															OFFSET 0.306800 -0.244600 -0.369200
															CHANNELS 6 Xposition Yposition Zposition Xrotation Yrotation Zrotation
															JOINT finger5-2.L
															{
																OFFSET 0.058900 -0.074400 -0.190600
																CHANNELS 6 Xposition Yposition Zposition Xrotation Yrotation Zrotation
																JOINT finger5-3.L
																{
																	OFFSET 0.017300 -0.056900 -0.144350
																	CHANNELS 6 Xposition Yposition Zposition Xrotation Yrotation Zrotation
																	End Site
																	{
																		OFFSET 0.026555 -0.069063 -0.184319
																	}
																}
															}
														}
													}
												}
											}
										}
									}
								}
							}
						}
						JOINT clavicle.R
						{
							OFFSET -0.227360 -0.403210 1.038200
							CHANNELS 6 Xposition Yposition Zposition Xrotation Yrotation Zrotation
							JOINT shoulder01.R
							{
								OFFSET -0.763140 -0.000450 0.160800
								CHANNELS 6 Xposition Yposition Zposition Xrotation Yrotation Zrotation
								JOINT upperarm01.R
								{
									OFFSET -0.709900 0.023550 -0.387501
									CHANNELS 6 Xposition Yposition Zposition Xrotation Yrotation Zrotation
									JOINT upperarm02.R
									{
										OFFSET -0.469600 0.016360 -0.541699
										CHANNELS 6 Xposition Yposition Zposition Xrotation Yrotation Zrotation
										JOINT lowerarm01.R
										{
											OFFSET -1.143500 -0.024510 -1.264200
											CHANNELS 6 Xposition Yposition Zposition Xrotation Yrotation Zrotation
											JOINT lowerarm02.R
											{
												OFFSET -0.609800 -0.815940 -0.621200
												CHANNELS 6 Xposition Yposition Zposition Xrotation Yrotation Zrotation
												JOINT wrist.R
												{
													OFFSET -0.609900 -0.815900 -0.621100
													CHANNELS 6 Xposition Yposition Zposition Xrotation Yrotation Zrotation
													JOINT finger1-1.R
													{
														OFFSET -0.010900 -0.438600 -0.075299
														CHANNELS 6 Xposition Yposition Zposition Xrotation Yrotation Zrotation
														JOINT finger1-2.R
														{
															OFFSET 0.209000 -0.209800 -0.086801
															CHANNELS 6 Xposition Yposition Zposition Xrotation Yrotation Zrotation
															JOINT finger1-3.R
															{
																OFFSET 0.123800 -0.310300 -0.139500
																CHANNELS 6 Xposition Yposition Zposition Xrotation Yrotation Zrotation
																End Site
																{
																	OFFSET 0.055006 -0.213001 -0.173997
																}
															}
														}
													}
													JOINT metacarpal1.R
													{
														OFFSET -0.107100 -0.260600 -0.156699
														CHANNELS 6 Xposition Yposition Zposition Xrotation Yrotation Zrotation
														JOINT finger2-1.R
														{
															OFFSET -0.170600 -0.683000 -0.249201
															CHANNELS 6 Xposition Yposition Zposition Xrotation Yrotation Zrotation
															JOINT finger2-2.R
															{
																OFFSET -0.033400 -0.207100 -0.150700
																CHANNELS 6 Xposition Yposition Zposition Xrotation Yrotation Zrotation
																JOINT finger2-3.R
																{
																	OFFSET 0.005600 -0.163400 -0.162900
																	CHANNELS 6 Xposition Yposition Zposition Xrotation Yrotation Zrotation
																	End Site
																	{
																		OFFSET 0.036675 -0.175730 -0.201578
																	}
																}
															}
														}
													}
													JOINT metacarpal2.R
													{
														OFFSET -0.107100 -0.260600 -0.156699
														CHANNELS 6 Xposition Yposition Zposition Xrotation Yrotation Zrotation
														JOINT finger3-1.R
														{
															OFFSET -0.333200 -0.504800 -0.358101
															CHANNELS 6 Xposition Yposition Zposition Xrotation Yrotation Zrotation
															JOINT finger3-2.R
															{
																OFFSET -0.072100 -0.204500 -0.259600
																CHANNELS 6 Xposition Yposition Zposition Xrotation Yrotation Zrotation
																JOINT finger3-3.R
																{
																	OFFSET -0.026600 -0.171100 -0.215110
																	CHANNELS 6 Xposition Yposition Zposition Xrotation Yrotation Zrotation
																	End Site
																	{
																		OFFSET 0.001996 -0.148388 -0.225368
																	}
																}
															}
														}
													}
													JOINT metacarpal3.R
													{
														OFFSET -0.223800 -0.156300 -0.308700
														CHANNELS 6 Xposition Yposition Zposition Xrotation Yrotation Zrotation
														JOINT finger4-1.R
														{
															OFFSET -0.291800 -0.438100 -0.282600
															CHANNELS 6 Xposition Yposition Zposition Xrotation Yrotation Zrotation
															JOINT finger4-2.R
															{
																OFFSET -0.092900 -0.140700 -0.244699
																CHANNELS 6 Xposition Yposition Zposition Xrotation Yrotation Zrotation
																JOINT finger4-3.R
																{
																	OFFSET -0.042400 -0.125200 -0.209790
																	CHANNELS 6 Xposition Yposition Zposition Xrotation Yrotation Zrotation
																	End Site
																	{
																		OFFSET -0.024430 -0.112092 -0.241180
																	}
																}
															}
														}
													}
													JOINT metacarpal4.R
													{
														OFFSET -0.223800 -0.156300 -0.308700
														CHANNELS 6 Xposition Yposition Zposition Xrotation Yrotation Zrotation
														JOINT finger5-1.R
														{
															OFFSET -0.306800 -0.244600 -0.369200
															CHANNELS 6 Xposition Yposition Zposition Xrotation Yrotation Zrotation
															JOINT finger5-2.R
															{
																OFFSET -0.058900 -0.074400 -0.190600
																CHANNELS 6 Xposition Yposition Zposition Xrotation Yrotation Zrotation
																JOINT finger5-3.R
																{
																	OFFSET -0.017300 -0.056900 -0.144350
																	CHANNELS 6 Xposition Yposition Zposition Xrotation Yrotation Zrotation
																	End Site
																	{
																		OFFSET -0.026555 -0.069063 -0.184319
																	}
																}
															}
														}
													}
												}
											}
										}
									}
								}
							}
						}
						JOINT neck01
						{
							OFFSET 0.000000 -0.238134 1.749801
							CHANNELS 6 Xposition Yposition Zposition Xrotation Yrotation Zrotation
							JOINT neck02
							{
								OFFSET 0.000000 -0.113826 0.312099
								CHANNELS 6 Xposition Yposition Zposition Xrotation Yrotation Zrotation
								JOINT neck03
								{
									OFFSET 0.000000 -0.106450 0.369500
									CHANNELS 6 Xposition Yposition Zposition Xrotation Yrotation Zrotation
									JOINT head
									{
										OFFSET 0.000000 -0.171470 0.327100
										CHANNELS 6 Xposition Yposition Zposition Xrotation Yrotation Zrotation
										JOINT jaw
										{
											OFFSET 0.000000 -0.121400 0.064199
											CHANNELS 6 Xposition Yposition Zposition Xrotation Yrotation Zrotation
											JOINT special04
											{
												OFFSET 0.000000 -0.505020 -0.776999
												CHANNELS 6 Xposition Yposition Zposition Xrotation Yrotation Zrotation
												JOINT oris02
												{
													OFFSET 0.000000 -0.253800 0.178800
													CHANNELS 6 Xposition Yposition Zposition Xrotation Yrotation Zrotation
													JOINT oris01
													{
														OFFSET 0.000000 -0.104400 0.096300
														CHANNELS 6 Xposition Yposition Zposition Xrotation Yrotation Zrotation
														End Site
														{
															OFFSET 0.000000 -0.057194 0.138602
														}
													}
												}
												JOINT oris06.L
												{
													OFFSET 0.000000 -0.253800 0.178800
													CHANNELS 6 Xposition Yposition Zposition Xrotation Yrotation Zrotation
													JOINT oris07.L
													{
														OFFSET 0.123900 -0.072600 0.044901
														CHANNELS 6 Xposition Yposition Zposition Xrotation Yrotation Zrotation
														End Site
														{
															OFFSET 0.047759 -0.031062 0.125713
														}
													}
												}
												JOINT oris06.R
												{
													OFFSET 0.000000 -0.253800 0.178800
													CHANNELS 6 Xposition Yposition Zposition Xrotation Yrotation Zrotation
													JOINT oris07.R
													{
														OFFSET -0.123900 -0.072600 0.044901
														CHANNELS 6 Xposition Yposition Zposition Xrotation Yrotation Zrotation
														End Site
														{
															OFFSET -0.047759 -0.031062 0.125713
														}
													}
												}
											}
											JOINT tongue00
											{
												OFFSET 0.000000 -0.505020 -0.776999
												CHANNELS 6 Xposition Yposition Zposition Xrotation Yrotation Zrotation
												JOINT tongue01
												{
													OFFSET 0.000000 0.379750 0.436800
													CHANNELS 6 Xposition Yposition Zposition Xrotation Yrotation Zrotation
													JOINT tongue02
													{
														OFFSET 0.000000 -0.288650 0.036700
														CHANNELS 6 Xposition Yposition Zposition Xrotation Yrotation Zrotation
														JOINT tongue03
														{
															OFFSET 0.000000 -0.202400 -0.002000
															CHANNELS 6 Xposition Yposition Zposition Xrotation Yrotation Zrotation
															JOINT tongue04
															{
																OFFSET 0.000000 -0.081600 -0.045000
																CHANNELS 6 Xposition Yposition Zposition Xrotation Yrotation Zrotation
																End Site
																{
																	OFFSET 0.000000 -0.081700 -0.045001
																}
															}
															JOINT tongue07.L
															{
																OFFSET 0.000000 -0.081600 -0.045000
																CHANNELS 6 Xposition Yposition Zposition Xrotation Yrotation Zrotation
																End Site
																{
																	OFFSET 0.114280 -0.002229 -0.034674
																}
															}
															JOINT tongue07.R
															{
																OFFSET 0.000000 -0.081600 -0.045000
																CHANNELS 6 Xposition Yposition Zposition Xrotation Yrotation Zrotation
																End Site
																{
																	OFFSET -0.114280 -0.002229 -0.034674
																}
															}
														}
														JOINT tongue06.L
														{
															OFFSET 0.000000 -0.202400 -0.002000
															CHANNELS 6 Xposition Yposition Zposition Xrotation Yrotation Zrotation
															End Site
															{
																OFFSET 0.161696 0.021125 -0.052106
															}
														}
														JOINT tongue06.R
														{
															OFFSET 0.000000 -0.202400 -0.002000
															CHANNELS 6 Xposition Yposition Zposition Xrotation Yrotation Zrotation
															End Site
															{
																OFFSET -0.161696 0.021125 -0.052106
															}
														}
													}
													JOINT tongue05.L
													{
														OFFSET 0.000000 -0.288650 0.036700
														CHANNELS 6 Xposition Yposition Zposition Xrotation Yrotation Zrotation
														End Site
														{
															OFFSET 0.194008 -0.022401 -0.039660
														}
													}
													JOINT tongue05.R
													{
														OFFSET 0.000000 -0.288650 0.036700
														CHANNELS 6 Xposition Yposition Zposition Xrotation Yrotation Zrotation
														End Site
														{
															OFFSET -0.194008 -0.022401 -0.039660
														}
													}
												}
											}
										}
										JOINT levator02.L
										{
											OFFSET 0.031033 -1.042320 0.209200
											CHANNELS 6 Xposition Yposition Zposition Xrotation Yrotation Zrotation
											JOINT levator03.L
											{
												OFFSET 0.167197 0.119200 -0.118400
												CHANNELS 6 Xposition Yposition Zposition Xrotation Yrotation Zrotation
												JOINT levator04.L
												{
													OFFSET 0.060940 -0.003700 -0.184300
													CHANNELS 6 Xposition Yposition Zposition Xrotation Yrotation Zrotation
													JOINT levator05.L
													{
														OFFSET 0.017530 -0.001500 -0.174200
														CHANNELS 6 Xposition Yposition Zposition Xrotation Yrotation Zrotation
														End Site
														{
															OFFSET -0.028190 -0.003099 -0.083503
														}
													}
												}
											}
										}
										JOINT levator02.R
										{
											OFFSET -0.031033 -1.042320 0.209200
											CHANNELS 6 Xposition Yposition Zposition Xrotation Yrotation Zrotation
											JOINT levator03.R
											{
												OFFSET -0.167197 0.119200 -0.118400
												CHANNELS 6 Xposition Yposition Zposition Xrotation Yrotation Zrotation
												JOINT levator04.R
												{
													OFFSET -0.060940 -0.003700 -0.184300
													CHANNELS 6 Xposition Yposition Zposition Xrotation Yrotation Zrotation
													JOINT levator05.R
													{
														OFFSET -0.017530 -0.001500 -0.174200
														CHANNELS 6 Xposition Yposition Zposition Xrotation Yrotation Zrotation
														End Site
														{
															OFFSET 0.028190 -0.003099 -0.083503
														}
													}
												}
											}
										}
										JOINT special01
										{
											OFFSET 0.000000 0.699350 -0.006900
											CHANNELS 6 Xposition Yposition Zposition Xrotation Yrotation Zrotation
											JOINT oris04.L
											{
												OFFSET 0.000000 -1.749470 -0.087800
												CHANNELS 6 Xposition Yposition Zposition Xrotation Yrotation Zrotation
												JOINT oris03.L
												{
													OFFSET 0.134270 0.023000 -0.064000
													CHANNELS 6 Xposition Yposition Zposition Xrotation Yrotation Zrotation
													End Site
													{
														OFFSET 0.029934 0.003633 -0.059402
													}
												}
											}
											JOINT oris04.R
											{
												OFFSET 0.000000 -1.749470 -0.087800
												CHANNELS 6 Xposition Yposition Zposition Xrotation Yrotation Zrotation
												JOINT oris03.R
												{
													OFFSET -0.134270 0.023000 -0.064000
													CHANNELS 6 Xposition Yposition Zposition Xrotation Yrotation Zrotation
													End Site
													{
														OFFSET -0.029934 0.003633 -0.059402
													}
												}
											}
											JOINT oris06
											{
												OFFSET 0.000000 -1.749470 -0.087800
												CHANNELS 6 Xposition Yposition Zposition Xrotation Yrotation Zrotation
												JOINT oris05
												{
													OFFSET 0.000000 -0.007000 -0.051400
													CHANNELS 6 Xposition Yposition Zposition Xrotation Yrotation Zrotation
													End Site
													{
														OFFSET 0.000000 -0.033213 -0.064393
													}
												}
											}
										}
										JOINT special03
										{
											OFFSET 0.000000 -0.121400 0.064199
											CHANNELS 6 Xposition Yposition Zposition Xrotation Yrotation Zrotation
											JOINT levator06.L
											{
												OFFSET 0.056567 -1.013320 -0.053999
												CHANNELS 6 Xposition Yposition Zposition Xrotation Yrotation Zrotation
												End Site
												{
													OFFSET 0.112632 0.186186 0.038878
												}
											}
											JOINT levator06.R
											{
												OFFSET -0.056567 -1.013320 -0.053999
												CHANNELS 6 Xposition Yposition Zposition Xrotation Yrotation Zrotation
												End Site
												{
													OFFSET -0.112632 0.186186 0.038878
												}
											}
										}
										JOINT special06.L
										{
											OFFSET 0.000000 0.069350 1.479799
											CHANNELS 6 Xposition Yposition Zposition Xrotation Yrotation Zrotation
											JOINT special05.L
											{
												OFFSET 0.186870 -0.560300 -0.149599
												CHANNELS 6 Xposition Yposition Zposition Xrotation Yrotation Zrotation
												JOINT eye.L
												{
													OFFSET 0.102070 -0.246970 -0.943399
													CHANNELS 6 Xposition Yposition Zposition Xrotation Yrotation Zrotation
													End Site
													{
														OFFSET 0.017767 -0.379798 -0.029534
													}
												}
												JOINT orbicularis03.L
												{
													OFFSET 0.102070 -0.246970 -0.943399
													CHANNELS 6 Xposition Yposition Zposition Xrotation Yrotation Zrotation
													End Site
													{
														OFFSET 0.017041 -0.359513 0.088355
													}
												}
												JOINT orbicularis04.L
												{
													OFFSET 0.102070 -0.246970 -0.943399
													CHANNELS 6 Xposition Yposition Zposition Xrotation Yrotation Zrotation
													End Site
													{
														OFFSET 0.018009 -0.354187 -0.142336
													}
												}
											}
										}
										JOINT special06.R
										{
											OFFSET 0.000000 0.069350 1.479799
											CHANNELS 6 Xposition Yposition Zposition Xrotation Yrotation Zrotation
											JOINT special05.R
											{
												OFFSET -0.186870 -0.560300 -0.149599
												CHANNELS 6 Xposition Yposition Zposition Xrotation Yrotation Zrotation
												JOINT eye.R
												{
													OFFSET -0.102070 -0.246970 -0.943399
													CHANNELS 6 Xposition Yposition Zposition Xrotation Yrotation Zrotation
													End Site
													{
														OFFSET -0.017767 -0.379798 -0.029534
													}
												}
												JOINT orbicularis03.R
												{
													OFFSET -0.102070 -0.246970 -0.943399
													CHANNELS 6 Xposition Yposition Zposition Xrotation Yrotation Zrotation
													End Site
													{
														OFFSET -0.017041 -0.359513 0.088355
													}
												}
												JOINT orbicularis04.R
												{
													OFFSET -0.102070 -0.246970 -0.943399
													CHANNELS 6 Xposition Yposition Zposition Xrotation Yrotation Zrotation
													End Site
													{
														OFFSET -0.018009 -0.354187 -0.142336
													}
												}
											}
										}
										JOINT temporalis01.L
										{
											OFFSET 0.604530 -0.593820 0.456800
											CHANNELS 6 Xposition Yposition Zposition Xrotation Yrotation Zrotation
											JOINT oculi02.L
											{
												OFFSET -0.081930 -0.176200 -0.003500
												CHANNELS 6 Xposition Yposition Zposition Xrotation Yrotation Zrotation
												JOINT oculi01.L
												{
													OFFSET -0.202470 -0.180000 0.146799
													CHANNELS 6 Xposition Yposition Zposition Xrotation Yrotation Zrotation
													End Site
													{
														OFFSET -0.167592 -0.041332 0.012400
													}
												}
											}
										}
										JOINT temporalis01.R
										{
											OFFSET -0.604530 -0.593820 0.456800
											CHANNELS 6 Xposition Yposition Zposition Xrotation Yrotation Zrotation
											JOINT oculi02.R
											{
												OFFSET 0.081930 -0.176200 -0.003500
												CHANNELS 6 Xposition Yposition Zposition Xrotation Yrotation Zrotation
												JOINT oculi01.R
												{
													OFFSET 0.202470 -0.180000 0.146799
													CHANNELS 6 Xposition Yposition Zposition Xrotation Yrotation Zrotation
													End Site
													{
														OFFSET 0.167592 -0.041332 0.012400
													}
												}
											}
										}
										JOINT temporalis02.L
										{
											OFFSET 0.623070 -0.571620 0.233100
											CHANNELS 6 Xposition Yposition Zposition Xrotation Yrotation Zrotation
											JOINT risorius02.L
											{
												OFFSET -0.097270 -0.177300 0.049900
												CHANNELS 6 Xposition Yposition Zposition Xrotation Yrotation Zrotation
												JOINT risorius03.L
												{
													OFFSET -0.050400 -0.060600 -0.276799
													CHANNELS 6 Xposition Yposition Zposition Xrotation Yrotation Zrotation
													End Site
													{
														OFFSET 0.046399 0.157765 -0.197430
													}
												}
											}
										}
										JOINT temporalis02.R
										{
											OFFSET -0.623070 -0.571620 0.233100
											CHANNELS 6 Xposition Yposition Zposition Xrotation Yrotation Zrotation
											JOINT risorius02.R
											{
												OFFSET 0.097270 -0.177300 0.049900
												CHANNELS 6 Xposition Yposition Zposition Xrotation Yrotation Zrotation
												JOINT risorius03.R
												{
													OFFSET 0.050400 -0.060600 -0.276799
													CHANNELS 6 Xposition Yposition Zposition Xrotation Yrotation Zrotation
													End Site
													{
														OFFSET -0.046399 0.157765 -0.197430
													}
												}
											}
										}
									}
								}
							}
						}
					}
				}
			}
		}
	}
	JOINT pelvis.L
	{
		OFFSET 0.000000 -0.779770 0.042199
		CHANNELS 6 Xposition Yposition Zposition Xrotation Yrotation Zrotation
		JOINT upperleg01.L
		{
			OFFSET 1.013800 0.082736 -0.080870
			CHANNELS 6 Xposition Yposition Zposition Xrotation Yrotation Zrotation
			JOINT upperleg02.L
			{
				OFFSET 0.010700 -0.247546 -0.780900
				CHANNELS 6 Xposition Yposition Zposition Xrotation Yrotation Zrotation
				JOINT lowerleg01.L
				{
					OFFSET 0.400300 -0.076940 -3.128600
					CHANNELS 6 Xposition Yposition Zposition Xrotation Yrotation Zrotation
					JOINT lowerleg02.L
					{
						OFFSET 0.190500 0.073500 -2.027800
						CHANNELS 6 Xposition Yposition Zposition Xrotation Yrotation Zrotation
						JOINT foot.L
						{
							OFFSET 0.190500 0.073490 -2.027700
							CHANNELS 6 Xposition Yposition Zposition Xrotation Yrotation Zrotation
							JOINT toe1-1.L
							{
								OFFSET -0.245400 -1.319500 -0.405000
								CHANNELS 6 Xposition Yposition Zposition Xrotation Yrotation Zrotation
								JOINT toe1-2.L
								{
									OFFSET 0.021400 -0.242700 -0.064600
									CHANNELS 6 Xposition Yposition Zposition Xrotation Yrotation Zrotation
									End Site
									{
										OFFSET 0.040190 -0.272593 -0.082779
									}
								}
							}
							JOINT toe2-1.L
							{
								OFFSET -0.017700 -1.332900 -0.430000
								CHANNELS 6 Xposition Yposition Zposition Xrotation Yrotation Zrotation
								JOINT toe2-2.L
								{
									OFFSET 0.017700 -0.203900 -0.032300
									CHANNELS 6 Xposition Yposition Zposition Xrotation Yrotation Zrotation
									JOINT toe2-3.L
									{
										OFFSET 0.006700 -0.124800 -0.044100
										CHANNELS 6 Xposition Yposition Zposition Xrotation Yrotation Zrotation
										End Site
										{
											OFFSET 0.004299 -0.166087 -0.064731
										}
									}
								}
							}
							JOINT toe3-1.L
							{
								OFFSET 0.139600 -1.307900 -0.446200
								CHANNELS 6 Xposition Yposition Zposition Xrotation Yrotation Zrotation
								JOINT toe3-2.L
								{
									OFFSET 0.016100 -0.180900 -0.024700
									CHANNELS 6 Xposition Yposition Zposition Xrotation Yrotation Zrotation
									JOINT toe3-3.L
									{
										OFFSET 0.003300 -0.120200 -0.044200
										CHANNELS 6 Xposition Yposition Zposition Xrotation Yrotation Zrotation
										End Site
										{
											OFFSET -0.003204 -0.127180 -0.043355
										}
									}
								}
							}
							JOINT toe4-1.L
							{
								OFFSET 0.288800 -1.237700 -0.448000
								CHANNELS 6 Xposition Yposition Zposition Xrotation Yrotation Zrotation
								JOINT toe4-2.L
								{
									OFFSET 0.016000 -0.149100 -0.033200
									CHANNELS 6 Xposition Yposition Zposition Xrotation Yrotation Zrotation
									JOINT toe4-3.L
									{
										OFFSET -0.003600 -0.113900 -0.025100
										CHANNELS 6 Xposition Yposition Zposition Xrotation Yrotation Zrotation
										End Site
										{
											OFFSET 0.008891 -0.096953 -0.056881
										}
									}
								}
							}
							JOINT toe5-1.L
							{
								OFFSET 0.425800 -1.171200 -0.446700
								CHANNELS 6 Xposition Yposition Zposition Xrotation Yrotation Zrotation
								JOINT toe5-2.L
								{
									OFFSET 0.004600 -0.098200 -0.026600
									CHANNELS 6 Xposition Yposition Zposition Xrotation Yrotation Zrotation
									JOINT toe5-3.L
									{
										OFFSET -0.008700 -0.079100 -0.037200
										CHANNELS 6 Xposition Yposition Zposition Xrotation Yrotation Zrotation
										End Site
										{
											OFFSET 0.004433 -0.108578 -0.055548
										}
									}
								}
							}
						}
					}
				}
			}
		}
	}
	JOINT pelvis.R
	{
		OFFSET 0.000000 -0.779770 0.042199
		CHANNELS 6 Xposition Yposition Zposition Xrotation Yrotation Zrotation
		JOINT upperleg01.R
		{
			OFFSET -1.013800 0.082736 -0.080870
			CHANNELS 6 Xposition Yposition Zposition Xrotation Yrotation Zrotation
			JOINT upperleg02.R
			{
				OFFSET -0.010700 -0.247546 -0.780900
				CHANNELS 6 Xposition Yposition Zposition Xrotation Yrotation Zrotation
				JOINT lowerleg01.R
				{
					OFFSET -0.400300 -0.076940 -3.128600
					CHANNELS 6 Xposition Yposition Zposition Xrotation Yrotation Zrotation
					JOINT lowerleg02.R
					{
						OFFSET -0.190500 0.073500 -2.027800
						CHANNELS 6 Xposition Yposition Zposition Xrotation Yrotation Zrotation
						JOINT foot.R
						{
							OFFSET -0.190500 0.073490 -2.027700
							CHANNELS 6 Xposition Yposition Zposition Xrotation Yrotation Zrotation
							JOINT toe1-1.R
							{
								OFFSET 0.245400 -1.319500 -0.405000
								CHANNELS 6 Xposition Yposition Zposition Xrotation Yrotation Zrotation
								JOINT toe1-2.R
								{
									OFFSET -0.021400 -0.242700 -0.064600
									CHANNELS 6 Xposition Yposition Zposition Xrotation Yrotation Zrotation
									End Site
									{
										OFFSET -0.040190 -0.272593 -0.082779
									}
								}
							}
							JOINT toe2-1.R
							{
								OFFSET 0.017700 -1.332900 -0.430000
								CHANNELS 6 Xposition Yposition Zposition Xrotation Yrotation Zrotation
								JOINT toe2-2.R
								{
									OFFSET -0.017700 -0.203900 -0.032300
									CHANNELS 6 Xposition Yposition Zposition Xrotation Yrotation Zrotation
									JOINT toe2-3.R
									{
										OFFSET -0.006700 -0.124800 -0.044100
										CHANNELS 6 Xposition Yposition Zposition Xrotation Yrotation Zrotation
										End Site
										{
											OFFSET -0.004299 -0.166087 -0.064731
										}
									}
								}
							}
							JOINT toe3-1.R
							{
								OFFSET -0.139600 -1.307900 -0.446200
								CHANNELS 6 Xposition Yposition Zposition Xrotation Yrotation Zrotation
								JOINT toe3-2.R
								{
									OFFSET -0.016100 -0.180900 -0.024700
									CHANNELS 6 Xposition Yposition Zposition Xrotation Yrotation Zrotation
									JOINT toe3-3.R
									{
										OFFSET -0.003300 -0.120200 -0.044200
										CHANNELS 6 Xposition Yposition Zposition Xrotation Yrotation Zrotation
										End Site
										{
											OFFSET 0.003204 -0.127180 -0.043355
										}
									}
								}
							}
							JOINT toe4-1.R
							{
								OFFSET -0.288800 -1.237700 -0.448000
								CHANNELS 6 Xposition Yposition Zposition Xrotation Yrotation Zrotation
								JOINT toe4-2.R
								{
									OFFSET -0.016000 -0.149100 -0.033200
									CHANNELS 6 Xposition Yposition Zposition Xrotation Yrotation Zrotation
									JOINT toe4-3.R
									{
										OFFSET 0.003600 -0.113900 -0.025100
										CHANNELS 6 Xposition Yposition Zposition Xrotation Yrotation Zrotation
										End Site
										{
											OFFSET -0.008891 -0.096953 -0.056881
										}
									}
								}
							}
							JOINT toe5-1.R
							{
								OFFSET -0.425800 -1.171200 -0.446700
								CHANNELS 6 Xposition Yposition Zposition Xrotation Yrotation Zrotation
								JOINT toe5-2.R
								{
									OFFSET -0.004600 -0.098200 -0.026600
									CHANNELS 6 Xposition Yposition Zposition Xrotation Yrotation Zrotation
									JOINT toe5-3.R
									{
										OFFSET 0.008700 -0.079100 -0.037200
										CHANNELS 6 Xposition Yposition Zposition Xrotation Yrotation Zrotation
										End Site
										{
											OFFSET -0.004433 -0.108578 -0.055548
										}
									}
								}
							}
						}
					}
				}
			}
		}
	}
}
MOTION
Frames: 1
Frame Time: 0.040000
0.000000 0.647730 -3.878695 -115.688323 0.000000 -0.000000 0.000000 -0.779770 0.042199 -69.038869 0.000000 -0.000000 0.000000 0.387330 0.797730 -11.591723 0.000000 -0.000000 0.000000 -0.154170 0.662598 -33.030211 0.000000 -0.000000 0.000000 -0.017320 0.750502 -22.986472 0.000000 -0.000000 0.000000 0.103201 1.439199 -9.778200 0.000007 -0.000020 -0.000000 0.103201 1.439199 -9.778200 -0.000007 0.000020 0.000000 0.103201 1.439199 -14.474511 0.000000 -0.000000 0.227360 -0.403210 1.038201 -18.238311 -8.983805 2.721373 0.763140 -0.000449 0.160800 0.119096 -6.720452 2.028040 0.709900 0.023551 -0.387501 -77.379923 52.166092 5.324167 0.469600 0.016360 -0.541700 0.000000 -0.000002 -0.000000 1.143500 -0.024510 -1.264203 -38.292841 -39.072025 -58.027559 0.609799 -0.815942 -0.621201 -0.000001 -0.000002 0.000000 0.609899 -0.815900 -0.621101 25.185607 -30.913050 14.227478 0.010901 -0.438600 -0.075301 -3.346011 9.752078 5.142090 -0.208999 -0.209801 -0.086799 -15.321482 29.816480 10.582424 -0.123801 -0.310302 -0.139497 -7.189990 18.107277 10.379213 0.107100 -0.260599 -0.156699 -4.098983 -3.239520 3.712840 0.170601 -0.683000 -0.249201 9.959860 6.203851 -9.161595 0.033400 -0.207100 -0.150699 -0.000002 0.000003 0.000003 -0.005600 -0.163400 -0.162900 -11.265298 -9.973970 10.083328 0.107100 -0.260600 -0.156699 -4.098983 -3.239520 3.712843 0.333199 -0.504799 -0.358102 2.857944 9.624818 -7.498734 0.072100 -0.204500 -0.259600 -0.000003 0.000000 -0.000002 0.026599 -0.171101 -0.215111 -1.570880 -9.546672 6.863156 0.223799 -0.156301 -0.308701 -4.098984 -3.239521 3.712846 0.291800 -0.438101 -0.282603 0.000002 0.000000 -0.000002 0.092900 -0.140699 -0.244700 4.857038 5.535575 -3.210234 0.042400 -0.125200 -0.209790 0.000002 0.000003 0.000005 0.223800 -0.156300 -0.308698 -4.098986 -3.239516 3.712847 0.306798 -0.244599 -0.369201 0.000005 -0.000000 0.000002 0.058900 -0.074398 -0.190601 -0.000001 0.000002 0.000001 0.017299 -0.056900 -0.144350 0.000001 -0.000001 0.000004 -0.227360 -0.403210 1.038201 -18.238311 8.983807 -2.721373 -0.763140 -0.000449 0.160800 0.119098 6.720452 -2.028040 -0.709900 0.023549 -0.387501 -77.379917 -52.166099 -5.324159 -0.469600 0.016360 -0.541701 0.000000 -0.000003 0.000002 -1.143501 -0.024510 -1.264202 -38.292837 39.072022 58.027559 -0.609800 -0.815942 -0.621201 -0.000001 -0.000004 -0.000000 -0.609900 -0.815899 -0.621101 25.185609 30.913054 -14.227478 -0.010900 -0.438600 -0.075300 -3.346009 -9.752074 -5.142088 0.208999 -0.209801 -0.086799 -15.321484 -29.816470 -10.582416 0.123800 -0.310301 -0.139498 -7.189991 -18.107274 -10.379208 -0.107100 -0.260600 -0.156699 -4.098979 3.239520 -3.712840 -0.170600 -0.682998 -0.249201 9.959860 -6.203844 9.161600 -0.033400 -0.207100 -0.150700 0.000001 -0.000005 -0.000001 0.005600 -0.163401 -0.162900 -11.265298 9.973972 -10.083324 -0.107100 -0.260600 -0.156698 -4.098981 3.239525 -3.712842 -0.333198 -0.504800 -0.358100 2.857948 -9.624817 7.498735 -0.072101 -0.204500 -0.259599 -0.000000 -0.000001 0.000005 -0.026601 -0.171101 -0.215112 -1.570882 9.546676 -6.863150 -0.223799 -0.156301 -0.308700 -4.098981 3.239518 -3.712845 -0.291799 -0.438101 -0.282600 0.000002 -0.000002 0.000001 -0.092899 -0.140699 -0.244699 4.857040 -5.535572 3.210230 -0.042400 -0.125199 -0.209788 0.000002 -0.000002 -0.000001 -0.223800 -0.156300 -0.308698 -4.098985 3.239515 -3.712848 -0.306799 -0.244599 -0.369200 0.000004 0.000000 -0.000001 -0.058900 -0.074399 -0.190601 -0.000001 0.000002 -0.000000 -0.017300 -0.056900 -0.144351 -0.000000 0.000000 -0.000003 0.000000 -0.238134 1.749802 -28.820069 0.000000 -0.000000 0.000000 -0.113826 0.312099 -4.999990 0.000000 -0.000000 0.000000 -0.106450 0.369499 -14.999961 0.000000 -0.000000 0.000000 -0.171471 0.327100 -0.000003 0.000000 -0.000000 0.000000 -0.121400 0.064198 0.000003 0.000000 -0.000000 -0.000000 -0.505019 -0.776999 0.000002 0.000000 -0.000000 -0.000000 -0.253800 0.178801 0.000002 0.000000 0.000000 0.000000 -0.104400 0.096298 -0.000000 -0.000000 0.000000 0.000000 -0.253798 0.178800 -0.000005 0.000002 -0.000002 0.123901 -0.072601 0.044900 -0.000001 0.000002 0.000001 -0.000001 -0.253799 0.178802 0.000003 -0.000001 0.000001 -0.123900 -0.072600 0.044899 -0.000009 -0.000001 -0.000000 -0.000000 -0.505019 -0.777000 0.000000 0.000000 -0.000000 0.000000 0.379751 0.436800 0.000001 0.000000 0.000000 -0.000000 -0.288650 0.036702 -0.000001 0.000000 -0.000000 -0.000000 -0.202401 -0.001999 0.000000 -0.000000 0.000000 -0.000000 -0.081599 -0.045000 0.000002 -0.000000 -0.000000 -0.000000 -0.081600 -0.045000 0.000002 -0.000003 0.000000 0.000000 -0.081598 -0.045001 -0.000000 0.000000 0.000001 0.000000 -0.202400 -0.002001 0.000002 0.000001 0.000001 -0.000001 -0.202400 -0.001998 0.000001 -0.000001 -0.000001 0.000000 -0.288649 0.036701 -0.000001 0.000001 0.000000 -0.000000 -0.288649 0.036701 0.000001 -0.000000 -0.000000 0.031032 -1.042320 0.209200 -0.000004 0.000000 0.000002 0.167197 0.119200 -0.118400 -0.000001 0.000001 0.000001 0.060940 -0.003700 -0.184300 0.000003 -0.000000 0.000002 0.017530 -0.001500 -0.174201 -0.000004 0.000001 -0.000001 -0.031032 -1.042320 0.209200 -0.000004 0.000000 -0.000002 -0.167197 0.119200 -0.118400 -0.000001 -0.000001 -0.000001 -0.060940 -0.003700 -0.184300 0.000003 0.000000 -0.000002 -0.017530 -0.001500 -0.174201 -0.000004 -0.000001 0.000001 -0.000000 0.699350 -0.006902 -0.000003 -0.000000 -0.000000 0.000000 -1.749469 -0.087801 0.000000 0.000001 -0.000000 0.134270 0.023000 -0.064000 0.000004 0.000001 0.000000 -0.000000 -1.749470 -0.087800 -0.000001 -0.000001 -0.000000 -0.134269 0.023000 -0.064000 0.000005 0.000003 -0.000000 -0.000000 -1.749469 -0.087801 -0.000002 -0.000000 0.000000 0.000000 -0.006999 -0.051401 -0.000002 -0.000000 0.000000 0.000000 -0.121400 0.064199 -0.000002 0.000000 0.000000 0.056567 -1.013320 -0.054001 -0.000001 0.000001 -0.000003 -0.056567 -1.013320 -0.053999 -0.000002 0.000002 -0.000001 -0.000000 0.069350 1.479799 0.000002 -0.000000 -0.000001 0.186870 -0.560300 -0.149601 -0.000001 -0.000000 -0.000001 0.102071 -0.246971 -0.943399 0.000003 0.000001 0.000002 0.102071 -0.246971 -0.943399 0.000002 0.000001 0.000001 0.102071 -0.246971 -0.943401 0.000002 0.000001 0.000002 0.000000 0.069350 1.479799 0.000002 0.000000 0.000001 -0.186870 -0.560300 -0.149601 -0.000001 0.000000 0.000001 -0.102071 -0.246971 -0.943399 0.000003 -0.000001 -0.000002 -0.102071 -0.246971 -0.943399 0.000002 -0.000001 -0.000001 -0.102071 -0.246971 -0.943401 0.000002 -0.000001 -0.000002 0.604530 -0.593820 0.456800 -0.000004 -0.000001 -0.000001 -0.081930 -0.176200 -0.003500 0.000002 -0.000000 -0.000000 -0.202470 -0.179999 0.146798 0.000000 0.000001 -0.000000 -0.604530 -0.593820 0.456800 -0.000004 0.000001 0.000001 0.081930 -0.176200 -0.003500 0.000002 0.000000 -0.000000 0.202470 -0.179999 0.146798 0.000000 -0.000001 0.000000 0.623070 -0.571620 0.233099 -0.000000 -0.000000 0.000001 -0.097270 -0.177300 0.049899 0.000004 -0.000002 0.000001 -0.050400 -0.060600 -0.276799 0.000003 0.000000 -0.000002 -0.623070 -0.571620 0.233099 -0.000000 0.000000 -0.000001 0.097270 -0.177300 0.049899 0.000004 0.000002 -0.000001 0.050400 -0.060600 -0.276799 0.000003 0.000000 0.000002 0.000000 -0.779769 0.042200 -6.520081 -0.000004 0.000004 1.013800 0.082736 -0.080867 13.556560 0.000003 -0.000005 0.010700 -0.247546 -0.780900 16.224665 -0.000004 -0.000035 0.400300 -0.076939 -3.128599 0.000000 0.000001 -0.000000 0.190500 0.073500 -2.027799 -0.000000 -0.000000 -0.000000 0.190500 0.073489 -2.027702 68.729776 -0.000005 -0.000121 -0.245399 -1.319501 -0.405001 0.000000 0.000000 -0.000001 0.021400 -0.242701 -0.064601 -0.000004 -0.000000 -0.000000 -0.017700 -1.332901 -0.430001 -0.000001 -0.000001 0.000000 0.017700 -0.203899 -0.032300 -0.000002 0.000001 -0.000000 0.006700 -0.124800 -0.044100 0.000002 0.000000 0.000000 0.139600 -1.307901 -0.446201 -0.000001 -0.000000 -0.000000 0.016100 -0.180901 -0.024700 -0.000003 -0.000000 0.000000 0.003300 -0.120200 -0.044200 0.000001 -0.000001 -0.000000 0.288800 -1.237700 -0.448001 -0.000000 -0.000000 -0.000000 0.016000 -0.149100 -0.033200 -0.000001 0.000001 0.000000 -0.003600 -0.113901 -0.025101 -0.000005 -0.000001 -0.000000 0.425801 -1.171200 -0.446700 -0.000001 -0.000000 0.000000 0.004600 -0.098200 -0.026600 0.000002 0.000001 -0.000001 -0.008700 -0.079099 -0.037200 0.000001 -0.000000 0.000000 -0.000000 -0.779769 0.042199 -104.546653 0.000057 -0.000031 -1.013800 0.082736 -0.080869 -26.702850 -0.000002 -0.000000 -0.010700 -0.247546 -0.780900 -19.811100 0.000002 -0.000037 -0.400300 -0.076941 -3.128601 108.510218 -2.500864 -22.640557 -0.190500 0.073500 -2.027799 0.000002 -0.000000 -0.000002 -0.190500 0.073489 -2.027700 41.726780 -0.000023 0.000054 0.245400 -1.319500 -0.405000 -0.000001 0.000002 0.000001 -0.021400 -0.242700 -0.064600 -0.000004 -0.000001 -0.000001 0.017700 -1.332900 -0.430000 0.000004 0.000002 -0.000000 -0.017700 -0.203899 -0.032300 -0.000002 0.000001 0.000001 -0.006700 -0.124800 -0.044100 -0.000001 0.000000 -0.000001 -0.139600 -1.307900 -0.446200 -0.000001 0.000002 0.000000 -0.016100 -0.180900 -0.024700 0.000000 0.000001 -0.000001 -0.003300 -0.120200 -0.044200 -0.000001 -0.000002 -0.000001 -0.288800 -1.237700 -0.448000 0.000001 0.000002 -0.000000 -0.016000 -0.149100 -0.033200 0.000001 -0.000000 0.000002 0.003600 -0.113900 -0.025101 -0.000001 -0.000001 0.000001 -0.425800 -1.171200 -0.446700 0.000002 0.000002 0.000000 -0.004600 -0.098200 -0.026600 0.000002 -0.000002 -0.000000 0.008700 -0.079100 -0.037200 -0.000006 -0.000003 -0.000002 
