HIERARCHY
ROOT root
{
	OFFSET 0.000000 0.647730 8.700670
	CHANNELS 6 Xposition Yposition Zposition Xrotation Yrotation Zrotation
	JOINT spine05
	{
		OFFSET 0.000000 -0.779770 0.042199
		CHANNELS 6 Xposition Yposition Zposition Xrotation Yrotation Zrotation
		JOINT spine04
		{
			OFFSET 0.000000 0.387330 0.797730
			CHANNELS 6 Xposition Yposition Zposition Xrotation Yrotation Zrotation
			JOINT spine03
			{
				OFFSET 0.000000 -0.154170 0.662600
				CHANNELS 6 Xposition Yposition Zposition Xrotation Yrotation Zrotation
				JOINT spine02
				{
					OFFSET 0.000000 -0.017320 0.750501
					CHANNELS 6 Xposition Yposition Zposition Xrotation Yrotation Zrotation
					JOINT breast.L
					{
						OFFSET 0.000000 0.103200 1.439199
						CHANNELS 6 Xposition Yposition Zposition Xrotation Yrotation Zrotation
						End Site
						{
							OFFSET 1.020987 -1.674111 -0.248674
						}
					}
					JOINT breast.R
					{
						OFFSET 0.000000 0.103200 1.439199
						CHANNELS 6 Xposition Yposition Zposition Xrotation Yrotation Zrotation
						End Site
						{
							OFFSET -1.020987 -1.674111 -0.248674
						}
					}
					JOINT spine01
					{
						OFFSET 0.000000 0.103200 1.439199
						CHANNELS 6 Xposition Yposition Zposition Xrotation Yrotation Zrotation
						JOINT clavicle.L
						{
							OFFSET 0.227360 -0.403210 1.038200
							CHANNELS 6 Xposition Yposition Zposition Xrotation Yrotation Zrotation
							JOINT shoulder01.L
							{
								OFFSET 0.763140 -0.000450 0.160800
								CHANNELS 6 Xposition Yposition Zposition Xrotation Yrotation Zrotation
								JOINT upperarm01.L
								{
									OFFSET 0.709900 0.023550 -0.387501
									CHANNELS 6 Xposition Yposition Zposition Xrotation Yrotation Zrotation
									JOINT upperarm02.L
									{
										OFFSET 0.469600 0.016360 -0.541699
										CHANNELS 6 Xposition Yposition Zposition Xrotation Yrotation Zrotation
										JOINT lowerarm01.L
										{
											OFFSET 1.143500 -0.024510 -1.264200
											CHANNELS 6 Xposition Yposition Zposition Xrotation Yrotation Zrotation
											JOINT lowerarm02.L
											{
												OFFSET 0.609800 -0.815940 -0.621200
												CHANNELS 6 Xposition Yposition Zposition Xrotation Yrotation Zrotation
												JOINT wrist.L
												{
													OFFSET 0.609900 -0.815900 -0.621100
													CHANNELS 6 Xposition Yposition Zposition Xrotation Yrotation Zrotation
													JOINT finger1-1.L
													{
														OFFSET 0.010900 -0.438600 -0.075299
														CHANNELS 6 Xposition Yposition Zposition Xrotation Yrotation Zrotation
														JOINT finger1-2.L
														{
															OFFSET -0.209000 -0.209800 -0.086801
															CHANNELS 6 Xposition Yposition Zposition Xrotation Yrotation Zrotation
															JOINT finger1-3.L
															{
																OFFSET -0.123800 -0.310300 -0.139500
																CHANNELS 6 Xposition Yposition Zposition Xrotation Yrotation Zrotation
																End Site
																{
																	OFFSET -0.055006 -0.213001 -0.173997
																}
															}
														}
													}
													JOINT metacarpal1.L
													{
														OFFSET 0.107100 -0.260600 -0.156699
														CHANNELS 6 Xposition Yposition Zposition Xrotation Yrotation Zrotation
														JOINT finger2-1.L
														{
															OFFSET 0.170600 -0.683000 -0.249201
															CHANNELS 6 Xposition Yposition Zposition Xrotation Yrotation Zrotation
															JOINT finger2-2.L
															{
																OFFSET 0.033400 -0.207100 -0.150700
																CHANNELS 6 Xposition Yposition Zposition Xrotation Yrotation Zrotation
																JOINT finger2-3.L
																{
																	OFFSET -0.005600 -0.163400 -0.162900
																	CHANNELS 6 Xposition Yposition Zposition Xrotation Yrotation Zrotation
																	End Site
																	{
																		OFFSET -0.036675 -0.175730 -0.201578
																	}
																}
															}
														}
													}
													JOINT metacarpal2.L
													{
														OFFSET 0.107100 -0.260600 -0.156699
														CHANNELS 6 Xposition Yposition Zposition Xrotation Yrotation Zrotation
														JOINT finger3-1.L
														{
															OFFSET 0.333200 -0.504800 -0.358101
															CHANNELS 6 Xposition Yposition Zposition Xrotation Yrotation Zrotation
															JOINT finger3-2.L
															{
																OFFSET 0.072100 -0.204500 -0.259600
																CHANNELS 6 Xposition Yposition Zposition Xrotation Yrotation Zrotation
																JOINT finger3-3.L
																{
																	OFFSET 0.026600 -0.171100 -0.215110
																	CHANNELS 6 Xposition Yposition Zposition Xrotation Yrotation Zrotation
																	End Site
																	{
																		OFFSET -0.001996 -0.148388 -0.225368
																	}
																}
															}
														}
													}
													JOINT metacarpal3.L
													{
														OFFSET 0.223800 -0.156300 -0.308700
														CHANNELS 6 Xposition Yposition Zposition Xrotation Yrotation Zrotation
														JOINT finger4-1.L
														{
															OFFSET 0.291800 -0.438100 -0.282600
															CHANNELS 6 Xposition Yposition Zposition Xrotation Yrotation Zrotation
															JOINT finger4-2.L
															{
																OFFSET 0.092900 -0.140700 -0.244699
																CHANNELS 6 Xposition Yposition Zposition Xrotation Yrotation Zrotation
																JOINT finger4-3.L
																{
																	OFFSET 0.042400 -0.125200 -0.209790
																	CHANNELS 6 Xposition Yposition Zposition Xrotation Yrotation Zrotation
																	End Site
																	{
																		OFFSET 0.024430 -0.112092 -0.241180
																	}
																}
															}
														}
													}
													JOINT metacarpal4.L
													{
														OFFSET 0.223800 -0.156300 -0.308700
														CHANNELS 6 Xposition Yposition Zposition Xrotation Yrotation Zrotation
														JOINT finger5-1.L
														{
															OFFSET 0.306800 -0.244600 -0.369200
															CHANNELS 6 Xposition Yposition Zposition Xrotation Yrotation Zrotation
															JOINT finger5-2.L
															{
																OFFSET 0.058900 -0.074400 -0.190600
																CHANNELS 6 Xposition Yposition Zposition Xrotation Yrotation Zrotation
																JOINT finger5-3.L
																{
																	OFFSET 0.017300 -0.056900 -0.144350
																	CHANNELS 6 Xposition Yposition Zposition Xrotation Yrotation Zrotation
																	End Site
																	{
																		OFFSET 0.026555 -0.069063 -0.184319
																	}
																}
															}
														}
													}
												}
											}
										}
									}
								}
							}
						}
						JOINT clavicle.R
						{
							OFFSET -0.227360 -0.403210 1.038200
							CHANNELS 6 Xposition Yposition Zposition Xrotation Yrotation Zrotation
							JOINT shoulder01.R
							{
								OFFSET -0.763140 -0.000450 0.160800
								CHANNELS 6 Xposition Yposition Zposition Xrotation Yrotation Zrotation
								JOINT upperarm01.R
								{
									OFFSET -0.709900 0.023550 -0.387501
									CHANNELS 6 Xposition Yposition Zposition Xrotation Yrotation Zrotation
									JOINT upperarm02.R
									{
										OFFSET -0.469600 0.016360 -0.541699
										CHANNELS 6 Xposition Yposition Zposition Xrotation Yrotation Zrotation
										JOINT lowerarm01.R
										{
											OFFSET -1.143500 -0.024510 -1.264200
											CHANNELS 6 Xposition Yposition Zposition Xrotation Yrotation Zrotation
											JOINT lowerarm02.R
											{
												OFFSET -0.609800 -0.815940 -0.621200
												CHANNELS 6 Xposition Yposition Zposition Xrotation Yrotation Zrotation
												JOINT wrist.R
												{
													OFFSET -0.609900 -0.815900 -0.621100
													CHANNELS 6 Xposition Yposition Zposition Xrotation Yrotation Zrotation
													JOINT finger1-1.R
													{
														OFFSET -0.010900 -0.438600 -0.075299
														CHANNELS 6 Xposition Yposition Zposition Xrotation Yrotation Zrotation
														JOINT finger1-2.R
														{
															OFFSET 0.209000 -0.209800 -0.086801
															CHANNELS 6 Xposition Yposition Zposition Xrotation Yrotation Zrotation
															JOINT finger1-3.R
															{
																OFFSET 0.123800 -0.310300 -0.139500
																CHANNELS 6 Xposition Yposition Zposition Xrotation Yrotation Zrotation
																End Site
																{
																	OFFSET 0.055006 -0.213001 -0.173997
																}
															}
														}
													}
													JOINT metacarpal1.R
													{
														OFFSET -0.107100 -0.260600 -0.156699
														CHANNELS 6 Xposition Yposition Zposition Xrotation Yrotation Zrotation
														JOINT finger2-1.R
														{
															OFFSET -0.170600 -0.683000 -0.249201
															CHANNELS 6 Xposition Yposition Zposition Xrotation Yrotation Zrotation
															JOINT finger2-2.R
															{
																OFFSET -0.033400 -0.207100 -0.150700
																CHANNELS 6 Xposition Yposition Zposition Xrotation Yrotation Zrotation
																JOINT finger2-3.R
																{
																	OFFSET 0.005600 -0.163400 -0.162900
																	CHANNELS 6 Xposition Yposition Zposition Xrotation Yrotation Zrotation
																	End Site
																	{
																		OFFSET 0.036675 -0.175730 -0.201578
																	}
																}
															}
														}
													}
													JOINT metacarpal2.R
													{
														OFFSET -0.107100 -0.260600 -0.156699
														CHANNELS 6 Xposition Yposition Zposition Xrotation Yrotation Zrotation
														JOINT finger3-1.R
														{
															OFFSET -0.333200 -0.504800 -0.358101
															CHANNELS 6 Xposition Yposition Zposition Xrotation Yrotation Zrotation
															JOINT finger3-2.R
															{
																OFFSET -0.072100 -0.204500 -0.259600
																CHANNELS 6 Xposition Yposition Zposition Xrotation Yrotation Zrotation
																JOINT finger3-3.R
																{
																	OFFSET -0.026600 -0.171100 -0.215110
																	CHANNELS 6 Xposition Yposition Zposition Xrotation Yrotation Zrotation
																	End Site
																	{
																		OFFSET 0.001996 -0.148388 -0.225368
																	}
																}
															}
														}
													}
													JOINT metacarpal3.R
													{
														OFFSET -0.223800 -0.156300 -0.308700
														CHANNELS 6 Xposition Yposition Zposition Xrotation Yrotation Zrotation
														JOINT finger4-1.R
														{
															OFFSET -0.291800 -0.438100 -0.282600
															CHANNELS 6 Xposition Yposition Zposition Xrotation Yrotation Zrotation
															JOINT finger4-2.R
															{
																OFFSET -0.092900 -0.140700 -0.244699
																CHANNELS 6 Xposition Yposition Zposition Xrotation Yrotation Zrotation
																JOINT finger4-3.R
																{
																	OFFSET -0.042400 -0.125200 -0.209790
																	CHANNELS 6 Xposition Yposition Zposition Xrotation Yrotation Zrotation
																	End Site
																	{
																		OFFSET -0.024430 -0.112092 -0.241180
																	}
																}
															}
														}
													}
													JOINT metacarpal4.R
													{
														OFFSET -0.223800 -0.156300 -0.308700
														CHANNELS 6 Xposition Yposition Zposition Xrotation Yrotation Zrotation
														JOINT finger5-1.R
														{
															OFFSET -0.306800 -0.244600 -0.369200
															CHANNELS 6 Xposition Yposition Zposition Xrotation Yrotation Zrotation
															JOINT finger5-2.R
															{
																OFFSET -0.058900 -0.074400 -0.190600
																CHANNELS 6 Xposition Yposition Zposition Xrotation Yrotation Zrotation
																JOINT finger5-3.R
																{
																	OFFSET -0.017300 -0.056900 -0.144350
																	CHANNELS 6 Xposition Yposition Zposition Xrotation Yrotation Zrotation
																	End Site
																	{
																		OFFSET -0.026555 -0.069063 -0.184319
																	}
																}
															}
														}
													}
												}
											}
										}
									}
								}
							}
						}
						JOINT neck01
						{
							OFFSET 0.000000 -0.238134 1.749801
							CHANNELS 6 Xposition Yposition Zposition Xrotation Yrotation Zrotation
							JOINT neck02
							{
								OFFSET 0.000000 -0.113826 0.312099
								CHANNELS 6 Xposition Yposition Zposition Xrotation Yrotation Zrotation
								JOINT neck03
								{
									OFFSET 0.000000 -0.106450 0.369500
									CHANNELS 6 Xposition Yposition Zposition Xrotation Yrotation Zrotation
									JOINT head
									{
										OFFSET 0.000000 -0.171470 0.327100
										CHANNELS 6 Xposition Yposition Zposition Xrotation Yrotation Zrotation
										JOINT jaw
										{
											OFFSET 0.000000 -0.121400 0.064199
											CHANNELS 6 Xposition Yposition Zposition Xrotation Yrotation Zrotation
											JOINT special04
											{
												OFFSET 0.000000 -0.505020 -0.776999
												CHANNELS 6 Xposition Yposition Zposition Xrotation Yrotation Zrotation
												JOINT oris02
												{
													OFFSET 0.000000 -0.253800 0.178800
													CHANNELS 6 Xposition Yposition Zposition Xrotation Yrotation Zrotation
													JOINT oris01
													{
														OFFSET 0.000000 -0.104400 0.096300
														CHANNELS 6 Xposition Yposition Zposition Xrotation Yrotation Zrotation
														End Site
														{
															OFFSET 0.000000 -0.057194 0.138602
														}
													}
												}
												JOINT oris06.L
												{
													OFFSET 0.000000 -0.253800 0.178800
													CHANNELS 6 Xposition Yposition Zposition Xrotation Yrotation Zrotation
													JOINT oris07.L
													{
														OFFSET 0.123900 -0.072600 0.044901
														CHANNELS 6 Xposition Yposition Zposition Xrotation Yrotation Zrotation
														End Site
														{
															OFFSET 0.047759 -0.031062 0.125713
														}
													}
												}
												JOINT oris06.R
												{
													OFFSET 0.000000 -0.253800 0.178800
													CHANNELS 6 Xposition Yposition Zposition Xrotation Yrotation Zrotation
													JOINT oris07.R
													{
														OFFSET -0.123900 -0.072600 0.044901
														CHANNELS 6 Xposition Yposition Zposition Xrotation Yrotation Zrotation
														End Site
														{
															OFFSET -0.047759 -0.031062 0.125713
														}
													}
												}
											}
											JOINT tongue00
											{
												OFFSET 0.000000 -0.505020 -0.776999
												CHANNELS 6 Xposition Yposition Zposition Xrotation Yrotation Zrotation
												JOINT tongue01
												{
													OFFSET 0.000000 0.379750 0.436800
													CHANNELS 6 Xposition Yposition Zposition Xrotation Yrotation Zrotation
													JOINT tongue02
													{
														OFFSET 0.000000 -0.288650 0.036700
														CHANNELS 6 Xposition Yposition Zposition Xrotation Yrotation Zrotation
														JOINT tongue03
														{
															OFFSET 0.000000 -0.202400 -0.002000
															CHANNELS 6 Xposition Yposition Zposition Xrotation Yrotation Zrotation
															JOINT tongue04
															{
																OFFSET 0.000000 -0.081600 -0.045000
																CHANNELS 6 Xposition Yposition Zposition Xrotation Yrotation Zrotation
																End Site
																{
																	OFFSET 0.000000 -0.081700 -0.045001
																}
															}
															JOINT tongue07.L
															{
																OFFSET 0.000000 -0.081600 -0.045000
																CHANNELS 6 Xposition Yposition Zposition Xrotation Yrotation Zrotation
																End Site
																{
																	OFFSET 0.114280 -0.002229 -0.034674
																}
															}
															JOINT tongue07.R
															{
																OFFSET 0.000000 -0.081600 -0.045000
																CHANNELS 6 Xposition Yposition Zposition Xrotation Yrotation Zrotation
																End Site
																{
																	OFFSET -0.114280 -0.002229 -0.034674
																}
															}
														}
														JOINT tongue06.L
														{
															OFFSET 0.000000 -0.202400 -0.002000
															CHANNELS 6 Xposition Yposition Zposition Xrotation Yrotation Zrotation
															End Site
															{
																OFFSET 0.161696 0.021125 -0.052106
															}
														}
														JOINT tongue06.R
														{
															OFFSET 0.000000 -0.202400 -0.002000
															CHANNELS 6 Xposition Yposition Zposition Xrotation Yrotation Zrotation
															End Site
															{
																OFFSET -0.161696 0.021125 -0.052106
															}
														}
													}
													JOINT tongue05.L
													{
														OFFSET 0.000000 -0.288650 0.036700
														CHANNELS 6 Xposition Yposition Zposition Xrotation Yrotation Zrotation
														End Site
														{
															OFFSET 0.194008 -0.022401 -0.039660
														}
													}
													JOINT tongue05.R
													{
														OFFSET 0.000000 -0.288650 0.036700
														CHANNELS 6 Xposition Yposition Zposition Xrotation Yrotation Zrotation
														End Site
														{
															OFFSET -0.194008 -0.022401 -0.039660
														}
													}
												}
											}
										}
										JOINT levator02.L
										{
											OFFSET 0.031033 -1.042320 0.209200
											CHANNELS 6 Xposition Yposition Zposition Xrotation Yrotation Zrotation
											JOINT levator03.L
											{
												OFFSET 0.167197 0.119200 -0.118400
												CHANNELS 6 Xposition Yposition Zposition Xrotation Yrotation Zrotation
												JOINT levator04.L
												{
													OFFSET 0.060940 -0.003700 -0.184300
													CHANNELS 6 Xposition Yposition Zposition Xrotation Yrotation Zrotation
													JOINT levator05.L
													{
														OFFSET 0.017530 -0.001500 -0.174200
														CHANNELS 6 Xposition Yposition Zposition Xrotation Yrotation Zrotation
														End Site
														{
															OFFSET -0.028190 -0.003099 -0.083503
														}
													}
												}
											}
										}
										JOINT levator02.R
										{
											OFFSET -0.031033 -1.042320 0.209200
											CHANNELS 6 Xposition Yposition Zposition Xrotation Yrotation Zrotation
											JOINT levator03.R
											{
												OFFSET -0.167197 0.119200 -0.118400
												CHANNELS 6 Xposition Yposition Zposition Xrotation Yrotation Zrotation
												JOINT levator04.R
												{
													OFFSET -0.060940 -0.003700 -0.184300
													CHANNELS 6 Xposition Yposition Zposition Xrotation Yrotation Zrotation
													JOINT levator05.R
													{
														OFFSET -0.017530 -0.001500 -0.174200
														CHANNELS 6 Xposition Yposition Zposition Xrotation Yrotation Zrotation
														End Site
														{
															OFFSET 0.028190 -0.003099 -0.083503
														}
													}
												}
											}
										}
										JOINT special01
										{
											OFFSET 0.000000 0.699350 -0.006900
											CHANNELS 6 Xposition Yposition Zposition Xrotation Yrotation Zrotation
											JOINT oris04.L
											{
												OFFSET 0.000000 -1.749470 -0.087800
												CHANNELS 6 Xposition Yposition Zposition Xrotation Yrotation Zrotation
												JOINT oris03.L
												{
													OFFSET 0.134270 0.023000 -0.064000
													CHANNELS 6 Xposition Yposition Zposition Xrotation Yrotation Zrotation
													End Site
													{
														OFFSET 0.029934 0.003633 -0.059402
													}
												}
											}
											JOINT oris04.R
											{
												OFFSET 0.000000 -1.749470 -0.087800
												CHANNELS 6 Xposition Yposition Zposition Xrotation Yrotation Zrotation
												JOINT oris03.R
												{
													OFFSET -0.134270 0.023000 -0.064000
													CHANNELS 6 Xposition Yposition Zposition Xrotation Yrotation Zrotation
													End Site
													{
														OFFSET -0.029934 0.003633 -0.059402
													}
												}
											}
											JOINT oris06
											{
												OFFSET 0.000000 -1.749470 -0.087800
												CHANNELS 6 Xposition Yposition Zposition Xrotation Yrotation Zrotation
												JOINT oris05
												{
													OFFSET 0.000000 -0.007000 -0.051400
													CHANNELS 6 Xposition Yposition Zposition Xrotation Yrotation Zrotation
													End Site
													{
														OFFSET 0.000000 -0.033213 -0.064393
													}
												}
											}
										}
										JOINT special03
										{
											OFFSET 0.000000 -0.121400 0.064199
											CHANNELS 6 Xposition Yposition Zposition Xrotation Yrotation Zrotation
											JOINT levator06.L
											{
												OFFSET 0.056567 -1.013320 -0.053999
												CHANNELS 6 Xposition Yposition Zposition Xrotation Yrotation Zrotation
												End Site
												{
													OFFSET 0.112632 0.186186 0.038878
												}
											}
											JOINT levator06.R
											{
												OFFSET -0.056567 -1.013320 -0.053999
												CHANNELS 6 Xposition Yposition Zposition Xrotation Yrotation Zrotation
												End Site
												{
													OFFSET -0.112632 0.186186 0.038878
												}
											}
										}
										JOINT special06.L
										{
											OFFSET 0.000000 0.069350 1.479799
											CHANNELS 6 Xposition Yposition Zposition Xrotation Yrotation Zrotation
											JOINT special05.L
											{
												OFFSET 0.186870 -0.560300 -0.149599
												CHANNELS 6 Xposition Yposition Zposition Xrotation Yrotation Zrotation
												JOINT eye.L
												{
													OFFSET 0.102070 -0.246970 -0.943399
													CHANNELS 6 Xposition Yposition Zposition Xrotation Yrotation Zrotation
													End Site
													{
														OFFSET 0.017767 -0.379798 -0.029534
													}
												}
												JOINT orbicularis03.L
												{
													OFFSET 0.102070 -0.246970 -0.943399
													CHANNELS 6 Xposition Yposition Zposition Xrotation Yrotation Zrotation
													End Site
													{
														OFFSET 0.017041 -0.359513 0.088355
													}
												}
												JOINT orbicularis04.L
												{
													OFFSET 0.102070 -0.246970 -0.943399
													CHANNELS 6 Xposition Yposition Zposition Xrotation Yrotation Zrotation
													End Site
													{
														OFFSET 0.018009 -0.354187 -0.142336
													}
												}
											}
										}
										JOINT special06.R
										{
											OFFSET 0.000000 0.069350 1.479799
											CHANNELS 6 Xposition Yposition Zposition Xrotation Yrotation Zrotation
											JOINT special05.R
											{
												OFFSET -0.186870 -0.560300 -0.149599
												CHANNELS 6 Xposition Yposition Zposition Xrotation Yrotation Zrotation
												JOINT eye.R
												{
													OFFSET -0.102070 -0.246970 -0.943399
													CHANNELS 6 Xposition Yposition Zposition Xrotation Yrotation Zrotation
													End Site
													{
														OFFSET -0.017767 -0.379798 -0.029534
													}
												}
												JOINT orbicularis03.R
												{
													OFFSET -0.102070 -0.246970 -0.943399
													CHANNELS 6 Xposition Yposition Zposition Xrotation Yrotation Zrotation
													End Site
													{
														OFFSET -0.017041 -0.359513 0.088355
													}
												}
												JOINT orbicularis04.R
												{
													OFFSET -0.102070 -0.246970 -0.943399
													CHANNELS 6 Xposition Yposition Zposition Xrotation Yrotation Zrotation
													End Site
													{
														OFFSET -0.018009 -0.354187 -0.142336
													}
												}
											}
										}
										JOINT temporalis01.L
										{
											OFFSET 0.604530 -0.593820 0.456800
											CHANNELS 6 Xposition Yposition Zposition Xrotation Yrotation Zrotation
											JOINT oculi02.L
											{
												OFFSET -0.081930 -0.176200 -0.003500
												CHANNELS 6 Xposition Yposition Zposition Xrotation Yrotation Zrotation
												JOINT oculi01.L
												{
													OFFSET -0.202470 -0.180000 0.146799
													CHANNELS 6 Xposition Yposition Zposition Xrotation Yrotation Zrotation
													End Site
													{
														OFFSET -0.167592 -0.041332 0.012400
													}
												}
											}
										}
										JOINT temporalis01.R
										{
											OFFSET -0.604530 -0.593820 0.456800
											CHANNELS 6 Xposition Yposition Zposition Xrotation Yrotation Zrotation
											JOINT oculi02.R
											{
												OFFSET 0.081930 -0.176200 -0.003500
												CHANNELS 6 Xposition Yposition Zposition Xrotation Yrotation Zrotation
												JOINT oculi01.R
												{
													OFFSET 0.202470 -0.180000 0.146799
													CHANNELS 6 Xposition Yposition Zposition Xrotation Yrotation Zrotation
													End Site
													{
														OFFSET 0.167592 -0.041332 0.012400
													}
												}
											}
										}
										JOINT temporalis02.L
										{
											OFFSET 0.623070 -0.571620 0.233100
											CHANNELS 6 Xposition Yposition Zposition Xrotation Yrotation Zrotation
											JOINT risorius02.L
											{
												OFFSET -0.097270 -0.177300 0.049900
												CHANNELS 6 Xposition Yposition Zposition Xrotation Yrotation Zrotation
												JOINT risorius03.L
												{
													OFFSET -0.050400 -0.060600 -0.276799
													CHANNELS 6 Xposition Yposition Zposition Xrotation Yrotation Zrotation
													End Site
													{
														OFFSET 0.046399 0.157765 -0.197430
													}
												}
											}
										}
										JOINT temporalis02.R
										{
											OFFSET -0.623070 -0.571620 0.233100
											CHANNELS 6 Xposition Yposition Zposition Xrotation Yrotation Zrotation
											JOINT risorius02.R
											{
												OFFSET 0.097270 -0.177300 0.049900
												CHANNELS 6 Xposition Yposition Zposition Xrotation Yrotation Zrotation
												JOINT risorius03.R
												{
													OFFSET 0.050400 -0.060600 -0.276799
													CHANNELS 6 Xposition Yposition Zposition Xrotation Yrotation Zrotation
													End Site
													{
														OFFSET -0.046399 0.157765 -0.197430
													}
												}
											}
										}
									}
								}
							}
						}
					}
				}
			}
		}
	}
	JOINT pelvis.L
	{
		OFFSET 0.000000 -0.779770 0.042199
		CHANNELS 6 Xposition Yposition Zposition Xrotation Yrotation Zrotation
		JOINT upperleg01.L
		{
			OFFSET 1.013800 0.082736 -0.080870
			CHANNELS 6 Xposition Yposition Zposition Xrotation Yrotation Zrotation
			JOINT upperleg02.L
			{
				OFFSET 0.010700 -0.247546 -0.780900
				CHANNELS 6 Xposition Yposition Zposition Xrotation Yrotation Zrotation
				JOINT lowerleg01.L
				{
					OFFSET 0.400300 -0.076940 -3.128600
					CHANNELS 6 Xposition Yposition Zposition Xrotation Yrotation Zrotation
					JOINT lowerleg02.L
					{
						OFFSET 0.190500 0.073500 -2.027800
						CHANNELS 6 Xposition Yposition Zposition Xrotation Yrotation Zrotation
						JOINT foot.L
						{
							OFFSET 0.190500 0.073490 -2.027700
							CHANNELS 6 Xposition Yposition Zposition Xrotation Yrotation Zrotation
							JOINT toe1-1.L
							{
								OFFSET -0.245400 -1.319500 -0.405000
								CHANNELS 6 Xposition Yposition Zposition Xrotation Yrotation Zrotation
								JOINT toe1-2.L
								{
									OFFSET 0.021400 -0.242700 -0.064600
									CHANNELS 6 Xposition Yposition Zposition Xrotation Yrotation Zrotation
									End Site
									{
										OFFSET 0.040190 -0.272593 -0.082779
									}
								}
							}
							JOINT toe2-1.L
							{
								OFFSET -0.017700 -1.332900 -0.430000
								CHANNELS 6 Xposition Yposition Zposition Xrotation Yrotation Zrotation
								JOINT toe2-2.L
								{
									OFFSET 0.017700 -0.203900 -0.032300
									CHANNELS 6 Xposition Yposition Zposition Xrotation Yrotation Zrotation
									JOINT toe2-3.L
									{
										OFFSET 0.006700 -0.124800 -0.044100
										CHANNELS 6 Xposition Yposition Zposition Xrotation Yrotation Zrotation
										End Site
										{
											OFFSET 0.004299 -0.166087 -0.064731
										}
									}
								}
							}
							JOINT toe3-1.L
							{
								OFFSET 0.139600 -1.307900 -0.446200
								CHANNELS 6 Xposition Yposition Zposition Xrotation Yrotation Zrotation
								JOINT toe3-2.L
								{
									OFFSET 0.016100 -0.180900 -0.024700
									CHANNELS 6 Xposition Yposition Zposition Xrotation Yrotation Zrotation
									JOINT toe3-3.L
									{
										OFFSET 0.003300 -0.120200 -0.044200
										CHANNELS 6 Xposition Yposition Zposition Xrotation Yrotation Zrotation
										End Site
										{
											OFFSET -0.003204 -0.127180 -0.043355
										}
									}
								}
							}
							JOINT toe4-1.L
							{
								OFFSET 0.288800 -1.237700 -0.448000
								CHANNELS 6 Xposition Yposition Zposition Xrotation Yrotation Zrotation
								JOINT toe4-2.L
								{
									OFFSET 0.016000 -0.149100 -0.033200
									CHANNELS 6 Xposition Yposition Zposition Xrotation Yrotation Zrotation
									JOINT toe4-3.L
									{
										OFFSET -0.003600 -0.113900 -0.025100
										CHANNELS 6 Xposition Yposition Zposition Xrotation Yrotation Zrotation
										End Site
										{
											OFFSET 0.008891 -0.096953 -0.056881
										}
									}
								}
							}
							JOINT toe5-1.L
							{
								OFFSET 0.425800 -1.171200 -0.446700
								CHANNELS 6 Xposition Yposition Zposition Xrotation Yrotation Zrotation
								JOINT toe5-2.L
								{
									OFFSET 0.004600 -0.098200 -0.026600
									CHANNELS 6 Xposition Yposition Zposition Xrotation Yrotation Zrotation
									JOINT toe5-3.L
									{
										OFFSET -0.008700 -0.079100 -0.037200
										CHANNELS 6 Xposition Yposition Zposition Xrotation Yrotation Zrotation
										End Site
										{
											OFFSET 0.004433 -0.108578 -0.055548
										}
									}
								}
							}
						}
					}
				}
			}
		}
	}
	JOINT pelvis.R
	{
		OFFSET 0.000000 -0.779770 0.042199
		CHANNELS 6 Xposition Yposition Zposition Xrotation Yrotation Zrotation
		JOINT upperleg01.R
		{
			OFFSET -1.013800 0.082736 -0.080870
			CHANNELS 6 Xposition Yposition Zposition Xrotation Yrotation Zrotation
			JOINT upperleg02.R
			{
				OFFSET -0.010700 -0.247546 -0.780900
				CHANNELS 6 Xposition Yposition Zposition Xrotation Yrotation Zrotation
				JOINT lowerleg01.R
				{
					OFFSET -0.400300 -0.076940 -3.128600
					CHANNELS 6 Xposition Yposition Zposition Xrotation Yrotation Zrotation
					JOINT lowerleg02.R
					{
						OFFSET -0.190500 0.073500 -2.027800
						CHANNELS 6 Xposition Yposition Zposition Xrotation Yrotation Zrotation
						JOINT foot.R
						{
							OFFSET -0.190500 0.073490 -2.027700
							CHANNELS 6 Xposition Yposition Zposition Xrotation Yrotation Zrotation
							JOINT toe1-1.R
							{
								OFFSET 0.245400 -1.319500 -0.405000
								CHANNELS 6 Xposition Yposition Zposition Xrotation Yrotation Zrotation
								JOINT toe1-2.R
								{
									OFFSET -0.021400 -0.242700 -0.064600
									CHANNELS 6 Xposition Yposition Zposition Xrotation Yrotation Zrotation
									End Site
									{
										OFFSET -0.040190 -0.272593 -0.082779
									}
								}
							}
							JOINT toe2-1.R
							{
								OFFSET 0.017700 -1.332900 -0.430000
								CHANNELS 6 Xposition Yposition Zposition Xrotation Yrotation Zrotation
								JOINT toe2-2.R
								{
									OFFSET -0.017700 -0.203900 -0.032300
									CHANNELS 6 Xposition Yposition Zposition Xrotation Yrotation Zrotation
									JOINT toe2-3.R
									{
										OFFSET -0.006700 -0.124800 -0.044100
										CHANNELS 6 Xposition Yposition Zposition Xrotation Yrotation Zrotation
										End Site
										{
											OFFSET -0.004299 -0.166087 -0.064731
										}
									}
								}
							}
							JOINT toe3-1.R
							{
								OFFSET -0.139600 -1.307900 -0.446200
								CHANNELS 6 Xposition Yposition Zposition Xrotation Yrotation Zrotation
								JOINT toe3-2.R
								{
									OFFSET -0.016100 -0.180900 -0.024700
									CHANNELS 6 Xposition Yposition Zposition Xrotation Yrotation Zrotation
									JOINT toe3-3.R
									{
										OFFSET -0.003300 -0.120200 -0.044200
										CHANNELS 6 Xposition Yposition Zposition Xrotation Yrotation Zrotation
										End Site
										{
											OFFSET 0.003204 -0.127180 -0.043355
										}
									}
								}
							}
							JOINT toe4-1.R
							{
								OFFSET -0.288800 -1.237700 -0.448000
								CHANNELS 6 Xposition Yposition Zposition Xrotation Yrotation Zrotation
								JOINT toe4-2.R
								{
									OFFSET -0.016000 -0.149100 -0.033200
									CHANNELS 6 Xposition Yposition Zposition Xrotation Yrotation Zrotation
									JOINT toe4-3.R
									{
										OFFSET 0.003600 -0.113900 -0.025100
										CHANNELS 6 Xposition Yposition Zposition Xrotation Yrotation Zrotation
										End Site
										{
											OFFSET -0.008891 -0.096953 -0.056881
										}
									}
								}
							}
							JOINT toe5-1.R
							{
								OFFSET -0.425800 -1.171200 -0.446700
								CHANNELS 6 Xposition Yposition Zposition Xrotation Yrotation Zrotation
								JOINT toe5-2.R
								{
									OFFSET -0.004600 -0.098200 -0.026600
									CHANNELS 6 Xposition Yposition Zposition Xrotation Yrotation Zrotation
									JOINT toe5-3.R
									{
										OFFSET 0.008700 -0.079100 -0.037200
										CHANNELS 6 Xposition Yposition Zposition Xrotation Yrotation Zrotation
										End Site
										{
											OFFSET -0.004433 -0.108578 -0.055548
										}
									}
								}
							}
						}
					}
				}
			}
		}
	}
}
MOTION
Frames: 1
Frame Time: 0.040000
0.000000 0.647729 -4.244376 90.000016 0.000000 -0.000000 0.000000 -0.779770 0.042200 -67.510628 0.000000 -0.000000 -0.000000 0.387330 0.797731 -26.973892 19.306935 1.485449 0.000000 -0.154170 0.662598 -1.516501 -23.002583 0.784650 -0.000000 -0.017320 0.750500 -19.189717 6.589541 -0.571150 0.000000 0.103200 1.439198 -4.999991 0.000001 0.000002 -0.000000 0.103200 1.439198 -4.999989 -0.000002 -0.000000 -0.000000 0.103200 1.439199 19.374976 -8.548764 -0.199033 0.227360 -0.403210 1.038201 -22.528395 19.214528 5.416734 0.763140 -0.000450 0.160800 -19.999960 0.000002 0.000004 0.709901 0.023550 -0.387503 2.691446 -1.724010 -12.580772 0.469600 0.016360 -0.541700 -0.000000 0.000002 0.000002 1.143500 -0.024510 -1.264202 -18.519754 -36.275073 -15.631844 0.609799 -0.815941 -0.621200 -0.000000 0.000001 0.000002 0.609900 -0.815900 -0.621101 35.308164 -28.301818 -21.893480 0.010901 -0.438601 -0.075301 4.808141 7.896412 7.657856 -0.208999 -0.209799 -0.086801 -1.659658 2.369265 -10.698999 -0.123800 -0.310300 -0.139497 -25.226114 21.149350 -4.839952 0.107101 -0.260600 -0.156698 12.981508 -2.002634 -0.626791 0.170602 -0.682998 -0.249200 10.984546 0.241738 -7.731971 0.033399 -0.207100 -0.150699 4.105966 8.726543 -8.654096 -0.005600 -0.163400 -0.162901 -0.000001 0.000003 -0.000001 0.107100 -0.260600 -0.156699 9.001918 -1.772958 -2.258403 0.333199 -0.504799 -0.358101 0.000003 -0.000002 -0.000004 0.072101 -0.204500 -0.259602 3.876765 9.407065 -8.003585 0.026600 -0.171102 -0.215110 0.000003 -0.000003 0.000002 0.223799 -0.156300 -0.308700 7.309349 -1.640861 -2.947709 0.291801 -0.438101 -0.282600 0.000002 -0.000002 -0.000003 0.092899 -0.140699 -0.244698 3.768933 9.681161 -7.711077 0.042401 -0.125199 -0.209791 -0.000001 0.000000 0.000002 0.223800 -0.156300 -0.308699 -3.692007 -14.520924 6.769895 0.306798 -0.244601 -0.369199 -11.337065 -14.981296 4.080926 0.058901 -0.074400 -0.190598 3.584758 10.097655 -7.226412 0.017300 -0.056900 -0.144350 -0.000004 0.000002 0.000000 -0.227360 -0.403210 1.038201 -0.410021 0.700725 -0.649122 -0.763140 -0.000450 0.160800 -11.438280 23.164424 29.201709 -0.709901 0.023549 -0.387502 -47.639610 4.845280 48.541222 -0.469600 0.016360 -0.541700 0.000001 -0.000005 -0.000001 -1.143499 -0.024509 -1.264201 29.137894 13.744513 -13.311654 -0.609800 -0.815941 -0.621200 0.000001 -0.000002 -0.000002 -0.609900 -0.815900 -0.621101 27.611081 -21.386876 4.403555 -0.010901 -0.438601 -0.075299 -15.325763 -16.658080 -53.253493 0.208999 -0.209800 -0.086800 -0.000002 -0.000003 0.000001 0.123800 -0.310300 -0.139498 0.000005 0.000002 0.000003 -0.107101 -0.260600 -0.156699 1.571057 -33.255153 -25.405114 -0.170602 -0.682998 -0.249199 20.853186 -8.724999 11.016474 -0.033399 -0.207100 -0.150698 17.620957 -11.373106 11.638395 0.005601 -0.163399 -0.162899 19.451653 -13.809253 12.759644 -0.107100 -0.260600 -0.156699 3.259348 -38.367225 -19.680473 -0.333199 -0.504799 -0.358101 0.000006 0.000003 0.000003 -0.072101 -0.204500 -0.259599 3.876763 -9.407071 8.003582 -0.026601 -0.171102 -0.215110 0.000005 -0.000001 -0.000002 -0.223799 -0.156301 -0.308699 2.005747 -38.300480 -24.648754 -0.291801 -0.438101 -0.282599 0.000003 -0.000001 -0.000002 -0.092899 -0.140699 -0.244699 -2.435061 6.114097 -1.470833 -0.042401 -0.125199 -0.209792 -0.000003 -0.000002 -0.000003 -0.223800 -0.156300 -0.308698 -7.176505 -35.020361 -36.719859 -0.306798 -0.244600 -0.369200 4.061494 -3.803444 2.771611 -0.058901 -0.074400 -0.190599 3.584756 -10.097655 7.226412 -0.017300 -0.056900 -0.144350 0.000000 -0.000002 -0.000004 -0.000000 -0.238134 1.749800 -5.083253 0.701998 -1.633272 -0.000000 -0.113826 0.312098 -17.111413 -5.895531 21.512540 0.000001 -0.106450 0.369500 14.731934 -17.803235 8.643025 0.000000 -0.171470 0.327100 -0.000003 0.000002 -0.000003 0.000000 -0.121400 0.064199 -0.000003 -0.000002 -0.000003 -0.000000 -0.505019 -0.776998 -0.000002 0.000004 -0.000002 0.000000 -0.253800 0.178801 -0.000003 0.000000 -0.000001 0.000000 -0.104400 0.096299 -0.000000 0.000001 0.000001 0.000001 -0.253799 0.178799 -0.000005 -0.000003 -0.000005 0.123901 -0.072600 0.044900 -0.000006 0.000001 -0.000003 -0.000000 -0.253800 0.178801 0.000004 0.000001 0.000001 -0.123900 -0.072600 0.044900 -0.000003 -0.000005 0.000001 -0.000000 -0.505020 -0.777001 -0.000002 0.000004 -0.000001 0.000000 0.379750 0.436801 -0.000002 -0.000004 -0.000003 -0.000000 -0.288650 0.036700 0.000003 -0.000001 0.000001 -0.000000 -0.202401 -0.001998 -0.000002 -0.000001 0.000002 0.000000 -0.081600 -0.044999 -0.000003 -0.000004 0.000006 -0.000000 -0.081600 -0.044999 -0.000002 -0.000008 0.000008 0.000000 -0.081599 -0.045001 -0.000004 -0.000003 0.000009 0.000000 -0.202400 -0.002001 -0.000001 -0.000003 -0.000002 -0.000001 -0.202400 -0.001999 -0.000001 -0.000001 -0.000001 0.000000 -0.288650 0.036700 0.000001 0.000001 0.000002 -0.000000 -0.288650 0.036701 0.000003 -0.000000 -0.000001 0.031032 -1.042320 0.209200 -0.000000 0.000001 -0.000004 0.167197 0.119200 -0.118400 0.000001 -0.000003 0.000003 0.060940 -0.003700 -0.184299 -0.000000 0.000000 0.000003 0.017530 -0.001500 -0.174201 -0.000001 0.000003 -0.000003 -0.031032 -1.042320 0.209200 -0.000000 0.000002 -0.000006 -0.167197 0.119200 -0.118400 -0.000001 -0.000003 -0.000009 -0.060940 -0.003700 -0.184300 -0.000000 -0.000002 -0.000005 -0.017530 -0.001500 -0.174201 0.000002 0.000002 0.000001 0.000000 0.699350 -0.006900 -0.000001 0.000001 -0.000004 0.000000 -1.749470 -0.087799 0.000001 0.000003 -0.000003 0.134269 0.023000 -0.064000 0.000002 0.000002 -0.000001 -0.000001 -1.749470 -0.087801 0.000000 -0.000002 -0.000002 -0.134269 0.023000 -0.063999 0.000003 0.000001 -0.000004 -0.000000 -1.749470 -0.087800 0.000002 0.000001 -0.000003 0.000000 -0.006999 -0.051399 0.000002 0.000002 -0.000001 0.000000 -0.121400 0.064199 -0.000001 0.000000 -0.000003 0.056567 -1.013320 -0.054000 -0.000002 -0.000006 -0.000005 -0.056567 -1.013319 -0.053998 -0.000003 0.000002 -0.000001 -0.000000 0.069350 1.479799 0.000001 0.000000 0.000001 0.186870 -0.560300 -0.149601 0.000003 0.000002 0.000000 0.102070 -0.246970 -0.943399 -0.000001 -0.000002 0.000001 0.102070 -0.246970 -0.943399 -0.000006 -0.000002 0.000003 0.102070 -0.246970 -0.943400 -0.000003 -0.000003 0.000003 0.000000 0.069350 1.479799 0.000000 -0.000001 -0.000003 -0.186870 -0.560300 -0.149601 -0.000001 -0.000003 0.000000 -0.102070 -0.246970 -0.943398 -0.000002 -0.000001 -0.000004 -0.102070 -0.246970 -0.943398 -0.000003 -0.000002 -0.000000 -0.102070 -0.246969 -0.943399 -0.000003 -0.000001 -0.000002 0.604530 -0.593820 0.456800 0.000002 -0.000001 -0.000004 -0.081930 -0.176200 -0.003498 -0.000000 -0.000001 -0.000005 -0.202470 -0.179999 0.146798 -0.000001 -0.000001 0.000003 -0.604531 -0.593820 0.456799 0.000004 0.000001 -0.000002 0.081930 -0.176200 -0.003500 -0.000002 0.000005 -0.000003 0.202470 -0.180000 0.146799 0.000004 -0.000003 0.000003 0.623070 -0.571620 0.233099 0.000000 -0.000001 -0.000005 -0.097270 -0.177300 0.049900 0.000000 -0.000002 -0.000003 -0.050400 -0.060601 -0.276799 0.000007 -0.000003 -0.000006 -0.623070 -0.571620 0.233099 -0.000000 -0.000001 -0.000004 0.097270 -0.177300 0.049899 0.000000 0.000002 0.000001 0.050400 -0.060600 -0.276800 0.000003 -0.000001 -0.000002 0.000000 -0.779770 0.042199 -0.765205 -1.995348 -7.486913 1.013800 0.082737 -0.080868 -37.872156 -11.663793 -5.257880 0.010700 -0.247546 -0.780900 -11.834629 4.602348 -1.234333 0.400300 -0.076941 -3.128601 49.414745 2.600403 11.741880 0.190500 0.073500 -2.027799 -0.000000 0.000000 -0.000000 0.190499 0.073488 -2.027701 46.498951 -7.900153 -43.024314 -0.245399 -1.319499 -0.405000 3.802085 9.947943 -24.886733 0.021400 -0.242700 -0.064600 10.188369 0.765529 -5.979055 -0.017699 -1.332899 -0.430000 18.948919 3.474568 -3.008434 0.017700 -0.203899 -0.032300 -0.000002 0.000005 0.000001 0.006700 -0.124800 -0.044101 15.799932 -32.938693 -9.248355 0.139600 -1.307899 -0.446200 20.155868 -1.709152 2.999481 0.016100 -0.180899 -0.024700 -0.000002 -0.000001 -0.000000 0.003300 -0.120200 -0.044200 0.000001 0.000001 -0.000001 0.288800 -1.237699 -0.447999 20.155876 -1.709148 2.999482 0.016000 -0.149099 -0.033200 0.000001 0.000001 0.000002 -0.003601 -0.113900 -0.025100 -0.000001 0.000000 -0.000002 0.425801 -1.171199 -0.446700 20.155873 -1.709149 2.999481 0.004600 -0.098200 -0.026600 5.368604 2.283273 -1.440052 -0.008700 -0.079099 -0.037200 -0.000004 -0.000003 -0.000000 -0.000000 -0.779769 0.042200 -47.874630 14.373238 -3.563944 -1.013800 0.082737 -0.080868 -30.884391 11.278983 4.804513 -0.010700 -0.247546 -0.780899 -27.487646 -3.405718 -1.620484 -0.400300 -0.076941 -3.128602 102.633189 -10.298841 -4.974368 -0.190500 0.073501 -2.027799 -0.000000 -0.000000 0.000000 -0.190500 0.073490 -2.027701 63.862610 37.180889 -25.435484 0.245400 -1.319499 -0.405002 15.148984 -0.412205 14.453119 -0.021400 -0.242700 -0.064599 11.841050 -1.355676 10.970444 0.017700 -1.332899 -0.430001 14.891476 0.683268 10.109121 -0.017700 -0.203900 -0.032302 0.000000 0.000000 -0.000001 -0.006701 -0.124800 -0.044099 0.000001 -0.000000 0.000000 -0.139600 -1.307899 -0.446202 14.625636 2.986287 1.159420 -0.016100 -0.180899 -0.024700 -0.000003 0.000001 -0.000002 -0.003300 -0.120200 -0.044200 0.000000 0.000001 -0.000001 -0.288800 -1.237699 -0.448001 14.625636 2.986287 1.159421 -0.016000 -0.149101 -0.033201 0.000002 -0.000001 0.000004 0.003599 -0.113900 -0.025101 -0.000007 0.000000 -0.000000 -0.425800 -1.171199 -0.446701 15.173380 7.546547 -16.698544 -0.004600 -0.098200 -0.026600 -19.019729 0.884336 -2.301225 0.008701 -0.079100 -0.037199 24.200737 0.032253 3.124585 
