HIERARCHY
ROOT root
{
	OFFSET -0.000000 2.092103 -1.335574
	CHANNELS 6 Xposition Yposition Zposition Xrotation Yrotation Zrotation
	JOINT spine05
	{
		OFFSET 0.000000 -0.779770 0.042199
		CHANNELS 6 Xposition Yposition Zposition Xrotation Yrotation Zrotation
		JOINT spine04
		{
			OFFSET 0.000000 0.387330 0.797730
			CHANNELS 6 Xposition Yposition Zposition Xrotation Yrotation Zrotation
			JOINT spine03
			{
				OFFSET 0.000000 -0.154170 0.662600
				CHANNELS 6 Xposition Yposition Zposition Xrotation Yrotation Zrotation
				JOINT spine02
				{
					OFFSET 0.000000 -0.017320 0.750501
					CHANNELS 6 Xposition Yposition Zposition Xrotation Yrotation Zrotation
					JOINT breast.L
					{
						OFFSET 0.000000 0.103200 1.439199
						CHANNELS 6 Xposition Yposition Zposition Xrotation Yrotation Zrotation
						End Site
						{
							OFFSET 1.020987 -1.674111 -0.248674
						}
					}
					JOINT breast.R
					{
						OFFSET 0.000000 0.103200 1.439199
						CHANNELS 6 Xposition Yposition Zposition Xrotation Yrotation Zrotation
						End Site
						{
							OFFSET -1.020987 -1.674111 -0.248674
						}
					}
					JOINT spine01
					{
						OFFSET 0.000000 0.103200 1.439199
						CHANNELS 6 Xposition Yposition Zposition Xrotation Yrotation Zrotation
						JOINT clavicle.L
						{
							OFFSET 0.227360 -0.403210 1.038200
							CHANNELS 6 Xposition Yposition Zposition Xrotation Yrotation Zrotation
							JOINT shoulder01.L
							{
								OFFSET 0.763140 -0.000450 0.160800
								CHANNELS 6 Xposition Yposition Zposition Xrotation Yrotation Zrotation
								JOINT upperarm01.L
								{
									OFFSET 0.709900 0.023550 -0.387501
									CHANNELS 6 Xposition Yposition Zposition Xrotation Yrotation Zrotation
									JOINT upperarm02.L
									{
										OFFSET 0.469600 0.016360 -0.541699
										CHANNELS 6 Xposition Yposition Zposition Xrotation Yrotation Zrotation
										JOINT lowerarm01.L
										{
											OFFSET 1.143500 -0.024510 -1.264200
											CHANNELS 6 Xposition Yposition Zposition Xrotation Yrotation Zrotation
											JOINT lowerarm02.L
											{
												OFFSET 0.609800 -0.815940 -0.621200
												CHANNELS 6 Xposition Yposition Zposition Xrotation Yrotation Zrotation
												JOINT wrist.L
												{
													OFFSET 0.609900 -0.815900 -0.621100
													CHANNELS 6 Xposition Yposition Zposition Xrotation Yrotation Zrotation
													JOINT finger1-1.L
													{
														OFFSET 0.010900 -0.438600 -0.075299
														CHANNELS 6 Xposition Yposition Zposition Xrotation Yrotation Zrotation
														JOINT finger1-2.L
														{
															OFFSET -0.209000 -0.209800 -0.086801
															CHANNELS 6 Xposition Yposition Zposition Xrotation Yrotation Zrotation
															JOINT finger1-3.L
															{
																OFFSET -0.123800 -0.310300 -0.139500
																CHANNELS 6 Xposition Yposition Zposition Xrotation Yrotation Zrotation
																End Site
																{
																	OFFSET -0.055006 -0.213001 -0.173997
																}
															}
														}
													}
													JOINT metacarpal1.L
													{
														OFFSET 0.107100 -0.260600 -0.156699
														CHANNELS 6 Xposition Yposition Zposition Xrotation Yrotation Zrotation
														JOINT finger2-1.L
														{
															OFFSET 0.170600 -0.683000 -0.249201
															CHANNELS 6 Xposition Yposition Zposition Xrotation Yrotation Zrotation
															JOINT finger2-2.L
															{
																OFFSET 0.033400 -0.207100 -0.150700
																CHANNELS 6 Xposition Yposition Zposition Xrotation Yrotation Zrotation
																JOINT finger2-3.L
																{
																	OFFSET -0.005600 -0.163400 -0.162900
																	CHANNELS 6 Xposition Yposition Zposition Xrotation Yrotation Zrotation
																	End Site
																	{
																		OFFSET -0.036675 -0.175730 -0.201578
																	}
																}
															}
														}
													}
													JOINT metacarpal2.L
													{
														OFFSET 0.107100 -0.260600 -0.156699
														CHANNELS 6 Xposition Yposition Zposition Xrotation Yrotation Zrotation
														JOINT finger3-1.L
														{
															OFFSET 0.333200 -0.504800 -0.358101
															CHANNELS 6 Xposition Yposition Zposition Xrotation Yrotation Zrotation
															JOINT finger3-2.L
															{
																OFFSET 0.072100 -0.204500 -0.259600
																CHANNELS 6 Xposition Yposition Zposition Xrotation Yrotation Zrotation
																JOINT finger3-3.L
																{
																	OFFSET 0.026600 -0.171100 -0.215110
																	CHANNELS 6 Xposition Yposition Zposition Xrotation Yrotation Zrotation
																	End Site
																	{
																		OFFSET -0.001996 -0.148388 -0.225368
																	}
																}
															}
														}
													}
													JOINT metacarpal3.L
													{
														OFFSET 0.223800 -0.156300 -0.308700
														CHANNELS 6 Xposition Yposition Zposition Xrotation Yrotation Zrotation
														JOINT finger4-1.L
														{
															OFFSET 0.291800 -0.438100 -0.282600
															CHANNELS 6 Xposition Yposition Zposition Xrotation Yrotation Zrotation
															JOINT finger4-2.L
															{
																OFFSET 0.092900 -0.140700 -0.244699
																CHANNELS 6 Xposition Yposition Zposition Xrotation Yrotation Zrotation
																JOINT finger4-3.L
																{
																	OFFSET 0.042400 -0.125200 -0.209790
																	CHANNELS 6 Xposition Yposition Zposition Xrotation Yrotation Zrotation
																	End Site
																	{
																		OFFSET 0.024430 -0.112092 -0.241180
																	}
																}
															}
														}
													}
													JOINT metacarpal4.L
													{
														OFFSET 0.223800 -0.156300 -0.308700
														CHANNELS 6 Xposition Yposition Zposition Xrotation Yrotation Zrotation
														JOINT finger5-1.L
														{
															OFFSET 0.306800 -0.244600 -0.369200
															CHANNELS 6 Xposition Yposition Zposition Xrotation Yrotation Zrotation
															JOINT finger5-2.L
															{
																OFFSET 0.058900 -0.074400 -0.190600
																CHANNELS 6 Xposition Yposition Zposition Xrotation Yrotation Zrotation
																JOINT finger5-3.L
																{
																	OFFSET 0.017300 -0.056900 -0.144350
																	CHANNELS 6 Xposition Yposition Zposition Xrotation Yrotation Zrotation
																	End Site
																	{
																		OFFSET 0.026555 -0.069063 -0.184319
																	}
																}
															}
														}
													}
												}
											}
										}
									}
								}
							}
						}
						JOINT clavicle.R
						{
							OFFSET -0.227360 -0.403210 1.038200
							CHANNELS 6 Xposition Yposition Zposition Xrotation Yrotation Zrotation
							JOINT shoulder01.R
							{
								OFFSET -0.763140 -0.000450 0.160800
								CHANNELS 6 Xposition Yposition Zposition Xrotation Yrotation Zrotation
								JOINT upperarm01.R
								{
									OFFSET -0.709900 0.023550 -0.387501
									CHANNELS 6 Xposition Yposition Zposition Xrotation Yrotation Zrotation
									JOINT upperarm02.R
									{
										OFFSET -0.469600 0.016360 -0.541699
										CHANNELS 6 Xposition Yposition Zposition Xrotation Yrotation Zrotation
										JOINT lowerarm01.R
										{
											OFFSET -1.143500 -0.024510 -1.264200
											CHANNELS 6 Xposition Yposition Zposition Xrotation Yrotation Zrotation
											JOINT lowerarm02.R
											{
												OFFSET -0.609800 -0.815940 -0.621200
												CHANNELS 6 Xposition Yposition Zposition Xrotation Yrotation Zrotation
												JOINT wrist.R
												{
													OFFSET -0.609900 -0.815900 -0.621100
													CHANNELS 6 Xposition Yposition Zposition Xrotation Yrotation Zrotation
													JOINT finger1-1.R
													{
														OFFSET -0.010900 -0.438600 -0.075299
														CHANNELS 6 Xposition Yposition Zposition Xrotation Yrotation Zrotation
														JOINT finger1-2.R
														{
															OFFSET 0.209000 -0.209800 -0.086801
															CHANNELS 6 Xposition Yposition Zposition Xrotation Yrotation Zrotation
															JOINT finger1-3.R
															{
																OFFSET 0.123800 -0.310300 -0.139500
																CHANNELS 6 Xposition Yposition Zposition Xrotation Yrotation Zrotation
																End Site
																{
																	OFFSET 0.055006 -0.213001 -0.173997
																}
															}
														}
													}
													JOINT metacarpal1.R
													{
														OFFSET -0.107100 -0.260600 -0.156699
														CHANNELS 6 Xposition Yposition Zposition Xrotation Yrotation Zrotation
														JOINT finger2-1.R
														{
															OFFSET -0.170600 -0.683000 -0.249201
															CHANNELS 6 Xposition Yposition Zposition Xrotation Yrotation Zrotation
															JOINT finger2-2.R
															{
																OFFSET -0.033400 -0.207100 -0.150700
																CHANNELS 6 Xposition Yposition Zposition Xrotation Yrotation Zrotation
																JOINT finger2-3.R
																{
																	OFFSET 0.005600 -0.163400 -0.162900
																	CHANNELS 6 Xposition Yposition Zposition Xrotation Yrotation Zrotation
																	End Site
																	{
																		OFFSET 0.036675 -0.175730 -0.201578
																	}
																}
															}
														}
													}
													JOINT metacarpal2.R
													{
														OFFSET -0.107100 -0.260600 -0.156699
														CHANNELS 6 Xposition Yposition Zposition Xrotation Yrotation Zrotation
														JOINT finger3-1.R
														{
															OFFSET -0.333200 -0.504800 -0.358101
															CHANNELS 6 Xposition Yposition Zposition Xrotation Yrotation Zrotation
															JOINT finger3-2.R
															{
																OFFSET -0.072100 -0.204500 -0.259600
																CHANNELS 6 Xposition Yposition Zposition Xrotation Yrotation Zrotation
																JOINT finger3-3.R
																{
																	OFFSET -0.026600 -0.171100 -0.215110
																	CHANNELS 6 Xposition Yposition Zposition Xrotation Yrotation Zrotation
																	End Site
																	{
																		OFFSET 0.001996 -0.148388 -0.225368
																	}
																}
															}
														}
													}
													JOINT metacarpal3.R
													{
														OFFSET -0.223800 -0.156300 -0.308700
														CHANNELS 6 Xposition Yposition Zposition Xrotation Yrotation Zrotation
														JOINT finger4-1.R
														{
															OFFSET -0.291800 -0.438100 -0.282600
															CHANNELS 6 Xposition Yposition Zposition Xrotation Yrotation Zrotation
															JOINT finger4-2.R
															{
																OFFSET -0.092900 -0.140700 -0.244699
																CHANNELS 6 Xposition Yposition Zposition Xrotation Yrotation Zrotation
																JOINT finger4-3.R
																{
																	OFFSET -0.042400 -0.125200 -0.209790
																	CHANNELS 6 Xposition Yposition Zposition Xrotation Yrotation Zrotation
																	End Site
																	{
																		OFFSET -0.024430 -0.112092 -0.241180
																	}
																}
															}
														}
													}
													JOINT metacarpal4.R
													{
														OFFSET -0.223800 -0.156300 -0.308700
														CHANNELS 6 Xposition Yposition Zposition Xrotation Yrotation Zrotation
														JOINT finger5-1.R
														{
															OFFSET -0.306800 -0.244600 -0.369200
															CHANNELS 6 Xposition Yposition Zposition Xrotation Yrotation Zrotation
															JOINT finger5-2.R
															{
																OFFSET -0.058900 -0.074400 -0.190600
																CHANNELS 6 Xposition Yposition Zposition Xrotation Yrotation Zrotation
																JOINT finger5-3.R
																{
																	OFFSET -0.017300 -0.056900 -0.144350
																	CHANNELS 6 Xposition Yposition Zposition Xrotation Yrotation Zrotation
																	End Site
																	{
																		OFFSET -0.026555 -0.069063 -0.184319
																	}
																}
															}
														}
													}
												}
											}
										}
									}
								}
							}
						}
						JOINT neck01
						{
							OFFSET 0.000000 -0.238134 1.749801
							CHANNELS 6 Xposition Yposition Zposition Xrotation Yrotation Zrotation
							JOINT neck02
							{
								OFFSET 0.000000 -0.113826 0.312099
								CHANNELS 6 Xposition Yposition Zposition Xrotation Yrotation Zrotation
								JOINT neck03
								{
									OFFSET 0.000000 -0.106450 0.369500
									CHANNELS 6 Xposition Yposition Zposition Xrotation Yrotation Zrotation
									JOINT head
									{
										OFFSET 0.000000 -0.171470 0.327100
										CHANNELS 6 Xposition Yposition Zposition Xrotation Yrotation Zrotation
										JOINT jaw
										{
											OFFSET 0.000000 -0.121400 0.064199
											CHANNELS 6 Xposition Yposition Zposition Xrotation Yrotation Zrotation
											JOINT special04
											{
												OFFSET 0.000000 -0.505020 -0.776999
												CHANNELS 6 Xposition Yposition Zposition Xrotation Yrotation Zrotation
												JOINT oris02
												{
													OFFSET 0.000000 -0.253800 0.178800
													CHANNELS 6 Xposition Yposition Zposition Xrotation Yrotation Zrotation
													JOINT oris01
													{
														OFFSET 0.000000 -0.104400 0.096300
														CHANNELS 6 Xposition Yposition Zposition Xrotation Yrotation Zrotation
														End Site
														{
															OFFSET 0.000000 -0.057194 0.138602
														}
													}
												}
												JOINT oris06.L
												{
													OFFSET 0.000000 -0.253800 0.178800
													CHANNELS 6 Xposition Yposition Zposition Xrotation Yrotation Zrotation
													JOINT oris07.L
													{
														OFFSET 0.123900 -0.072600 0.044901
														CHANNELS 6 Xposition Yposition Zposition Xrotation Yrotation Zrotation
														End Site
														{
															OFFSET 0.047759 -0.031062 0.125713
														}
													}
												}
												JOINT oris06.R
												{
													OFFSET 0.000000 -0.253800 0.178800
													CHANNELS 6 Xposition Yposition Zposition Xrotation Yrotation Zrotation
													JOINT oris07.R
													{
														OFFSET -0.123900 -0.072600 0.044901
														CHANNELS 6 Xposition Yposition Zposition Xrotation Yrotation Zrotation
														End Site
														{
															OFFSET -0.047759 -0.031062 0.125713
														}
													}
												}
											}
											JOINT tongue00
											{
												OFFSET 0.000000 -0.505020 -0.776999
												CHANNELS 6 Xposition Yposition Zposition Xrotation Yrotation Zrotation
												JOINT tongue01
												{
													OFFSET 0.000000 0.379750 0.436800
													CHANNELS 6 Xposition Yposition Zposition Xrotation Yrotation Zrotation
													JOINT tongue02
													{
														OFFSET 0.000000 -0.288650 0.036700
														CHANNELS 6 Xposition Yposition Zposition Xrotation Yrotation Zrotation
														JOINT tongue03
														{
															OFFSET 0.000000 -0.202400 -0.002000
															CHANNELS 6 Xposition Yposition Zposition Xrotation Yrotation Zrotation
															JOINT tongue04
															{
																OFFSET 0.000000 -0.081600 -0.045000
																CHANNELS 6 Xposition Yposition Zposition Xrotation Yrotation Zrotation
																End Site
																{
																	OFFSET 0.000000 -0.081700 -0.045001
																}
															}
															JOINT tongue07.L
															{
																OFFSET 0.000000 -0.081600 -0.045000
																CHANNELS 6 Xposition Yposition Zposition Xrotation Yrotation Zrotation
																End Site
																{
																	OFFSET 0.114280 -0.002229 -0.034674
																}
															}
															JOINT tongue07.R
															{
																OFFSET 0.000000 -0.081600 -0.045000
																CHANNELS 6 Xposition Yposition Zposition Xrotation Yrotation Zrotation
																End Site
																{
																	OFFSET -0.114280 -0.002229 -0.034674
																}
															}
														}
														JOINT tongue06.L
														{
															OFFSET 0.000000 -0.202400 -0.002000
															CHANNELS 6 Xposition Yposition Zposition Xrotation Yrotation Zrotation
															End Site
															{
																OFFSET 0.161696 0.021125 -0.052106
															}
														}
														JOINT tongue06.R
														{
															OFFSET 0.000000 -0.202400 -0.002000
															CHANNELS 6 Xposition Yposition Zposition Xrotation Yrotation Zrotation
															End Site
															{
																OFFSET -0.161696 0.021125 -0.052106
															}
														}
													}
													JOINT tongue05.L
													{
														OFFSET 0.000000 -0.288650 0.036700
														CHANNELS 6 Xposition Yposition Zposition Xrotation Yrotation Zrotation
														End Site
														{
															OFFSET 0.194008 -0.022401 -0.039660
														}
													}
													JOINT tongue05.R
													{
														OFFSET 0.000000 -0.288650 0.036700
														CHANNELS 6 Xposition Yposition Zposition Xrotation Yrotation Zrotation
														End Site
														{
															OFFSET -0.194008 -0.022401 -0.039660
														}
													}
												}
											}
										}
										JOINT levator02.L
										{
											OFFSET 0.031033 -1.042320 0.209200
											CHANNELS 6 Xposition Yposition Zposition Xrotation Yrotation Zrotation
											JOINT levator03.L
											{
												OFFSET 0.167197 0.119200 -0.118400
												CHANNELS 6 Xposition Yposition Zposition Xrotation Yrotation Zrotation
												JOINT levator04.L
												{
													OFFSET 0.060940 -0.003700 -0.184300
													CHANNELS 6 Xposition Yposition Zposition Xrotation Yrotation Zrotation
													JOINT levator05.L
													{
														OFFSET 0.017530 -0.001500 -0.174200
														CHANNELS 6 Xposition Yposition Zposition Xrotation Yrotation Zrotation
														End Site
														{
															OFFSET -0.028190 -0.003099 -0.083503
														}
													}
												}
											}
										}
										JOINT levator02.R
										{
											OFFSET -0.031033 -1.042320 0.209200
											CHANNELS 6 Xposition Yposition Zposition Xrotation Yrotation Zrotation
											JOINT levator03.R
											{
												OFFSET -0.167197 0.119200 -0.118400
												CHANNELS 6 Xposition Yposition Zposition Xrotation Yrotation Zrotation
												JOINT levator04.R
												{
													OFFSET -0.060940 -0.003700 -0.184300
													CHANNELS 6 Xposition Yposition Zposition Xrotation Yrotation Zrotation
													JOINT levator05.R
													{
														OFFSET -0.017530 -0.001500 -0.174200
														CHANNELS 6 Xposition Yposition Zposition Xrotation Yrotation Zrotation
														End Site
														{
															OFFSET 0.028190 -0.003099 -0.083503
														}
													}
												}
											}
										}
										JOINT special01
										{
											OFFSET 0.000000 0.699350 -0.006900
											CHANNELS 6 Xposition Yposition Zposition Xrotation Yrotation Zrotation
											JOINT oris04.L
											{
												OFFSET 0.000000 -1.749470 -0.087800
												CHANNELS 6 Xposition Yposition Zposition Xrotation Yrotation Zrotation
												JOINT oris03.L
												{
													OFFSET 0.134270 0.023000 -0.064000
													CHANNELS 6 Xposition Yposition Zposition Xrotation Yrotation Zrotation
													End Site
													{
														OFFSET 0.029934 0.003633 -0.059402
													}
												}
											}
											JOINT oris04.R
											{
												OFFSET 0.000000 -1.749470 -0.087800
												CHANNELS 6 Xposition Yposition Zposition Xrotation Yrotation Zrotation
												JOINT oris03.R
												{
													OFFSET -0.134270 0.023000 -0.064000
													CHANNELS 6 Xposition Yposition Zposition Xrotation Yrotation Zrotation
													End Site
													{
														OFFSET -0.029934 0.003633 -0.059402
													}
												}
											}
											JOINT oris06
											{
												OFFSET 0.000000 -1.749470 -0.087800
												CHANNELS 6 Xposition Yposition Zposition Xrotation Yrotation Zrotation
												JOINT oris05
												{
													OFFSET 0.000000 -0.007000 -0.051400
													CHANNELS 6 Xposition Yposition Zposition Xrotation Yrotation Zrotation
													End Site
													{
														OFFSET 0.000000 -0.033213 -0.064393
													}
												}
											}
										}
										JOINT special03
										{
											OFFSET 0.000000 -0.121400 0.064199
											CHANNELS 6 Xposition Yposition Zposition Xrotation Yrotation Zrotation
											JOINT levator06.L
											{
												OFFSET 0.056567 -1.013320 -0.053999
												CHANNELS 6 Xposition Yposition Zposition Xrotation Yrotation Zrotation
												End Site
												{
													OFFSET 0.112632 0.186186 0.038878
												}
											}
											JOINT levator06.R
											{
												OFFSET -0.056567 -1.013320 -0.053999
												CHANNELS 6 Xposition Yposition Zposition Xrotation Yrotation Zrotation
												End Site
												{
													OFFSET -0.112632 0.186186 0.038878
												}
											}
										}
										JOINT special06.L
										{
											OFFSET 0.000000 0.069350 1.479799
											CHANNELS 6 Xposition Yposition Zposition Xrotation Yrotation Zrotation
											JOINT special05.L
											{
												OFFSET 0.186870 -0.560300 -0.149599
												CHANNELS 6 Xposition Yposition Zposition Xrotation Yrotation Zrotation
												JOINT eye.L
												{
													OFFSET 0.102070 -0.246970 -0.943399
													CHANNELS 6 Xposition Yposition Zposition Xrotation Yrotation Zrotation
													End Site
													{
														OFFSET 0.017767 -0.379798 -0.029534
													}
												}
												JOINT orbicularis03.L
												{
													OFFSET 0.102070 -0.246970 -0.943399
													CHANNELS 6 Xposition Yposition Zposition Xrotation Yrotation Zrotation
													End Site
													{
														OFFSET 0.017041 -0.359513 0.088355
													}
												}
												JOINT orbicularis04.L
												{
													OFFSET 0.102070 -0.246970 -0.943399
													CHANNELS 6 Xposition Yposition Zposition Xrotation Yrotation Zrotation
													End Site
													{
														OFFSET 0.018009 -0.354187 -0.142336
													}
												}
											}
										}
										JOINT special06.R
										{
											OFFSET 0.000000 0.069350 1.479799
											CHANNELS 6 Xposition Yposition Zposition Xrotation Yrotation Zrotation
											JOINT special05.R
											{
												OFFSET -0.186870 -0.560300 -0.149599
												CHANNELS 6 Xposition Yposition Zposition Xrotation Yrotation Zrotation
												JOINT eye.R
												{
													OFFSET -0.102070 -0.246970 -0.943399
													CHANNELS 6 Xposition Yposition Zposition Xrotation Yrotation Zrotation
													End Site
													{
														OFFSET -0.017767 -0.379798 -0.029534
													}
												}
												JOINT orbicularis03.R
												{
													OFFSET -0.102070 -0.246970 -0.943399
													CHANNELS 6 Xposition Yposition Zposition Xrotation Yrotation Zrotation
													End Site
													{
														OFFSET -0.017041 -0.359513 0.088355
													}
												}
												JOINT orbicularis04.R
												{
													OFFSET -0.102070 -0.246970 -0.943399
													CHANNELS 6 Xposition Yposition Zposition Xrotation Yrotation Zrotation
													End Site
													{
														OFFSET -0.018009 -0.354187 -0.142336
													}
												}
											}
										}
										JOINT temporalis01.L
										{
											OFFSET 0.604530 -0.593820 0.456800
											CHANNELS 6 Xposition Yposition Zposition Xrotation Yrotation Zrotation
											JOINT oculi02.L
											{
												OFFSET -0.081930 -0.176200 -0.003500
												CHANNELS 6 Xposition Yposition Zposition Xrotation Yrotation Zrotation
												JOINT oculi01.L
												{
													OFFSET -0.202470 -0.180000 0.146799
													CHANNELS 6 Xposition Yposition Zposition Xrotation Yrotation Zrotation
													End Site
													{
														OFFSET -0.167592 -0.041332 0.012400
													}
												}
											}
										}
										JOINT temporalis01.R
										{
											OFFSET -0.604530 -0.593820 0.456800
											CHANNELS 6 Xposition Yposition Zposition Xrotation Yrotation Zrotation
											JOINT oculi02.R
											{
												OFFSET 0.081930 -0.176200 -0.003500
												CHANNELS 6 Xposition Yposition Zposition Xrotation Yrotation Zrotation
												JOINT oculi01.R
												{
													OFFSET 0.202470 -0.180000 0.146799
													CHANNELS 6 Xposition Yposition Zposition Xrotation Yrotation Zrotation
													End Site
													{
														OFFSET 0.167592 -0.041332 0.012400
													}
												}
											}
										}
										JOINT temporalis02.L
										{
											OFFSET 0.623070 -0.571620 0.233100
											CHANNELS 6 Xposition Yposition Zposition Xrotation Yrotation Zrotation
											JOINT risorius02.L
											{
												OFFSET -0.097270 -0.177300 0.049900
												CHANNELS 6 Xposition Yposition Zposition Xrotation Yrotation Zrotation
												JOINT risorius03.L
												{
													OFFSET -0.050400 -0.060600 -0.276799
													CHANNELS 6 Xposition Yposition Zposition Xrotation Yrotation Zrotation
													End Site
													{
														OFFSET 0.046399 0.157765 -0.197430
													}
												}
											}
										}
										JOINT temporalis02.R
										{
											OFFSET -0.623070 -0.571620 0.233100
											CHANNELS 6 Xposition Yposition Zposition Xrotation Yrotation Zrotation
											JOINT risorius02.R
											{
												OFFSET 0.097270 -0.177300 0.049900
												CHANNELS 6 Xposition Yposition Zposition Xrotation Yrotation Zrotation
												JOINT risorius03.R
												{
													OFFSET 0.050400 -0.060600 -0.276799
													CHANNELS 6 Xposition Yposition Zposition Xrotation Yrotation Zrotation
													End Site
													{
														OFFSET -0.046399 0.157765 -0.197430
													}
												}
											}
										}
									}
								}
							}
						}
					}
				}
			}
		}
	}
	JOINT pelvis.L
	{
		OFFSET 0.000000 -0.779770 0.042199
		CHANNELS 6 Xposition Yposition Zposition Xrotation Yrotation Zrotation
		JOINT upperleg01.L
		{
			OFFSET 1.013800 0.082736 -0.080870
			CHANNELS 6 Xposition Yposition Zposition Xrotation Yrotation Zrotation
			JOINT upperleg02.L
			{
				OFFSET 0.010700 -0.247546 -0.780900
				CHANNELS 6 Xposition Yposition Zposition Xrotation Yrotation Zrotation
				JOINT lowerleg01.L
				{
					OFFSET 0.400300 -0.076940 -3.128600
					CHANNELS 6 Xposition Yposition Zposition Xrotation Yrotation Zrotation
					JOINT lowerleg02.L
					{
						OFFSET 0.190500 0.073500 -2.027800
						CHANNELS 6 Xposition Yposition Zposition Xrotation Yrotation Zrotation
						JOINT foot.L
						{
							OFFSET 0.190500 0.073490 -2.027700
							CHANNELS 6 Xposition Yposition Zposition Xrotation Yrotation Zrotation
							JOINT toe1-1.L
							{
								OFFSET -0.245400 -1.319500 -0.405000
								CHANNELS 6 Xposition Yposition Zposition Xrotation Yrotation Zrotation
								JOINT toe1-2.L
								{
									OFFSET 0.021400 -0.242700 -0.064600
									CHANNELS 6 Xposition Yposition Zposition Xrotation Yrotation Zrotation
									End Site
									{
										OFFSET 0.040190 -0.272593 -0.082779
									}
								}
							}
							JOINT toe2-1.L
							{
								OFFSET -0.017700 -1.332900 -0.430000
								CHANNELS 6 Xposition Yposition Zposition Xrotation Yrotation Zrotation
								JOINT toe2-2.L
								{
									OFFSET 0.017700 -0.203900 -0.032299
									CHANNELS 6 Xposition Yposition Zposition Xrotation Yrotation Zrotation
									JOINT toe2-3.L
									{
										OFFSET 0.006700 -0.124800 -0.044100
										CHANNELS 6 Xposition Yposition Zposition Xrotation Yrotation Zrotation
										End Site
										{
											OFFSET 0.004299 -0.166087 -0.064732
										}
									}
								}
							}
							JOINT toe3-1.L
							{
								OFFSET 0.139600 -1.307900 -0.446199
								CHANNELS 6 Xposition Yposition Zposition Xrotation Yrotation Zrotation
								JOINT toe3-2.L
								{
									OFFSET 0.016100 -0.180900 -0.024700
									CHANNELS 6 Xposition Yposition Zposition Xrotation Yrotation Zrotation
									JOINT toe3-3.L
									{
										OFFSET 0.003300 -0.120200 -0.044200
										CHANNELS 6 Xposition Yposition Zposition Xrotation Yrotation Zrotation
										End Site
										{
											OFFSET -0.003204 -0.127180 -0.043355
										}
									}
								}
							}
							JOINT toe4-1.L
							{
								OFFSET 0.288800 -1.237700 -0.448000
								CHANNELS 6 Xposition Yposition Zposition Xrotation Yrotation Zrotation
								JOINT toe4-2.L
								{
									OFFSET 0.016000 -0.149100 -0.033199
									CHANNELS 6 Xposition Yposition Zposition Xrotation Yrotation Zrotation
									JOINT toe4-3.L
									{
										OFFSET -0.003600 -0.113900 -0.025101
										CHANNELS 6 Xposition Yposition Zposition Xrotation Yrotation Zrotation
										End Site
										{
											OFFSET 0.008891 -0.096953 -0.056881
										}
									}
								}
							}
							JOINT toe5-1.L
							{
								OFFSET 0.425800 -1.171200 -0.446699
								CHANNELS 6 Xposition Yposition Zposition Xrotation Yrotation Zrotation
								JOINT toe5-2.L
								{
									OFFSET 0.004600 -0.098200 -0.026601
									CHANNELS 6 Xposition Yposition Zposition Xrotation Yrotation Zrotation
									JOINT toe5-3.L
									{
										OFFSET -0.008700 -0.079100 -0.037200
										CHANNELS 6 Xposition Yposition Zposition Xrotation Yrotation Zrotation
										End Site
										{
											OFFSET 0.004433 -0.108578 -0.055548
										}
									}
								}
							}
						}
					}
				}
			}
		}
	}
	JOINT pelvis.R
	{
		OFFSET 0.000000 -0.779770 0.042199
		CHANNELS 6 Xposition Yposition Zposition Xrotation Yrotation Zrotation
		JOINT upperleg01.R
		{
			OFFSET -1.013800 0.082736 -0.080870
			CHANNELS 6 Xposition Yposition Zposition Xrotation Yrotation Zrotation
			JOINT upperleg02.R
			{
				OFFSET -0.010700 -0.247546 -0.780900
				CHANNELS 6 Xposition Yposition Zposition Xrotation Yrotation Zrotation
				JOINT lowerleg01.R
				{
					OFFSET -0.400300 -0.076940 -3.128600
					CHANNELS 6 Xposition Yposition Zposition Xrotation Yrotation Zrotation
					JOINT lowerleg02.R
					{
						OFFSET -0.190500 0.073500 -2.027800
						CHANNELS 6 Xposition Yposition Zposition Xrotation Yrotation Zrotation
						JOINT foot.R
						{
							OFFSET -0.190500 0.073490 -2.027700
							CHANNELS 6 Xposition Yposition Zposition Xrotation Yrotation Zrotation
							JOINT toe1-1.R
							{
								OFFSET 0.245400 -1.319500 -0.405000
								CHANNELS 6 Xposition Yposition Zposition Xrotation Yrotation Zrotation
								JOINT toe1-2.R
								{
									OFFSET -0.021400 -0.242700 -0.064600
									CHANNELS 6 Xposition Yposition Zposition Xrotation Yrotation Zrotation
									End Site
									{
										OFFSET -0.040190 -0.272593 -0.082779
									}
								}
							}
							JOINT toe2-1.R
							{
								OFFSET 0.017700 -1.332900 -0.430000
								CHANNELS 6 Xposition Yposition Zposition Xrotation Yrotation Zrotation
								JOINT toe2-2.R
								{
									OFFSET -0.017700 -0.203900 -0.032299
									CHANNELS 6 Xposition Yposition Zposition Xrotation Yrotation Zrotation
									JOINT toe2-3.R
									{
										OFFSET -0.006700 -0.124800 -0.044100
										CHANNELS 6 Xposition Yposition Zposition Xrotation Yrotation Zrotation
										End Site
										{
											OFFSET -0.004299 -0.166087 -0.064732
										}
									}
								}
							}
							JOINT toe3-1.R
							{
								OFFSET -0.139600 -1.307900 -0.446199
								CHANNELS 6 Xposition Yposition Zposition Xrotation Yrotation Zrotation
								JOINT toe3-2.R
								{
									OFFSET -0.016100 -0.180900 -0.024700
									CHANNELS 6 Xposition Yposition Zposition Xrotation Yrotation Zrotation
									JOINT toe3-3.R
									{
										OFFSET -0.003300 -0.120200 -0.044200
										CHANNELS 6 Xposition Yposition Zposition Xrotation Yrotation Zrotation
										End Site
										{
											OFFSET 0.003204 -0.127180 -0.043355
										}
									}
								}
							}
							JOINT toe4-1.R
							{
								OFFSET -0.288800 -1.237700 -0.448000
								CHANNELS 6 Xposition Yposition Zposition Xrotation Yrotation Zrotation
								JOINT toe4-2.R
								{
									OFFSET -0.016000 -0.149100 -0.033199
									CHANNELS 6 Xposition Yposition Zposition Xrotation Yrotation Zrotation
									JOINT toe4-3.R
									{
										OFFSET 0.003600 -0.113900 -0.025101
										CHANNELS 6 Xposition Yposition Zposition Xrotation Yrotation Zrotation
										End Site
										{
											OFFSET -0.008891 -0.096953 -0.056881
										}
									}
								}
							}
							JOINT toe5-1.R
							{
								OFFSET -0.425800 -1.171200 -0.446699
								CHANNELS 6 Xposition Yposition Zposition Xrotation Yrotation Zrotation
								JOINT toe5-2.R
								{
									OFFSET -0.004600 -0.098200 -0.026601
									CHANNELS 6 Xposition Yposition Zposition Xrotation Yrotation Zrotation
									JOINT toe5-3.R
									{
										OFFSET 0.008700 -0.079100 -0.037200
										CHANNELS 6 Xposition Yposition Zposition Xrotation Yrotation Zrotation
										End Site
										{
											OFFSET -0.004433 -0.108578 -0.055548
										}
									}
								}
							}
						}
					}
				}
			}
		}
	}
}
MOTION
Frames: 1
Frame Time: 0.040000
0.030362 -1.037209 -5.519571 84.999963 -0.054190 -0.050015 -0.000000 -0.779770 0.042199 0.000003 -0.000000 0.000000 -0.000000 0.387330 0.797731 -4.999986 -0.000214 0.005086 -0.000000 -0.154170 0.662599 0.000001 -0.000000 0.000000 -0.000000 -0.017319 0.750501 0.000001 -0.000000 -0.000000 0.000000 0.103200 1.439199 -0.000000 -0.000000 0.000000 -0.000000 0.103200 1.439199 -0.000001 0.000000 0.000001 -0.000000 0.103200 1.439200 0.000001 0.000000 -0.000000 0.227360 -0.403211 1.038200 0.000035 -14.999970 -0.000061 0.763140 -0.000450 0.160800 0.000008 -4.999992 0.000007 0.709900 0.023550 -0.387501 -0.000001 -0.000003 0.000001 0.469600 0.016360 -0.541700 0.000000 0.000001 0.000001 1.143499 -0.024510 -1.264200 -28.773627 4.435605 -26.137636 0.609800 -0.815940 -0.621200 0.000002 -0.000003 0.000003 0.609901 -0.815901 -0.621101 -23.105459 -54.899903 14.996102 0.010900 -0.438601 -0.075299 -9.931288 17.291389 -0.820658 -0.209000 -0.209800 -0.086800 -26.901844 13.360240 -0.168761 -0.123800 -0.310300 -0.139500 0.000000 0.000001 -0.000003 0.107101 -0.260601 -0.156698 -1.710752 -3.597020 2.969885 0.170600 -0.683000 -0.249201 -24.380867 -12.371883 21.246733 0.033400 -0.207100 -0.150700 7.317673 4.307469 -5.571739 -0.005600 -0.163401 -0.162900 -0.000001 0.000001 0.000000 0.107100 -0.260601 -0.156698 -0.000003 0.000008 -0.000004 0.333200 -0.504801 -0.358101 -25.655680 -10.037347 25.205246 0.072099 -0.204500 -0.259599 0.000003 0.000002 -0.000000 0.026602 -0.171101 -0.215111 -0.000009 -0.000001 0.000002 0.223800 -0.156301 -0.308700 0.000001 0.000008 0.000004 0.291800 -0.438101 -0.282600 -25.655451 -10.037387 25.205514 0.092901 -0.140700 -0.244699 0.000006 -0.000003 -0.000005 0.042399 -0.125198 -0.209790 -0.000000 0.000000 -0.000001 0.223799 -0.156301 -0.308700 -0.000005 0.000003 -0.000001 0.306800 -0.244600 -0.369200 -25.655428 -10.037277 25.205503 0.058901 -0.074399 -0.190601 0.000007 -0.000004 -0.000006 0.017300 -0.056899 -0.144351 0.000005 -0.000002 -0.000001 -0.227360 -0.403211 1.038200 0.000035 14.999965 0.000061 -0.763140 -0.000449 0.160800 0.000009 4.999991 -0.000007 -0.709900 0.023550 -0.387500 -0.000000 0.000003 0.000000 -0.469600 0.016360 -0.541700 -0.000001 -0.000003 -0.000001 -1.143500 -0.024510 -1.264200 -28.773623 -4.435605 26.137642 -0.609800 -0.815940 -0.621200 -0.000000 -0.000003 0.000001 -0.609901 -0.815899 -0.621100 -23.105466 54.899893 -14.996104 -0.010901 -0.438600 -0.075299 -9.931280 -17.291377 0.820655 0.208999 -0.209800 -0.086801 -26.901837 -13.360238 0.168755 0.123800 -0.310300 -0.139500 0.000004 -0.000001 -0.000000 -0.107101 -0.260601 -0.156699 -1.710755 3.597026 -2.969885 -0.170601 -0.683000 -0.249200 -24.380871 12.371879 -21.246729 -0.033400 -0.207100 -0.150700 7.317670 -4.307466 5.571739 0.005600 -0.163401 -0.162901 0.000002 -0.000003 -0.000004 -0.107101 -0.260601 -0.156699 -0.000000 -0.000001 0.000000 -0.333201 -0.504801 -0.358100 -25.655674 10.037348 -25.205234 -0.072100 -0.204500 -0.259599 -0.000002 -0.000001 0.000003 -0.026601 -0.171099 -0.215111 0.000001 0.000002 -0.000003 -0.223801 -0.156300 -0.308699 0.000001 0.000003 -0.000001 -0.291800 -0.438099 -0.282600 -25.655446 10.037394 -25.205503 -0.092899 -0.140700 -0.244700 -0.000006 -0.000003 -0.000008 -0.042400 -0.125199 -0.209790 -0.000000 0.000000 -0.000001 -0.223801 -0.156300 -0.308699 0.000002 0.000004 -0.000003 -0.306801 -0.244600 -0.369200 -25.655435 10.037281 -25.205497 -0.058899 -0.074399 -0.190601 0.000006 -0.000000 -0.000000 -0.017300 -0.056900 -0.144351 0.000003 -0.000003 -0.000001 -0.000000 -0.238134 1.749800 -4.999989 -0.000214 0.005085 -0.000000 -0.113825 0.312100 0.000002 0.000000 0.000000 -0.000000 -0.106449 0.369501 -0.000000 -0.000000 0.000000 -0.000000 -0.171471 0.327101 0.000001 0.000000 0.000000 -0.000000 -0.121398 0.064200 -0.000002 0.000000 0.000000 -0.000000 -0.505019 -0.777000 -0.000000 0.000000 0.000000 0.000000 -0.253799 0.178799 0.000005 0.000000 0.000000 0.000000 -0.104401 0.096301 -0.000000 -0.000000 -0.000000 -0.000000 -0.253799 0.178799 -0.000003 0.000002 0.000003 0.123900 -0.072600 0.044901 0.000002 -0.000002 0.000003 0.000000 -0.253799 0.178799 -0.000001 0.000002 0.000004 -0.123900 -0.072601 0.044901 -0.000005 -0.000002 0.000002 -0.000000 -0.505019 -0.777000 0.000000 0.000000 0.000000 0.000000 0.379750 0.436800 -0.000003 -0.000000 0.000000 0.000000 -0.288650 0.036701 -0.000000 0.000000 -0.000000 0.000000 -0.202400 -0.002000 0.000000 0.000000 -0.000000 -0.000000 -0.081600 -0.044999 -0.000002 0.000000 0.000000 -0.000000 -0.081599 -0.045000 0.000003 0.000001 -0.000000 0.000000 -0.081600 -0.045000 -0.000001 0.000000 -0.000001 -0.000000 -0.202400 -0.001999 0.000001 -0.000005 -0.000000 0.000000 -0.202400 -0.002000 0.000001 0.000003 -0.000000 0.000000 -0.288650 0.036700 -0.000000 0.000001 -0.000001 -0.000000 -0.288651 0.036701 0.000002 -0.000000 0.000000 0.031033 -1.042319 0.209201 -0.000003 0.000000 0.000001 0.167197 0.119199 -0.118399 0.000002 0.000001 -0.000003 0.060940 -0.003700 -0.184300 0.000002 0.000001 -0.000001 0.017530 -0.001500 -0.174200 0.000001 -0.000002 0.000001 -0.031033 -1.042319 0.209201 -0.000003 -0.000001 -0.000003 -0.167197 0.119200 -0.118400 -0.000000 -0.000003 -0.000001 -0.060940 -0.003699 -0.184299 -0.000002 -0.000002 -0.000004 -0.017530 -0.001500 -0.174200 0.000001 0.000000 -0.000000 -0.000000 0.699351 -0.006898 -0.000002 0.000000 0.000000 0.000000 -1.749471 -0.087800 0.000000 0.000002 0.000000 0.134270 0.022999 -0.064000 0.000000 0.000002 0.000001 -0.000001 -1.749471 -0.087800 -0.000000 -0.000002 -0.000000 -0.134270 0.022999 -0.064000 -0.000000 0.000003 -0.000002 0.000000 -1.749471 -0.087800 -0.000001 0.000000 0.000000 0.000000 -0.007001 -0.051400 0.000000 0.000000 0.000000 -0.000000 -0.121399 0.064200 -0.000001 0.000000 0.000000 0.056567 -1.013319 -0.053999 0.000001 0.000004 0.000002 -0.056567 -1.013319 -0.053998 0.000004 -0.000001 -0.000000 0.000000 0.069351 1.479799 -0.000002 0.000000 0.000000 0.186870 -0.560300 -0.149599 0.000001 0.000001 0.000002 0.102071 -0.246971 -0.943399 -0.000002 0.000000 -0.000000 0.102071 -0.246971 -0.943400 -0.000001 0.000000 -0.000002 0.102071 -0.246971 -0.943399 -0.000001 0.000001 0.000001 -0.000000 0.069351 1.479800 -0.000002 -0.000000 -0.000002 -0.186870 -0.560300 -0.149599 0.000001 -0.000001 0.000002 -0.102070 -0.246970 -0.943399 -0.000001 -0.000001 -0.000002 -0.102070 -0.246970 -0.943400 0.000003 -0.000001 0.000001 -0.102070 -0.246970 -0.943399 -0.000003 -0.000002 -0.000000 0.604530 -0.593819 0.456800 -0.000002 0.000002 -0.000000 -0.081930 -0.176199 -0.003499 0.000001 0.000003 0.000003 -0.202470 -0.180000 0.146800 0.000004 -0.000001 0.000001 -0.604530 -0.593819 0.456801 -0.000002 -0.000002 0.000000 0.081930 -0.176201 -0.003500 0.000002 -0.000003 -0.000001 0.202470 -0.179999 0.146799 -0.000002 0.000002 -0.000002 0.623070 -0.571619 0.233101 -0.000002 0.000001 -0.000002 -0.097270 -0.177299 0.049900 -0.000000 -0.000000 0.000005 -0.050399 -0.060600 -0.276799 0.000000 0.000003 -0.000001 -0.623070 -0.571619 0.233102 -0.000003 -0.000001 0.000001 0.097270 -0.177300 0.049901 0.000001 0.000001 -0.000001 0.050400 -0.060599 -0.276798 -0.000002 0.000003 -0.000001 -0.000000 -0.779770 0.042199 0.000001 0.000001 0.000001 1.013800 0.082736 -0.080870 -0.000009 4.999988 0.000036 0.010700 -0.247545 -0.780899 -0.000000 -0.000000 -0.000000 0.400300 -0.076940 -3.128601 -0.000001 0.000001 -0.000000 0.190500 0.073500 -2.027801 -0.000000 -0.000000 0.000000 0.190500 0.073490 -2.027701 4.980467 0.019163 0.440279 -0.245400 -1.319499 -0.405000 -77.300010 0.045559 -0.057086 0.021400 -0.242700 -0.064601 0.000004 -0.000001 0.000001 -0.017700 -1.332899 -0.430000 -77.300010 0.045691 -0.057101 0.017700 -0.203900 -0.032299 0.000000 0.000000 -0.000000 0.006700 -0.124800 -0.044099 -0.000002 0.000000 -0.000000 0.139600 -1.307898 -0.446200 -77.300003 0.045558 -0.057104 0.016100 -0.180900 -0.024700 0.000000 -0.000000 -0.000001 0.003300 -0.120199 -0.044201 0.000001 0.000000 0.000000 0.288800 -1.237699 -0.448000 -77.299997 0.045740 -0.057215 0.016000 -0.149100 -0.033199 0.000004 -0.000000 0.000001 -0.003600 -0.113900 -0.025104 0.000007 -0.000001 -0.000000 0.425800 -1.171199 -0.446699 -77.300017 0.044424 -0.056146 0.004600 -0.098199 -0.026601 -0.000001 0.000000 -0.000000 -0.008700 -0.079100 -0.037201 0.000006 -0.000000 -0.000001 0.000000 -0.779770 0.042199 0.000001 -0.000000 -0.000000 -1.013800 0.082736 -0.080870 -0.000005 -4.999989 -0.000037 -0.010700 -0.247546 -0.780900 0.000000 0.000001 0.000000 -0.400300 -0.076939 -3.128601 0.000000 0.000000 -0.000000 -0.190500 0.073500 -2.027800 -0.000000 0.000000 -0.000000 -0.190500 0.073491 -2.027699 4.980469 -0.019164 -0.440279 0.245400 -1.319501 -0.405000 -77.300003 -0.045561 0.057088 -0.021400 -0.242699 -0.064599 0.000001 0.000001 -0.000002 0.017700 -1.332900 -0.430000 -77.300010 -0.045691 0.057101 -0.017700 -0.203900 -0.032299 0.000002 -0.000001 0.000001 -0.006700 -0.124799 -0.044100 0.000007 0.000000 -0.000001 -0.139600 -1.307901 -0.446200 -77.300003 -0.045561 0.057103 -0.016100 -0.180900 -0.024698 0.000002 -0.000000 -0.000001 -0.003300 -0.120200 -0.044201 -0.000002 0.000001 0.000000 -0.288800 -1.237701 -0.448000 -77.300003 -0.045739 0.057214 -0.016000 -0.149100 -0.033199 -0.000001 -0.000000 -0.000001 0.003600 -0.113900 -0.025103 0.000000 -0.000000 -0.000000 -0.425800 -1.171199 -0.446699 -77.300003 -0.044424 0.056148 -0.004600 -0.098199 -0.026602 0.000003 0.000001 -0.000001 0.008700 -0.079101 -0.037200 -0.000006 -0.000001 0.000000 
