HIERARCHY
ROOT root
{
	OFFSET 0.000000 0.527280 8.889649
	CHANNELS 6 Xposition Yposition Zposition Xrotation Yrotation Zrotation
	JOINT spine05
	{
		OFFSET 0.000000 -0.747100 0.092811
		CHANNELS 6 Xposition Yposition Zposition Xrotation Yrotation Zrotation
		JOINT spine04
		{
			OFFSET 0.000000 0.424880 0.530140
			CHANNELS 6 Xposition Yposition Zposition Xrotation Yrotation Zrotation
			JOINT spine03
			{
				OFFSET 0.000000 -0.146098 0.560400
				CHANNELS 6 Xposition Yposition Zposition Xrotation Yrotation Zrotation
				JOINT spine02
				{
					OFFSET 0.000000 -0.131039 0.858100
					CHANNELS 6 Xposition Yposition Zposition Xrotation Yrotation Zrotation
					JOINT breast.L
					{
						OFFSET 0.500000 -0.618289 1.534970
						CHANNELS 6 Xposition Yposition Zposition Xrotation Yrotation Zrotation
						End Site
						{
							OFFSET 0.543424 -1.109242 -0.283802
						}
					}
					JOINT breast.R
					{
						OFFSET -0.500000 -0.618289 1.534970
						CHANNELS 6 Xposition Yposition Zposition Xrotation Yrotation Zrotation
						End Site
						{
							OFFSET -0.543447 -1.109204 -0.288263
						}
					}
					JOINT spine01
					{
						OFFSET 0.000000 0.043860 1.721400
						CHANNELS 6 Xposition Yposition Zposition Xrotation Yrotation Zrotation
						JOINT clavicle.L
						{
							OFFSET 0.260820 -0.200753 0.901199
							CHANNELS 6 Xposition Yposition Zposition Xrotation Yrotation Zrotation
							JOINT shoulder01.L
							{
								OFFSET 0.730800 -0.003480 0.213600
								CHANNELS 6 Xposition Yposition Zposition Xrotation Yrotation Zrotation
								JOINT upperarm01.L
								{
									OFFSET 0.547280 0.034110 -0.372499
									CHANNELS 6 Xposition Yposition Zposition Xrotation Yrotation Zrotation
									JOINT upperarm02.L
									{
										OFFSET 0.562300 0.021590 -0.571401
										CHANNELS 6 Xposition Yposition Zposition Xrotation Yrotation Zrotation
										JOINT lowerarm01.L
										{
											OFFSET 1.138400 -0.057990 -1.278399
											CHANNELS 6 Xposition Yposition Zposition Xrotation Yrotation Zrotation
											JOINT lowerarm02.L
											{
												OFFSET 0.581500 -0.757370 -0.629101
												CHANNELS 6 Xposition Yposition Zposition Xrotation Yrotation Zrotation
												JOINT wrist.L
												{
													OFFSET 0.581500 -0.757390 -0.629100
													CHANNELS 6 Xposition Yposition Zposition Xrotation Yrotation Zrotation
													JOINT finger1-1.L
													{
														OFFSET 0.010200 -0.389100 -0.076400
														CHANNELS 6 Xposition Yposition Zposition Xrotation Yrotation Zrotation
														JOINT finger1-2.L
														{
															OFFSET -0.187400 -0.184800 -0.080700
															CHANNELS 6 Xposition Yposition Zposition Xrotation Yrotation Zrotation
															JOINT finger1-3.L
															{
																OFFSET -0.109500 -0.272300 -0.130300
																CHANNELS 6 Xposition Yposition Zposition Xrotation Yrotation Zrotation
																End Site
																{
																	OFFSET -0.048759 -0.189319 -0.161489
																}
															}
														}
													}
													JOINT metacarpal1.L
													{
														OFFSET 0.095800 -0.228900 -0.145200
														CHANNELS 6 Xposition Yposition Zposition Xrotation Yrotation Zrotation
														JOINT finger2-1.L
														{
															OFFSET 0.154200 -0.605500 -0.235200
															CHANNELS 6 Xposition Yposition Zposition Xrotation Yrotation Zrotation
															JOINT finger2-2.L
															{
																OFFSET 0.030200 -0.181000 -0.137500
																CHANNELS 6 Xposition Yposition Zposition Xrotation Yrotation Zrotation
																JOINT finger2-3.L
																{
																	OFFSET -0.005700 -0.140900 -0.148900
																	CHANNELS 6 Xposition Yposition Zposition Xrotation Yrotation Zrotation
																	End Site
																	{
																		OFFSET -0.035171 -0.153538 -0.185974
																	}
																}
															}
														}
													}
													JOINT metacarpal2.L
													{
														OFFSET 0.095800 -0.228900 -0.145200
														CHANNELS 6 Xposition Yposition Zposition Xrotation Yrotation Zrotation
														JOINT finger3-1.L
														{
															OFFSET 0.297300 -0.441300 -0.327300
															CHANNELS 6 Xposition Yposition Zposition Xrotation Yrotation Zrotation
															JOINT finger3-2.L
															{
																OFFSET 0.065200 -0.177400 -0.236500
																CHANNELS 6 Xposition Yposition Zposition Xrotation Yrotation Zrotation
																JOINT finger3-3.L
																{
																	OFFSET 0.022700 -0.149900 -0.195800
																	CHANNELS 6 Xposition Yposition Zposition Xrotation Yrotation Zrotation
																	End Site
																	{
																		OFFSET -0.002849 -0.127995 -0.205563
																	}
																}
															}
														}
													}
													JOINT metacarpal3.L
													{
														OFFSET 0.199700 -0.133000 -0.278700
														CHANNELS 6 Xposition Yposition Zposition Xrotation Yrotation Zrotation
														JOINT finger4-1.L
														{
															OFFSET 0.258100 -0.386000 -0.260099
															CHANNELS 6 Xposition Yposition Zposition Xrotation Yrotation Zrotation
															JOINT finger4-2.L
															{
																OFFSET 0.087500 -0.120900 -0.221701
																CHANNELS 6 Xposition Yposition Zposition Xrotation Yrotation Zrotation
																JOINT finger4-3.L
																{
																	OFFSET 0.036300 -0.107700 -0.188300
																	CHANNELS 6 Xposition Yposition Zposition Xrotation Yrotation Zrotation
																	End Site
																	{
																		OFFSET 0.019546 -0.094125 -0.219304
																	}
																}
															}
														}
													}
													JOINT metacarpal4.L
													{
														OFFSET 0.199700 -0.133000 -0.278700
														CHANNELS 6 Xposition Yposition Zposition Xrotation Yrotation Zrotation
														JOINT finger5-1.L
														{
															OFFSET 0.274800 -0.212700 -0.334000
															CHANNELS 6 Xposition Yposition Zposition Xrotation Yrotation Zrotation
															JOINT finger5-2.L
															{
																OFFSET 0.053800 -0.061100 -0.171300
																CHANNELS 6 Xposition Yposition Zposition Xrotation Yrotation Zrotation
																JOINT finger5-3.L
																{
																	OFFSET 0.016000 -0.048500 -0.130500
																	CHANNELS 6 Xposition Yposition Zposition Xrotation Yrotation Zrotation
																	End Site
																	{
																		OFFSET 0.021102 -0.057175 -0.165609
																	}
																}
															}
														}
													}
												}
											}
										}
									}
								}
							}
						}
						JOINT clavicle.R
						{
							OFFSET -0.260820 -0.200753 0.901199
							CHANNELS 6 Xposition Yposition Zposition Xrotation Yrotation Zrotation
							JOINT shoulder01.R
							{
								OFFSET -0.730800 -0.003480 0.213600
								CHANNELS 6 Xposition Yposition Zposition Xrotation Yrotation Zrotation
								JOINT upperarm01.R
								{
									OFFSET -0.547280 0.034110 -0.372499
									CHANNELS 6 Xposition Yposition Zposition Xrotation Yrotation Zrotation
									JOINT upperarm02.R
									{
										OFFSET -0.518200 0.013000 -0.571200
										CHANNELS 6 Xposition Yposition Zposition Xrotation Yrotation Zrotation
										JOINT lowerarm01.R
										{
											OFFSET -1.182500 -0.049400 -1.278600
											CHANNELS 6 Xposition Yposition Zposition Xrotation Yrotation Zrotation
											JOINT lowerarm02.R
											{
												OFFSET -0.581500 -0.757370 -0.629101
												CHANNELS 6 Xposition Yposition Zposition Xrotation Yrotation Zrotation
												JOINT wrist.R
												{
													OFFSET -0.581500 -0.757390 -0.629100
													CHANNELS 6 Xposition Yposition Zposition Xrotation Yrotation Zrotation
													JOINT finger1-1.R
													{
														OFFSET -0.010200 -0.389100 -0.076400
														CHANNELS 6 Xposition Yposition Zposition Xrotation Yrotation Zrotation
														JOINT finger1-2.R
														{
															OFFSET 0.187400 -0.184800 -0.080700
															CHANNELS 6 Xposition Yposition Zposition Xrotation Yrotation Zrotation
															JOINT finger1-3.R
															{
																OFFSET 0.109500 -0.272300 -0.130300
																CHANNELS 6 Xposition Yposition Zposition Xrotation Yrotation Zrotation
																End Site
																{
																	OFFSET 0.048759 -0.189319 -0.161489
																}
															}
														}
													}
													JOINT metacarpal1.R
													{
														OFFSET -0.095800 -0.228900 -0.145200
														CHANNELS 6 Xposition Yposition Zposition Xrotation Yrotation Zrotation
														JOINT finger2-1.R
														{
															OFFSET -0.154200 -0.605500 -0.235200
															CHANNELS 6 Xposition Yposition Zposition Xrotation Yrotation Zrotation
															JOINT finger2-2.R
															{
																OFFSET -0.030200 -0.181000 -0.137500
																CHANNELS 6 Xposition Yposition Zposition Xrotation Yrotation Zrotation
																JOINT finger2-3.R
																{
																	OFFSET 0.005700 -0.140900 -0.148900
																	CHANNELS 6 Xposition Yposition Zposition Xrotation Yrotation Zrotation
																	End Site
																	{
																		OFFSET 0.035171 -0.153538 -0.185974
																	}
																}
															}
														}
													}
													JOINT metacarpal2.R
													{
														OFFSET -0.095800 -0.228900 -0.145200
														CHANNELS 6 Xposition Yposition Zposition Xrotation Yrotation Zrotation
														JOINT finger3-1.R
														{
															OFFSET -0.297300 -0.441300 -0.327300
															CHANNELS 6 Xposition Yposition Zposition Xrotation Yrotation Zrotation
															JOINT finger3-2.R
															{
																OFFSET -0.065200 -0.177400 -0.236500
																CHANNELS 6 Xposition Yposition Zposition Xrotation Yrotation Zrotation
																JOINT finger3-3.R
																{
																	OFFSET -0.022700 -0.149900 -0.195800
																	CHANNELS 6 Xposition Yposition Zposition Xrotation Yrotation Zrotation
																	End Site
																	{
																		OFFSET 0.002849 -0.127990 -0.205555
																	}
																}
															}
														}
													}
													JOINT metacarpal3.R
													{
														OFFSET -0.199700 -0.133000 -0.278700
														CHANNELS 6 Xposition Yposition Zposition Xrotation Yrotation Zrotation
														JOINT finger4-1.R
														{
															OFFSET -0.258100 -0.386000 -0.260099
															CHANNELS 6 Xposition Yposition Zposition Xrotation Yrotation Zrotation
															JOINT finger4-2.R
															{
																OFFSET -0.087500 -0.120900 -0.221701
																CHANNELS 6 Xposition Yposition Zposition Xrotation Yrotation Zrotation
																JOINT finger4-3.R
																{
																	OFFSET -0.036300 -0.107700 -0.188300
																	CHANNELS 6 Xposition Yposition Zposition Xrotation Yrotation Zrotation
																	End Site
																	{
																		OFFSET -0.019546 -0.094125 -0.219304
																	}
																}
															}
														}
													}
													JOINT metacarpal4.R
													{
														OFFSET -0.199700 -0.133000 -0.278700
														CHANNELS 6 Xposition Yposition Zposition Xrotation Yrotation Zrotation
														JOINT finger5-1.R
														{
															OFFSET -0.274800 -0.212700 -0.334000
															CHANNELS 6 Xposition Yposition Zposition Xrotation Yrotation Zrotation
															JOINT finger5-2.R
															{
																OFFSET -0.053800 -0.061100 -0.171300
																CHANNELS 6 Xposition Yposition Zposition Xrotation Yrotation Zrotation
																JOINT finger5-3.R
																{
																	OFFSET -0.016000 -0.048500 -0.130500
																	CHANNELS 6 Xposition Yposition Zposition Xrotation Yrotation Zrotation
																	End Site
																	{
																		OFFSET -0.021102 -0.057175 -0.165609
																	}
																}
															}
														}
													}
												}
											}
										}
									}
								}
							}
						}
						JOINT neck01
						{
							OFFSET 0.000000 0.024172 1.633900
							CHANNELS 6 Xposition Yposition Zposition Xrotation Yrotation Zrotation
							JOINT neck02
							{
								OFFSET 0.000000 -0.093413 0.403299
								CHANNELS 6 Xposition Yposition Zposition Xrotation Yrotation Zrotation
								JOINT neck03
								{
									OFFSET 0.000000 0.025619 0.450100
									CHANNELS 6 Xposition Yposition Zposition Xrotation Yrotation Zrotation
									JOINT head
									{
										OFFSET 0.000000 -0.306921 0.221401
										CHANNELS 6 Xposition Yposition Zposition Xrotation Yrotation Zrotation
										JOINT jaw
										{
											OFFSET 0.000000 -0.186060 0.001400
											CHANNELS 6 Xposition Yposition Zposition Xrotation Yrotation Zrotation
											JOINT special04
											{
												OFFSET 0.000000 -0.464480 -0.712400
												CHANNELS 6 Xposition Yposition Zposition Xrotation Yrotation Zrotation
												JOINT oris02
												{
													OFFSET 0.000000 -0.269300 0.173000
													CHANNELS 6 Xposition Yposition Zposition Xrotation Yrotation Zrotation
													JOINT oris01
													{
														OFFSET 0.000000 -0.083600 0.105999
														CHANNELS 6 Xposition Yposition Zposition Xrotation Yrotation Zrotation
														End Site
														{
															OFFSET 0.000000 -0.063340 0.109678
														}
													}
												}
												JOINT oris06.L
												{
													OFFSET 0.000000 -0.269300 0.173000
													CHANNELS 6 Xposition Yposition Zposition Xrotation Yrotation Zrotation
													JOINT oris07.L
													{
														OFFSET 0.106760 -0.053600 0.036400
														CHANNELS 6 Xposition Yposition Zposition Xrotation Yrotation Zrotation
														End Site
														{
															OFFSET 0.054616 -0.024864 0.133882
														}
													}
												}
												JOINT oris06.R
												{
													OFFSET 0.000000 -0.269300 0.173000
													CHANNELS 6 Xposition Yposition Zposition Xrotation Yrotation Zrotation
													JOINT oris07.R
													{
														OFFSET -0.106760 -0.053600 0.035799
														CHANNELS 6 Xposition Yposition Zposition Xrotation Yrotation Zrotation
														End Site
														{
															OFFSET -0.054627 -0.024868 0.134477
														}
													}
												}
											}
											JOINT tongue00
											{
												OFFSET 0.000000 -0.464480 -0.712400
												CHANNELS 6 Xposition Yposition Zposition Xrotation Yrotation Zrotation
												JOINT tongue01
												{
													OFFSET 0.000000 0.411920 0.397500
													CHANNELS 6 Xposition Yposition Zposition Xrotation Yrotation Zrotation
													JOINT tongue02
													{
														OFFSET 0.000000 -0.304280 0.055800
														CHANNELS 6 Xposition Yposition Zposition Xrotation Yrotation Zrotation
														JOINT tongue03
														{
															OFFSET 0.000000 -0.210340 -0.003700
															CHANNELS 6 Xposition Yposition Zposition Xrotation Yrotation Zrotation
															JOINT tongue04
															{
																OFFSET 0.000000 -0.086200 -0.048500
																CHANNELS 6 Xposition Yposition Zposition Xrotation Yrotation Zrotation
																End Site
																{
																	OFFSET 0.000000 -0.086201 -0.048499
																}
															}
															JOINT tongue07.L
															{
																OFFSET 0.000000 -0.086200 -0.048500
																CHANNELS 6 Xposition Yposition Zposition Xrotation Yrotation Zrotation
																End Site
																{
																	OFFSET 0.116865 -0.008361 -0.034772
																}
															}
															JOINT tongue07.R
															{
																OFFSET 0.000000 -0.086200 -0.048500
																CHANNELS 6 Xposition Yposition Zposition Xrotation Yrotation Zrotation
																End Site
																{
																	OFFSET -0.116865 -0.008361 -0.034772
																}
															}
														}
														JOINT tongue06.L
														{
															OFFSET 0.000000 -0.210340 -0.003700
															CHANNELS 6 Xposition Yposition Zposition Xrotation Yrotation Zrotation
															End Site
															{
																OFFSET 0.168433 0.014602 -0.052929
															}
														}
														JOINT tongue06.R
														{
															OFFSET 0.000000 -0.210340 -0.003700
															CHANNELS 6 Xposition Yposition Zposition Xrotation Yrotation Zrotation
															End Site
															{
																OFFSET -0.168433 0.014602 -0.052929
															}
														}
													}
													JOINT tongue05.L
													{
														OFFSET 0.000000 -0.304280 0.055800
														CHANNELS 6 Xposition Yposition Zposition Xrotation Yrotation Zrotation
														End Site
														{
															OFFSET 0.202986 -0.028612 -0.038815
														}
													}
													JOINT tongue05.R
													{
														OFFSET 0.000000 -0.304280 0.055800
														CHANNELS 6 Xposition Yposition Zposition Xrotation Yrotation Zrotation
														End Site
														{
															OFFSET -0.202986 -0.028612 -0.038815
														}
													}
												}
											}
										}
										JOINT levator02.L
										{
											OFFSET 0.031653 -1.116140 0.219399
											CHANNELS 6 Xposition Yposition Zposition Xrotation Yrotation Zrotation
											JOINT levator03.L
											{
												OFFSET 0.167157 0.130500 -0.161500
												CHANNELS 6 Xposition Yposition Zposition Xrotation Yrotation Zrotation
												JOINT levator04.L
												{
													OFFSET 0.051110 -0.000100 -0.171300
													CHANNELS 6 Xposition Yposition Zposition Xrotation Yrotation Zrotation
													JOINT levator05.L
													{
														OFFSET 0.014070 0.030900 -0.156899
														CHANNELS 6 Xposition Yposition Zposition Xrotation Yrotation Zrotation
														End Site
														{
															OFFSET -0.033578 0.013470 -0.085302
														}
													}
												}
											}
										}
										JOINT levator02.R
										{
											OFFSET -0.031653 -1.116140 0.219399
											CHANNELS 6 Xposition Yposition Zposition Xrotation Yrotation Zrotation
											JOINT levator03.R
											{
												OFFSET -0.167157 0.130500 -0.161500
												CHANNELS 6 Xposition Yposition Zposition Xrotation Yrotation Zrotation
												JOINT levator04.R
												{
													OFFSET -0.051110 -0.001000 -0.174200
													CHANNELS 6 Xposition Yposition Zposition Xrotation Yrotation Zrotation
													JOINT levator05.R
													{
														OFFSET -0.014070 0.031800 -0.153999
														CHANNELS 6 Xposition Yposition Zposition Xrotation Yrotation Zrotation
														End Site
														{
															OFFSET 0.033578 0.013470 -0.085302
														}
													}
												}
											}
										}
										JOINT special01
										{
											OFFSET 0.000000 0.593810 -0.063801
											CHANNELS 6 Xposition Yposition Zposition Xrotation Yrotation Zrotation
											JOINT oris04.L
											{
												OFFSET 0.000000 -1.693150 -0.050300
												CHANNELS 6 Xposition Yposition Zposition Xrotation Yrotation Zrotation
												JOINT oris03.L
												{
													OFFSET 0.127420 0.026300 -0.063400
													CHANNELS 6 Xposition Yposition Zposition Xrotation Yrotation Zrotation
													End Site
													{
														OFFSET 0.026971 0.012473 -0.055301
													}
												}
											}
											JOINT oris04.R
											{
												OFFSET 0.000000 -1.693150 -0.050300
												CHANNELS 6 Xposition Yposition Zposition Xrotation Yrotation Zrotation
												JOINT oris03.R
												{
													OFFSET -0.127420 0.026300 -0.064600
													CHANNELS 6 Xposition Yposition Zposition Xrotation Yrotation Zrotation
													End Site
													{
														OFFSET -0.026995 0.012484 -0.054087
													}
												}
											}
											JOINT oris06
											{
												OFFSET 0.000000 -1.693150 -0.050300
												CHANNELS 6 Xposition Yposition Zposition Xrotation Yrotation Zrotation
												JOINT oris05
												{
													OFFSET 0.000000 -0.018300 -0.061100
													CHANNELS 6 Xposition Yposition Zposition Xrotation Yrotation Zrotation
													End Site
													{
														OFFSET 0.000000 -0.012784 -0.072203
													}
												}
											}
										}
										JOINT special03
										{
											OFFSET 0.000000 -0.186060 0.001400
											CHANNELS 6 Xposition Yposition Zposition Xrotation Yrotation Zrotation
											JOINT levator06.L
											{
												OFFSET 0.060459 -1.015280 0.028199
												CHANNELS 6 Xposition Yposition Zposition Xrotation Yrotation Zrotation
												End Site
												{
													OFFSET 0.106574 0.197296 -0.004251
												}
											}
											JOINT levator06.R
											{
												OFFSET -0.060459 -1.015280 0.025599
												CHANNELS 6 Xposition Yposition Zposition Xrotation Yrotation Zrotation
												End Site
												{
													OFFSET -0.106576 0.197298 -0.001611
												}
											}
										}
										JOINT special06.L
										{
											OFFSET 0.000000 0.055750 1.460299
											CHANNELS 6 Xposition Yposition Zposition Xrotation Yrotation Zrotation
											JOINT special05.L
											{
												OFFSET 0.202540 -0.561960 -0.090900
												CHANNELS 6 Xposition Yposition Zposition Xrotation Yrotation Zrotation
												JOINT eye.L
												{
													OFFSET 0.107450 -0.246330 -1.028699
													CHANNELS 6 Xposition Yposition Zposition Xrotation Yrotation Zrotation
													End Site
													{
														OFFSET 0.010895 -0.417801 0.001160
													}
												}
												JOINT orbicularis03.L
												{
													OFFSET 0.107450 -0.246330 -1.028699
													CHANNELS 6 Xposition Yposition Zposition Xrotation Yrotation Zrotation
													End Site
													{
														OFFSET 0.009646 -0.390291 0.120629
													}
												}
												JOINT orbicularis04.L
												{
													OFFSET 0.107450 -0.246330 -1.028699
													CHANNELS 6 Xposition Yposition Zposition Xrotation Yrotation Zrotation
													End Site
													{
														OFFSET 0.011095 -0.398117 -0.118242
													}
												}
											}
										}
										JOINT special06.R
										{
											OFFSET 0.000000 0.055750 1.460299
											CHANNELS 6 Xposition Yposition Zposition Xrotation Yrotation Zrotation
											JOINT special05.R
											{
												OFFSET -0.202540 -0.561960 -0.090900
												CHANNELS 6 Xposition Yposition Zposition Xrotation Yrotation Zrotation
												JOINT eye.R
												{
													OFFSET -0.107450 -0.246330 -1.028699
													CHANNELS 6 Xposition Yposition Zposition Xrotation Yrotation Zrotation
													End Site
													{
														OFFSET -0.010895 -0.417801 0.001160
													}
												}
												JOINT orbicularis03.R
												{
													OFFSET -0.107450 -0.246330 -1.028699
													CHANNELS 6 Xposition Yposition Zposition Xrotation Yrotation Zrotation
													End Site
													{
														OFFSET -0.009646 -0.390291 0.120629
													}
												}
												JOINT orbicularis04.R
												{
													OFFSET -0.107450 -0.246330 -1.028699
													CHANNELS 6 Xposition Yposition Zposition Xrotation Yrotation Zrotation
													End Site
													{
														OFFSET -0.011095 -0.398117 -0.118242
													}
												}
											}
										}
										JOINT temporalis01.L
										{
											OFFSET 0.639200 -0.615180 0.421099
											CHANNELS 6 Xposition Yposition Zposition Xrotation Yrotation Zrotation
											JOINT oculi02.L
											{
												OFFSET -0.073610 -0.154360 0.007101
												CHANNELS 6 Xposition Yposition Zposition Xrotation Yrotation Zrotation
												JOINT oculi01.L
												{
													OFFSET -0.225600 -0.218100 0.146099
													CHANNELS 6 Xposition Yposition Zposition Xrotation Yrotation Zrotation
													End Site
													{
														OFFSET -0.175880 -0.061063 0.022470
													}
												}
											}
										}
										JOINT temporalis01.R
										{
											OFFSET -0.639200 -0.615180 0.421099
											CHANNELS 6 Xposition Yposition Zposition Xrotation Yrotation Zrotation
											JOINT oculi02.R
											{
												OFFSET 0.073610 -0.154360 0.007101
												CHANNELS 6 Xposition Yposition Zposition Xrotation Yrotation Zrotation
												JOINT oculi01.R
												{
													OFFSET 0.225600 -0.218100 0.146099
													CHANNELS 6 Xposition Yposition Zposition Xrotation Yrotation Zrotation
													End Site
													{
														OFFSET 0.175880 -0.061063 0.022470
													}
												}
											}
										}
										JOINT temporalis02.L
										{
											OFFSET 0.644400 -0.597290 0.197700
											CHANNELS 6 Xposition Yposition Zposition Xrotation Yrotation Zrotation
											JOINT risorius02.L
											{
												OFFSET -0.079350 -0.159350 0.034400
												CHANNELS 6 Xposition Yposition Zposition Xrotation Yrotation Zrotation
												JOINT risorius03.L
												{
													OFFSET -0.064460 -0.075300 -0.254101
													CHANNELS 6 Xposition Yposition Zposition Xrotation Yrotation Zrotation
													End Site
													{
														OFFSET 0.025657 0.158557 -0.192436
													}
												}
											}
										}
										JOINT temporalis02.R
										{
											OFFSET -0.644400 -0.597290 0.197700
											CHANNELS 6 Xposition Yposition Zposition Xrotation Yrotation Zrotation
											JOINT risorius02.R
											{
												OFFSET 0.079260 -0.159350 0.034400
												CHANNELS 6 Xposition Yposition Zposition Xrotation Yrotation Zrotation
												JOINT risorius03.R
												{
													OFFSET 0.064550 -0.075300 -0.254101
													CHANNELS 6 Xposition Yposition Zposition Xrotation Yrotation Zrotation
													End Site
													{
														OFFSET -0.025657 0.158557 -0.192436
													}
												}
											}
										}
									}
								}
							}
						}
					}
				}
			}
		}
	}
	JOINT pelvis.L
	{
		OFFSET 0.000000 -0.747100 0.092811
		CHANNELS 6 Xposition Yposition Zposition Xrotation Yrotation Zrotation
		JOINT upperleg01.L
		{
			OFFSET 0.937130 -0.001960 -0.153380
			CHANNELS 6 Xposition Yposition Zposition Xrotation Yrotation Zrotation
			JOINT upperleg02.L
			{
				OFFSET 0.066270 -0.188820 -0.618761
				CHANNELS 6 Xposition Yposition Zposition Xrotation Yrotation Zrotation
				JOINT lowerleg01.L
				{
					OFFSET 0.358400 -0.063880 -3.347119
					CHANNELS 6 Xposition Yposition Zposition Xrotation Yrotation Zrotation
					JOINT lowerleg02.L
					{
						OFFSET 0.135500 0.154660 -2.100400
						CHANNELS 6 Xposition Yposition Zposition Xrotation Yrotation Zrotation
						JOINT foot.L
						{
							OFFSET 0.135600 0.154660 -2.100500
							CHANNELS 6 Xposition Yposition Zposition Xrotation Yrotation Zrotation
							JOINT toe1-1.L
							{
								OFFSET 0.056700 -1.075440 -0.583800
								CHANNELS 6 Xposition Yposition Zposition Xrotation Yrotation Zrotation
								End Site
								{
									OFFSET 0.042948 -0.728792 0.096843
								}
							}
						}
					}
				}
			}
		}
	}
	JOINT pelvis.R
	{
		OFFSET 0.000000 -0.747100 0.092811
		CHANNELS 6 Xposition Yposition Zposition Xrotation Yrotation Zrotation
		JOINT upperleg01.R
		{
			OFFSET -0.937130 -0.001960 -0.153380
			CHANNELS 6 Xposition Yposition Zposition Xrotation Yrotation Zrotation
			JOINT upperleg02.R
			{
				OFFSET -0.065770 -0.188820 -0.618761
				CHANNELS 6 Xposition Yposition Zposition Xrotation Yrotation Zrotation
				JOINT lowerleg01.R
				{
					OFFSET -0.358900 -0.063880 -3.347119
					CHANNELS 6 Xposition Yposition Zposition Xrotation Yrotation Zrotation
					JOINT lowerleg02.R
					{
						OFFSET -0.135500 0.154660 -2.100400
						CHANNELS 6 Xposition Yposition Zposition Xrotation Yrotation Zrotation
						JOINT foot.R
						{
							OFFSET -0.135600 0.154660 -2.100500
							CHANNELS 6 Xposition Yposition Zposition Xrotation Yrotation Zrotation
							JOINT toe1-1.R
							{
								OFFSET -0.056700 -1.075440 -0.583800
								CHANNELS 6 Xposition Yposition Zposition Xrotation Yrotation Zrotation
								End Site
								{
									OFFSET -0.042948 -0.728792 0.096843
								}
							}
						}
					}
				}
			}
		}
	}
}
MOTION
Frames: 1
Frame Time: 0.041667
0.000000 0.527280 0 -0.000000 0.000000 -0.000000 0.000000 -0.747100 0.092810 -0.000000 0.000000 -0.000000 -0.000000 0.424880 0.530140 -0.098694 7.352553 5.347041 0.000000 -0.146098 0.560399 -0.000001 0.000000 -0.000000 0.000000 -0.131039 0.858101 0.000468 -3.699932 3.501742 0.500000 -0.618289 1.534969 0.000000 0.000001 -0.000001 -0.500000 -0.618289 1.534972 -0.000000 0.000000 0.000002 0.000000 0.043860 1.721402 0.002569 -4.455501 0.066064 0.260820 -0.200753 0.901198 -0.112954 -6.123154 0.343506 0.730800 -0.003480 0.213601 3.182294 -3.112413 5.885878 0.547281 0.034110 -0.372498 -0.756513 -16.523264 4.977864 0.562301 0.021590 -0.571401 -14.231598 -1.272842 16.002264 1.138399 -0.057989 -1.278400 -19.543299 -29.566400 5.143501 0.581501 -0.757370 -0.629101 -27.701319 21.734885 29.154850 0.581499 -0.757391 -0.629100 24.342700 9.492965 -45.141256 0.010199 -0.389099 -0.076400 5.383425 -5.496161 0.433428 -0.187400 -0.184799 -0.080699 6.750606 -3.068305 1.070120 -0.109499 -0.272300 -0.130299 19.877343 -7.003648 4.361620 0.095800 -0.228899 -0.145201 -0.000001 -0.000010 -0.000005 0.154200 -0.605500 -0.235199 16.557104 8.634612 -11.310284 0.030199 -0.181000 -0.137501 4.113845 2.475230 -2.674277 -0.005700 -0.140901 -0.148901 15.162106 7.251950 -10.880907 0.095800 -0.228899 -0.145200 -0.000002 -0.000004 -0.000004 0.297301 -0.441300 -0.327299 13.254546 14.347273 -10.017717 0.065199 -0.177400 -0.236499 3.232617 3.630727 -2.573479 0.022701 -0.149900 -0.195801 12.388046 12.439405 -9.936423 0.199700 -0.132999 -0.278700 0.000001 -0.000003 -0.000006 0.258101 -0.386000 -0.260099 10.992226 17.170635 -7.589595 0.087500 -0.120900 -0.221700 2.741609 4.284670 -2.067776 0.036302 -0.107701 -0.188299 10.445224 15.357064 -7.482569 0.199699 -0.132998 -0.278699 -0.000004 -0.000004 -0.000007 0.274800 -0.212699 -0.333998 6.626978 19.387781 -6.513443 0.053800 -0.061101 -0.171298 1.561173 4.950827 -1.734937 0.016001 -0.048500 -0.130499 6.308654 17.595788 -6.541966 -0.260820 -0.200753 0.901197 -0.000000 0.000000 -0.000001 -0.730800 -0.003480 0.213599 0.000001 -0.000003 -0.000000 -0.547280 0.034110 -0.372500 16.177694 -29.184350 -7.505802 -0.518200 0.013000 -0.571199 0.000000 -0.000001 0.000001 -1.182500 -0.049400 -1.278601 0.000001 -0.000002 -0.000001 -0.581499 -0.757371 -0.629101 -0.000000 0.000001 -0.000002 -0.581499 -0.757390 -0.629100 0.768750 2.564697 -4.324896 -0.010199 -0.389100 -0.076400 8.434478 8.540550 -0.904187 0.187400 -0.184801 -0.080700 17.454104 7.540009 -3.452281 0.109501 -0.272301 -0.130299 36.615828 11.297288 -9.577584 -0.095800 -0.228900 -0.145200 0.000001 0.000004 0.000000 -0.154198 -0.605500 -0.235201 21.034845 -10.255836 14.561758 -0.030199 -0.181000 -0.137500 15.936069 -8.140133 10.837349 0.005700 -0.140901 -0.148903 19.958250 -8.816255 14.485182 -0.095799 -0.228900 -0.145199 -0.000004 0.000003 -0.000001 -0.297301 -0.441301 -0.327300 17.125473 -17.551170 13.168946 -0.065199 -0.177402 -0.236500 12.997413 -12.664510 10.717427 -0.022700 -0.149900 -0.195801 16.599740 -15.676389 13.497911 -0.199700 -0.133000 -0.278700 0.000000 0.000002 0.000000 -0.258100 -0.386001 -0.260100 14.302367 -21.233515 10.160234 -0.087500 -0.120901 -0.221702 11.190682 -15.349694 8.889935 -0.036302 -0.107701 -0.188301 14.106738 -19.622768 10.377782 -0.199700 -0.133000 -0.278699 -0.000002 0.000000 0.000004 -0.274800 -0.212701 -0.334000 8.803369 -24.139197 8.665823 -0.053800 -0.061101 -0.171301 6.754770 -18.133560 7.340834 -0.016000 -0.048501 -0.130500 8.726070 -22.670400 9.019001 -0.000000 0.024172 1.633900 6.101818 -1.806375 14.520808 -0.000000 -0.093414 0.403300 0.000001 -0.000001 0.000001 0.000000 0.025619 0.450100 0.000002 -0.000000 -0.000002 0.000000 -0.306922 0.221402 -0.076156 0.572007 15.160792 -0.000000 -0.186059 0.001400 -0.000000 0.000000 0.000001 -0.000000 -0.464482 -0.712400 -0.000000 0.000000 -0.000000 -0.000000 -0.269300 0.173000 0.000003 0.000001 0.000002 -0.000000 -0.083600 0.105997 -0.000002 -0.000000 0.000000 0.000000 -0.269299 0.173001 -0.000004 -0.000001 0.000000 0.106760 -0.053600 0.036399 -0.000001 0.000000 0.000002 -0.000001 -0.269300 0.173000 0.000000 -0.000005 -0.000000 -0.106759 -0.053600 0.035798 0.000001 0.000001 0.000002 -0.000000 -0.464482 -0.712400 0.000002 -0.000003 -0.000001 0.000000 0.411919 0.397499 -0.000001 0.000000 0.000001 -0.000000 -0.304280 0.055799 0.000001 -0.000001 0.000003 0.000000 -0.210340 -0.003698 0.000000 0.000001 0.000002 0.000000 -0.086200 -0.048498 -0.000002 0.000000 0.000002 0.000001 -0.086201 -0.048496 0.000003 0.000000 0.000003 0.000001 -0.086201 -0.048497 -0.000000 -0.000001 0.000006 0.000000 -0.210340 -0.003698 0.000000 0.000001 0.000003 -0.000000 -0.210340 -0.003700 0.000001 -0.000001 0.000002 0.000000 -0.304280 0.055799 0.000001 -0.000001 0.000001 -0.000000 -0.304281 0.055798 0.000003 -0.000001 0.000001 0.031653 -1.116139 0.219398 -0.000003 0.000001 -0.000000 0.167157 0.130501 -0.161498 -0.000004 -0.000001 0.000002 0.051110 -0.000100 -0.171297 0.000001 -0.000001 -0.000004 0.014069 0.030900 -0.156898 -0.000002 -0.000001 -0.000003 -0.031653 -1.116139 0.219400 -0.000003 0.000000 -0.000002 -0.167158 0.130501 -0.161500 -0.000000 -0.000001 0.000004 -0.051111 -0.001000 -0.174200 -0.000000 -0.000000 -0.000004 -0.014070 0.031799 -0.153997 0.000003 -0.000003 0.000005 -0.000000 0.593810 -0.063802 -0.000001 0.000001 -0.000001 0.000000 -1.693150 -0.050301 -0.000000 -0.000002 -0.000002 0.127419 0.026299 -0.063401 -0.000001 -0.000007 -0.000000 0.000000 -1.693150 -0.050301 0.000001 0.000001 -0.000000 -0.127420 0.026300 -0.064602 -0.000001 0.000002 -0.000001 0.000000 -1.693150 -0.050301 -0.000002 0.000000 -0.000000 0.000000 -0.018300 -0.061099 0.000001 0.000001 0.000001 -0.000000 -0.186060 0.001401 -0.000000 0.000000 -0.000000 0.060459 -1.015279 0.028200 -0.000003 0.000001 -0.000001 -0.060459 -1.015280 0.025600 0.000001 -0.000000 0.000002 0.000000 0.055750 1.460295 -0.000000 0.000000 -0.000004 0.202540 -0.561959 -0.090899 -0.000002 0.000001 -0.000003 0.107450 -0.246330 -1.028698 -0.000000 0.000001 0.000001 0.107450 -0.246331 -1.028700 3.652777 0.000001 0.000002 0.107450 -0.246331 -1.028696 0.000001 -0.000000 0.000005 -0.000000 0.055750 1.460295 -0.000000 0.000000 -0.000001 -0.202540 -0.561959 -0.090902 -0.000002 0.000001 -0.000002 -0.107450 -0.246330 -1.028699 -0.000001 -0.000001 -0.000001 -0.107450 -0.246330 -1.028700 3.652774 -0.000001 -0.000002 -0.107450 -0.246330 -1.028697 -0.000000 0.000000 -0.000002 0.639199 -0.615180 0.421097 0.000000 0.000002 -0.000000 -0.073610 -0.154361 0.007101 0.000001 -0.000001 0.000001 -0.225601 -0.218101 0.146099 -0.000002 -0.000003 -0.000003 -0.639200 -0.615180 0.421096 -0.000001 0.000002 0.000001 0.073611 -0.154360 0.007101 0.000001 0.000002 -0.000003 0.225600 -0.218099 0.146100 -0.000000 -0.000000 0.000003 0.644400 -0.597290 0.197697 -0.000000 -0.000000 -0.000002 -0.079349 -0.159349 0.034404 -0.000002 0.000002 0.000004 -0.064460 -0.075299 -0.254103 -0.000004 -0.000001 -0.000000 -0.644400 -0.597291 0.197699 -0.000000 0.000001 -0.000005 0.079260 -0.159350 0.034397 0.000003 0.000000 -0.000003 0.064550 -0.075300 -0.254102 -0.000000 0.000005 0.000003 -0.000000 -0.747101 0.092811 0.000002 -0.000000 -0.000000 0.937130 -0.001960 -0.153380 0.127934 4.189458 -1.275304 0.066270 -0.188820 -0.618759 0.000002 0.000000 0.000000 0.358400 -0.063880 -3.347120 -0.000000 0.000001 0.000000 0.135500 0.154660 -2.100399 -0.000000 0.000001 -0.000000 0.135600 0.154660 -2.100500 -2.407125 -0.037611 -0.159130 0.056700 -1.075440 -0.583800 0.000002 0.000000 0.000001 0.000000 -0.747100 0.092810 0.000000 0.000000 0.000000 -0.937130 -0.001960 -0.153382 -5.568374 0.037416 0.573798 -0.065770 -0.188821 -0.618760 0.000002 -0.000001 -0.000000 -0.358900 -0.063880 -3.347118 19.287479 -0.533624 -1.190328 -0.135500 0.154660 -2.100400 0.000001 0.000000 0.000000 -0.135600 0.154660 -2.100500 -4.936678 0.069894 0.327886 -0.056700 -1.075440 -0.583800 -0.000002 0.000000 -0.000001 
