HIERARCHY
ROOT root
{
	OFFSET 0.000000 0.623230 0.084233
	CHANNELS 6 Xposition Yposition Zposition Xrotation Yrotation Zrotation
	JOINT spine05
	{
		OFFSET 0.000000 -0.856810 -0.018050
		CHANNELS 6 Xposition Yposition Zposition Xrotation Yrotation Zrotation
		JOINT spine04
		{
			OFFSET 0.000000 0.455750 0.721247
			CHANNELS 6 Xposition Yposition Zposition Xrotation Yrotation Zrotation
			JOINT spine03
			{
				OFFSET 0.000000 -0.218720 0.626770
				CHANNELS 6 Xposition Yposition Zposition Xrotation Yrotation Zrotation
				JOINT spine02
				{
					OFFSET 0.000000 -0.121320 0.902100
					CHANNELS 6 Xposition Yposition Zposition Xrotation Yrotation Zrotation
					JOINT breast.L
					{
						OFFSET 0.000000 -0.009630 1.523100
						CHANNELS 6 Xposition Yposition Zposition Xrotation Yrotation Zrotation
						End Site
						{
							OFFSET 1.039972 -1.450110 -0.397414
						}
					}
					JOINT breast.R
					{
						OFFSET 0.000000 -0.009630 1.523100
						CHANNELS 6 Xposition Yposition Zposition Xrotation Yrotation Zrotation
						End Site
						{
							OFFSET -1.039972 -1.450110 -0.397414
						}
					}
					JOINT spine01
					{
						OFFSET 0.000000 -0.009630 1.523100
						CHANNELS 6 Xposition Yposition Zposition Xrotation Yrotation Zrotation
						JOINT clavicle.L
						{
							OFFSET 0.226970 -0.081420 0.747700
							CHANNELS 6 Xposition Yposition Zposition Xrotation Yrotation Zrotation
							JOINT shoulder01.L
							{
								OFFSET 0.666090 -0.002570 0.184500
								CHANNELS 6 Xposition Yposition Zposition Xrotation Yrotation Zrotation
								JOINT upperarm01.L
								{
									OFFSET 0.642840 0.003610 -0.336500
									CHANNELS 6 Xposition Yposition Zposition Xrotation Yrotation Zrotation
									JOINT upperarm02.L
									{
										OFFSET 0.550000 0.012140 -0.576000
										CHANNELS 6 Xposition Yposition Zposition Xrotation Yrotation Zrotation
										JOINT lowerarm01.L
										{
											OFFSET 1.019000 -0.050400 -1.137400
											CHANNELS 6 Xposition Yposition Zposition Xrotation Yrotation Zrotation
											JOINT lowerarm02.L
											{
												OFFSET 0.546500 -0.671870 -0.598900
												CHANNELS 6 Xposition Yposition Zposition Xrotation Yrotation Zrotation
												JOINT wrist.L
												{
													OFFSET 0.546500 -0.671890 -0.598900
													CHANNELS 6 Xposition Yposition Zposition Xrotation Yrotation Zrotation
													JOINT finger1-1.L
													{
														OFFSET 0.010400 -0.390200 -0.084100
														CHANNELS 6 Xposition Yposition Zposition Xrotation Yrotation Zrotation
														JOINT finger1-2.L
														{
															OFFSET -0.190100 -0.186300 -0.088200
															CHANNELS 6 Xposition Yposition Zposition Xrotation Yrotation Zrotation
															JOINT finger1-3.L
															{
																OFFSET -0.111400 -0.272400 -0.139500
																CHANNELS 6 Xposition Yposition Zposition Xrotation Yrotation Zrotation
																End Site
																{
																	OFFSET -0.049958 -0.189100 -0.167713
																}
															}
														}
													}
													JOINT metacarpal1.L
													{
														OFFSET 0.097200 -0.225400 -0.150400
														CHANNELS 6 Xposition Yposition Zposition Xrotation Yrotation Zrotation
														JOINT finger2-1.L
														{
															OFFSET 0.156500 -0.609100 -0.254500
															CHANNELS 6 Xposition Yposition Zposition Xrotation Yrotation Zrotation
															JOINT finger2-2.L
															{
																OFFSET 0.030700 -0.180600 -0.144610
																CHANNELS 6 Xposition Yposition Zposition Xrotation Yrotation Zrotation
																JOINT finger2-3.L
																{
																	OFFSET -0.005600 -0.139600 -0.153870
																	CHANNELS 6 Xposition Yposition Zposition Xrotation Yrotation Zrotation
																	End Site
																	{
																		OFFSET -0.035634 -0.152075 -0.192573
																	}
																}
															}
														}
													}
													JOINT metacarpal2.L
													{
														OFFSET 0.097200 -0.225400 -0.150400
														CHANNELS 6 Xposition Yposition Zposition Xrotation Yrotation Zrotation
														JOINT finger3-1.L
														{
															OFFSET 0.302000 -0.440200 -0.344400
															CHANNELS 6 Xposition Yposition Zposition Xrotation Yrotation Zrotation
															JOINT finger3-2.L
															{
																OFFSET 0.064900 -0.175200 -0.244030
																CHANNELS 6 Xposition Yposition Zposition Xrotation Yrotation Zrotation
																JOINT finger3-3.L
																{
																	OFFSET 0.023700 -0.147000 -0.203310
																	CHANNELS 6 Xposition Yposition Zposition Xrotation Yrotation Zrotation
																	End Site
																	{
																		OFFSET -0.002059 -0.125596 -0.211034
																	}
																}
															}
														}
													}
													JOINT metacarpal3.L
													{
														OFFSET 0.203100 -0.124500 -0.283400
														CHANNELS 6 Xposition Yposition Zposition Xrotation Yrotation Zrotation
														JOINT finger4-1.L
														{
															OFFSET 0.262900 -0.385300 -0.275310
															CHANNELS 6 Xposition Yposition Zposition Xrotation Yrotation Zrotation
															JOINT finger4-2.L
															{
																OFFSET 0.083700 -0.117600 -0.227080
																CHANNELS 6 Xposition Yposition Zposition Xrotation Yrotation Zrotation
																JOINT finger4-3.L
																{
																	OFFSET 0.037400 -0.102900 -0.195970
																	CHANNELS 6 Xposition Yposition Zposition Xrotation Yrotation Zrotation
																	End Site
																	{
																		OFFSET 0.023761 -0.093210 -0.223288
																	}
																}
															}
														}
													}
													JOINT metacarpal4.L
													{
														OFFSET 0.203100 -0.124500 -0.283400
														CHANNELS 6 Xposition Yposition Zposition Xrotation Yrotation Zrotation
														JOINT finger5-1.L
														{
															OFFSET 0.277500 -0.208800 -0.344610
															CHANNELS 6 Xposition Yposition Zposition Xrotation Yrotation Zrotation
															JOINT finger5-2.L
															{
																OFFSET 0.052900 -0.058100 -0.176240
																CHANNELS 6 Xposition Yposition Zposition Xrotation Yrotation Zrotation
																JOINT finger5-3.L
																{
																	OFFSET 0.015600 -0.045700 -0.133050
																	CHANNELS 6 Xposition Yposition Zposition Xrotation Yrotation Zrotation
																	End Site
																	{
																		OFFSET 0.025249 -0.054764 -0.170030
																	}
																}
															}
														}
													}
												}
											}
										}
									}
								}
							}
						}
						JOINT clavicle.R
						{
							OFFSET -0.226970 -0.081420 0.747700
							CHANNELS 6 Xposition Yposition Zposition Xrotation Yrotation Zrotation
							JOINT shoulder01.R
							{
								OFFSET -0.666090 -0.002570 0.184500
								CHANNELS 6 Xposition Yposition Zposition Xrotation Yrotation Zrotation
								JOINT upperarm01.R
								{
									OFFSET -0.642840 0.003610 -0.336500
									CHANNELS 6 Xposition Yposition Zposition Xrotation Yrotation Zrotation
									JOINT upperarm02.R
									{
										OFFSET -0.550000 0.012140 -0.576000
										CHANNELS 6 Xposition Yposition Zposition Xrotation Yrotation Zrotation
										JOINT lowerarm01.R
										{
											OFFSET -1.019000 -0.050400 -1.137400
											CHANNELS 6 Xposition Yposition Zposition Xrotation Yrotation Zrotation
											JOINT lowerarm02.R
											{
												OFFSET -0.546500 -0.671870 -0.598900
												CHANNELS 6 Xposition Yposition Zposition Xrotation Yrotation Zrotation
												JOINT wrist.R
												{
													OFFSET -0.546500 -0.671890 -0.598900
													CHANNELS 6 Xposition Yposition Zposition Xrotation Yrotation Zrotation
													JOINT finger1-1.R
													{
														OFFSET -0.010400 -0.390200 -0.084100
														CHANNELS 6 Xposition Yposition Zposition Xrotation Yrotation Zrotation
														JOINT finger1-2.R
														{
															OFFSET 0.190100 -0.186300 -0.088200
															CHANNELS 6 Xposition Yposition Zposition Xrotation Yrotation Zrotation
															JOINT finger1-3.R
															{
																OFFSET 0.111400 -0.272400 -0.139500
																CHANNELS 6 Xposition Yposition Zposition Xrotation Yrotation Zrotation
																End Site
																{
																	OFFSET 0.049958 -0.189100 -0.167713
																}
															}
														}
													}
													JOINT metacarpal1.R
													{
														OFFSET -0.097200 -0.225400 -0.150400
														CHANNELS 6 Xposition Yposition Zposition Xrotation Yrotation Zrotation
														JOINT finger2-1.R
														{
															OFFSET -0.156500 -0.609100 -0.254500
															CHANNELS 6 Xposition Yposition Zposition Xrotation Yrotation Zrotation
															JOINT finger2-2.R
															{
																OFFSET -0.030700 -0.180600 -0.144610
																CHANNELS 6 Xposition Yposition Zposition Xrotation Yrotation Zrotation
																JOINT finger2-3.R
																{
																	OFFSET 0.005600 -0.139600 -0.153870
																	CHANNELS 6 Xposition Yposition Zposition Xrotation Yrotation Zrotation
																	End Site
																	{
																		OFFSET 0.035634 -0.152075 -0.192573
																	}
																}
															}
														}
													}
													JOINT metacarpal2.R
													{
														OFFSET -0.097200 -0.225400 -0.150400
														CHANNELS 6 Xposition Yposition Zposition Xrotation Yrotation Zrotation
														JOINT finger3-1.R
														{
															OFFSET -0.302000 -0.440200 -0.344400
															CHANNELS 6 Xposition Yposition Zposition Xrotation Yrotation Zrotation
															JOINT finger3-2.R
															{
																OFFSET -0.064900 -0.175200 -0.244030
																CHANNELS 6 Xposition Yposition Zposition Xrotation Yrotation Zrotation
																JOINT finger3-3.R
																{
																	OFFSET -0.023700 -0.147000 -0.203310
																	CHANNELS 6 Xposition Yposition Zposition Xrotation Yrotation Zrotation
																	End Site
																	{
																		OFFSET 0.002059 -0.125596 -0.211034
																	}
																}
															}
														}
													}
													JOINT metacarpal3.R
													{
														OFFSET -0.203100 -0.124500 -0.283400
														CHANNELS 6 Xposition Yposition Zposition Xrotation Yrotation Zrotation
														JOINT finger4-1.R
														{
															OFFSET -0.262900 -0.385300 -0.275310
															CHANNELS 6 Xposition Yposition Zposition Xrotation Yrotation Zrotation
															JOINT finger4-2.R
															{
																OFFSET -0.083700 -0.117600 -0.227080
																CHANNELS 6 Xposition Yposition Zposition Xrotation Yrotation Zrotation
																JOINT finger4-3.R
																{
																	OFFSET -0.037400 -0.102900 -0.195970
																	CHANNELS 6 Xposition Yposition Zposition Xrotation Yrotation Zrotation
																	End Site
																	{
																		OFFSET -0.023761 -0.093210 -0.223288
																	}
																}
															}
														}
													}
													JOINT metacarpal4.R
													{
														OFFSET -0.203100 -0.124500 -0.283400
														CHANNELS 6 Xposition Yposition Zposition Xrotation Yrotation Zrotation
														JOINT finger5-1.R
														{
															OFFSET -0.277500 -0.208800 -0.344610
															CHANNELS 6 Xposition Yposition Zposition Xrotation Yrotation Zrotation
															JOINT finger5-2.R
															{
																OFFSET -0.052900 -0.058100 -0.176240
																CHANNELS 6 Xposition Yposition Zposition Xrotation Yrotation Zrotation
																JOINT finger5-3.R
																{
																	OFFSET -0.015600 -0.045700 -0.133050
																	CHANNELS 6 Xposition Yposition Zposition Xrotation Yrotation Zrotation
																	End Site
																	{
																		OFFSET -0.025249 -0.054764 -0.170030
																	}
																}
															}
														}
													}
												}
											}
										}
									}
								}
							}
						}
						JOINT neck01
						{
							OFFSET 0.000000 0.140700 1.426000
							CHANNELS 6 Xposition Yposition Zposition Xrotation Yrotation Zrotation
							JOINT neck02
							{
								OFFSET 0.000000 -0.205640 0.396000
								CHANNELS 6 Xposition Yposition Zposition Xrotation Yrotation Zrotation
								JOINT neck03
								{
									OFFSET 0.000000 -0.100290 0.364300
									CHANNELS 6 Xposition Yposition Zposition Xrotation Yrotation Zrotation
									JOINT head
									{
										OFFSET 0.000000 -0.116850 0.290700
										CHANNELS 6 Xposition Yposition Zposition Xrotation Yrotation Zrotation
										JOINT jaw
										{
											OFFSET 0.000000 -0.131540 0.047300
											CHANNELS 6 Xposition Yposition Zposition Xrotation Yrotation Zrotation
											JOINT special04
											{
												OFFSET 0.000000 -0.435480 -0.690200
												CHANNELS 6 Xposition Yposition Zposition Xrotation Yrotation Zrotation
												JOINT oris02
												{
													OFFSET 0.000000 -0.265500 0.153200
													CHANNELS 6 Xposition Yposition Zposition Xrotation Yrotation Zrotation
													JOINT oris01
													{
														OFFSET 0.000000 -0.107100 0.085600
														CHANNELS 6 Xposition Yposition Zposition Xrotation Yrotation Zrotation
														End Site
														{
															OFFSET 0.000000 -0.058685 0.130906
														}
													}
												}
												JOINT oris06.L
												{
													OFFSET 0.000000 -0.265500 0.153200
													CHANNELS 6 Xposition Yposition Zposition Xrotation Yrotation Zrotation
													JOINT oris07.L
													{
														OFFSET 0.120230 -0.081800 0.041800
														CHANNELS 6 Xposition Yposition Zposition Xrotation Yrotation Zrotation
														End Site
														{
															OFFSET 0.045266 -0.029901 0.116401
														}
													}
												}
												JOINT oris06.R
												{
													OFFSET 0.000000 -0.265500 0.153200
													CHANNELS 6 Xposition Yposition Zposition Xrotation Yrotation Zrotation
													JOINT oris07.R
													{
														OFFSET -0.120230 -0.081800 0.041800
														CHANNELS 6 Xposition Yposition Zposition Xrotation Yrotation Zrotation
														End Site
														{
															OFFSET -0.045266 -0.029901 0.116401
														}
													}
												}
											}
											JOINT tongue00
											{
												OFFSET 0.000000 -0.435480 -0.690200
												CHANNELS 6 Xposition Yposition Zposition Xrotation Yrotation Zrotation
												JOINT tongue01
												{
													OFFSET 0.000000 0.347970 0.394900
													CHANNELS 6 Xposition Yposition Zposition Xrotation Yrotation Zrotation
													JOINT tongue02
													{
														OFFSET 0.000000 -0.283150 0.039900
														CHANNELS 6 Xposition Yposition Zposition Xrotation Yrotation Zrotation
														JOINT tongue03
														{
															OFFSET 0.000000 -0.198820 0.000700
															CHANNELS 6 Xposition Yposition Zposition Xrotation Yrotation Zrotation
															JOINT tongue04
															{
																OFFSET 0.000000 -0.080900 -0.043100
																CHANNELS 6 Xposition Yposition Zposition Xrotation Yrotation Zrotation
																End Site
																{
																	OFFSET 0.000000 -0.080888 -0.043124
																}
															}
															JOINT tongue07.L
															{
																OFFSET 0.000000 -0.080900 -0.043100
																CHANNELS 6 Xposition Yposition Zposition Xrotation Yrotation Zrotation
																End Site
																{
																	OFFSET 0.111930 -0.001292 -0.033400
																}
															}
															JOINT tongue07.R
															{
																OFFSET 0.000000 -0.080900 -0.043100
																CHANNELS 6 Xposition Yposition Zposition Xrotation Yrotation Zrotation
																End Site
																{
																	OFFSET -0.111930 -0.001292 -0.033400
																}
															}
														}
														JOINT tongue06.L
														{
															OFFSET 0.000000 -0.198820 0.000700
															CHANNELS 6 Xposition Yposition Zposition Xrotation Yrotation Zrotation
															End Site
															{
																OFFSET 0.158187 0.020665 -0.052814
															}
														}
														JOINT tongue06.R
														{
															OFFSET 0.000000 -0.198820 0.000700
															CHANNELS 6 Xposition Yposition Zposition Xrotation Yrotation Zrotation
															End Site
															{
																OFFSET -0.158187 0.020665 -0.052814
															}
														}
													}
													JOINT tongue05.L
													{
														OFFSET 0.000000 -0.283150 0.039900
														CHANNELS 6 Xposition Yposition Zposition Xrotation Yrotation Zrotation
														End Site
														{
															OFFSET 0.190000 -0.021983 -0.038701
														}
													}
													JOINT tongue05.R
													{
														OFFSET 0.000000 -0.283150 0.039900
														CHANNELS 6 Xposition Yposition Zposition Xrotation Yrotation Zrotation
														End Site
														{
															OFFSET -0.190000 -0.021983 -0.038701
														}
													}
												}
											}
										}
										JOINT levator02.L
										{
											OFFSET 0.033033 -0.996820 0.215600
											CHANNELS 6 Xposition Yposition Zposition Xrotation Yrotation Zrotation
											JOINT levator03.L
											{
												OFFSET 0.161037 0.114900 -0.133700
												CHANNELS 6 Xposition Yposition Zposition Xrotation Yrotation Zrotation
												JOINT levator04.L
												{
													OFFSET 0.056100 -0.005900 -0.166500
													CHANNELS 6 Xposition Yposition Zposition Xrotation Yrotation Zrotation
													JOINT levator05.L
													{
														OFFSET 0.016860 -0.005100 -0.156900
														CHANNELS 6 Xposition Yposition Zposition Xrotation Yrotation Zrotation
														End Site
														{
															OFFSET -0.026846 -0.001266 -0.079805
														}
													}
												}
											}
										}
										JOINT levator02.R
										{
											OFFSET -0.033033 -0.996820 0.215600
											CHANNELS 6 Xposition Yposition Zposition Xrotation Yrotation Zrotation
											JOINT levator03.R
											{
												OFFSET -0.161037 0.114900 -0.133700
												CHANNELS 6 Xposition Yposition Zposition Xrotation Yrotation Zrotation
												JOINT levator04.R
												{
													OFFSET -0.056100 -0.005900 -0.166500
													CHANNELS 6 Xposition Yposition Zposition Xrotation Yrotation Zrotation
													JOINT levator05.R
													{
														OFFSET -0.016860 -0.005100 -0.156900
														CHANNELS 6 Xposition Yposition Zposition Xrotation Yrotation Zrotation
														End Site
														{
															OFFSET 0.026846 -0.001266 -0.079805
														}
													}
												}
											}
										}
										JOINT special01
										{
											OFFSET 0.000000 0.594880 -0.043000
											CHANNELS 6 Xposition Yposition Zposition Xrotation Yrotation Zrotation
											JOINT oris04.L
											{
												OFFSET 0.000000 -1.604300 -0.038300
												CHANNELS 6 Xposition Yposition Zposition Xrotation Yrotation Zrotation
												JOINT oris03.L
												{
													OFFSET 0.127770 0.023400 -0.055200
													CHANNELS 6 Xposition Yposition Zposition Xrotation Yrotation Zrotation
													End Site
													{
														OFFSET 0.030250 0.005130 -0.055203
													}
												}
											}
											JOINT oris04.R
											{
												OFFSET 0.000000 -1.604300 -0.038300
												CHANNELS 6 Xposition Yposition Zposition Xrotation Yrotation Zrotation
												JOINT oris03.R
												{
													OFFSET -0.127770 0.023400 -0.055200
													CHANNELS 6 Xposition Yposition Zposition Xrotation Yrotation Zrotation
													End Site
													{
														OFFSET -0.030250 0.005130 -0.055203
													}
												}
											}
											JOINT oris06
											{
												OFFSET 0.000000 -1.604300 -0.038300
												CHANNELS 6 Xposition Yposition Zposition Xrotation Yrotation Zrotation
												JOINT oris05
												{
													OFFSET 0.000000 -0.009500 -0.038600
													CHANNELS 6 Xposition Yposition Zposition Xrotation Yrotation Zrotation
													End Site
													{
														OFFSET 0.000000 -0.028374 -0.060212
													}
												}
											}
										}
										JOINT special03
										{
											OFFSET 0.000000 -0.131540 0.047300
											CHANNELS 6 Xposition Yposition Zposition Xrotation Yrotation Zrotation
											JOINT levator06.L
											{
												OFFSET 0.054900 -0.957580 -0.017300
												CHANNELS 6 Xposition Yposition Zposition Xrotation Yrotation Zrotation
												End Site
												{
													OFFSET 0.110752 0.181610 0.016198
												}
											}
											JOINT levator06.R
											{
												OFFSET -0.054900 -0.957580 -0.017300
												CHANNELS 6 Xposition Yposition Zposition Xrotation Yrotation Zrotation
												End Site
												{
													OFFSET -0.110752 0.181610 0.016198
												}
											}
										}
										JOINT special06.L
										{
											OFFSET 0.000000 0.073460 1.401900
											CHANNELS 6 Xposition Yposition Zposition Xrotation Yrotation Zrotation
											JOINT special05.L
											{
												OFFSET 0.183700 -0.496550 -0.101100
												CHANNELS 6 Xposition Yposition Zposition Xrotation Yrotation Zrotation
												JOINT eye.L
												{
													OFFSET 0.100590 -0.265030 -0.939800
													CHANNELS 6 Xposition Yposition Zposition Xrotation Yrotation Zrotation
													End Site
													{
														OFFSET 0.012976 -0.382902 -0.004242
													}
												}
												JOINT orbicularis03.L
												{
													OFFSET 0.100590 -0.265030 -0.939800
													CHANNELS 6 Xposition Yposition Zposition Xrotation Yrotation Zrotation
													End Site
													{
														OFFSET 0.012251 -0.359293 0.111619
													}
												}
												JOINT orbicularis04.L
												{
													OFFSET 0.100590 -0.265030 -0.939800
													CHANNELS 6 Xposition Yposition Zposition Xrotation Yrotation Zrotation
													End Site
													{
														OFFSET 0.013260 -0.361983 -0.117949
													}
												}
											}
										}
										JOINT special06.R
										{
											OFFSET 0.000000 0.073460 1.401900
											CHANNELS 6 Xposition Yposition Zposition Xrotation Yrotation Zrotation
											JOINT special05.R
											{
												OFFSET -0.183700 -0.496550 -0.101100
												CHANNELS 6 Xposition Yposition Zposition Xrotation Yrotation Zrotation
												JOINT eye.R
												{
													OFFSET -0.100590 -0.265030 -0.939800
													CHANNELS 6 Xposition Yposition Zposition Xrotation Yrotation Zrotation
													End Site
													{
														OFFSET -0.012976 -0.382902 -0.004242
													}
												}
												JOINT orbicularis03.R
												{
													OFFSET -0.100590 -0.265030 -0.939800
													CHANNELS 6 Xposition Yposition Zposition Xrotation Yrotation Zrotation
													End Site
													{
														OFFSET -0.012251 -0.359293 0.111619
													}
												}
												JOINT orbicularis04.R
												{
													OFFSET -0.100590 -0.265030 -0.939800
													CHANNELS 6 Xposition Yposition Zposition Xrotation Yrotation Zrotation
													End Site
													{
														OFFSET -0.013260 -0.361983 -0.117949
													}
												}
											}
										}
										JOINT temporalis01.L
										{
											OFFSET 0.584200 -0.562290 0.428400
											CHANNELS 6 Xposition Yposition Zposition Xrotation Yrotation Zrotation
											JOINT oculi02.L
											{
												OFFSET -0.075770 -0.153230 0.006300
												CHANNELS 6 Xposition Yposition Zposition Xrotation Yrotation Zrotation
												JOINT oculi01.L
												{
													OFFSET -0.201130 -0.183400 0.147200
													CHANNELS 6 Xposition Yposition Zposition Xrotation Yrotation Zrotation
													End Site
													{
														OFFSET -0.158284 -0.042838 0.017235
													}
												}
											}
										}
										JOINT temporalis01.R
										{
											OFFSET -0.584200 -0.562290 0.428400
											CHANNELS 6 Xposition Yposition Zposition Xrotation Yrotation Zrotation
											JOINT oculi02.R
											{
												OFFSET 0.075770 -0.153230 0.006300
												CHANNELS 6 Xposition Yposition Zposition Xrotation Yrotation Zrotation
												JOINT oculi01.R
												{
													OFFSET 0.201130 -0.183400 0.147200
													CHANNELS 6 Xposition Yposition Zposition Xrotation Yrotation Zrotation
													End Site
													{
														OFFSET 0.158284 -0.042838 0.017235
													}
												}
											}
										}
										JOINT temporalis02.L
										{
											OFFSET 0.605570 -0.548450 0.210000
											CHANNELS 6 Xposition Yposition Zposition Xrotation Yrotation Zrotation
											JOINT risorius02.L
											{
												OFFSET -0.089270 -0.156970 0.045400
												CHANNELS 6 Xposition Yposition Zposition Xrotation Yrotation Zrotation
												JOINT risorius03.L
												{
													OFFSET -0.054900 -0.062700 -0.254900
													CHANNELS 6 Xposition Yposition Zposition Xrotation Yrotation Zrotation
													End Site
													{
														OFFSET 0.048396 0.147421 -0.182086
													}
												}
											}
										}
										JOINT temporalis02.R
										{
											OFFSET -0.605570 -0.548450 0.210000
											CHANNELS 6 Xposition Yposition Zposition Xrotation Yrotation Zrotation
											JOINT risorius02.R
											{
												OFFSET 0.089270 -0.156970 0.045400
												CHANNELS 6 Xposition Yposition Zposition Xrotation Yrotation Zrotation
												JOINT risorius03.R
												{
													OFFSET 0.054900 -0.062700 -0.254900
													CHANNELS 6 Xposition Yposition Zposition Xrotation Yrotation Zrotation
													End Site
													{
														OFFSET -0.048396 0.147421 -0.182086
													}
												}
											}
										}
									}
								}
							}
						}
					}
				}
			}
		}
	}
	JOINT pelvis.L
	{
		OFFSET 0.000000 -0.856810 -0.018050
		CHANNELS 6 Xposition Yposition Zposition Xrotation Yrotation Zrotation
		JOINT upperleg01.L
		{
			OFFSET 0.942650 0.058670 -0.111866
			CHANNELS 6 Xposition Yposition Zposition Xrotation Yrotation Zrotation
			JOINT upperleg02.L
			{
				OFFSET 0.087650 -0.242770 -0.759737
				CHANNELS 6 Xposition Yposition Zposition Xrotation Yrotation Zrotation
				JOINT lowerleg01.L
				{
					OFFSET 0.306300 -0.061070 -2.919780
					CHANNELS 6 Xposition Yposition Zposition Xrotation Yrotation Zrotation
					JOINT lowerleg02.L
					{
						OFFSET 0.148700 0.088630 -1.887700
						CHANNELS 6 Xposition Yposition Zposition Xrotation Yrotation Zrotation
						JOINT foot.L
						{
							OFFSET 0.148700 0.088640 -1.887700
							CHANNELS 6 Xposition Yposition Zposition Xrotation Yrotation Zrotation
							JOINT toe1-1.L
							{
								OFFSET -0.221000 -1.237520 -0.424200
								CHANNELS 6 Xposition Yposition Zposition Xrotation Yrotation Zrotation
								JOINT toe1-2.L
								{
									OFFSET 0.020000 -0.218500 -0.053200
									CHANNELS 6 Xposition Yposition Zposition Xrotation Yrotation Zrotation
									End Site
									{
										OFFSET 0.040514 -0.250001 -0.043680
									}
								}
							}
							JOINT toe2-1.L
							{
								OFFSET -0.008100 -1.233420 -0.440300
								CHANNELS 6 Xposition Yposition Zposition Xrotation Yrotation Zrotation
								JOINT toe2-2.L
								{
									OFFSET 0.020900 -0.185800 -0.033600
									CHANNELS 6 Xposition Yposition Zposition Xrotation Yrotation Zrotation
									JOINT toe2-3.L
									{
										OFFSET 0.010700 -0.111200 -0.030300
										CHANNELS 6 Xposition Yposition Zposition Xrotation Yrotation Zrotation
										End Site
										{
											OFFSET 0.000258 -0.160471 -0.060575
										}
									}
								}
							}
							JOINT toe3-1.L
							{
								OFFSET 0.133400 -1.213720 -0.445700
								CHANNELS 6 Xposition Yposition Zposition Xrotation Yrotation Zrotation
								JOINT toe3-2.L
								{
									OFFSET 0.027700 -0.157300 -0.025300
									CHANNELS 6 Xposition Yposition Zposition Xrotation Yrotation Zrotation
									JOINT toe3-3.L
									{
										OFFSET 0.010300 -0.113100 -0.042700
										CHANNELS 6 Xposition Yposition Zposition Xrotation Yrotation Zrotation
										End Site
										{
											OFFSET -0.006596 -0.120303 -0.044095
										}
									}
								}
							}
							JOINT toe4-1.L
							{
								OFFSET 0.279800 -1.153320 -0.443400
								CHANNELS 6 Xposition Yposition Zposition Xrotation Yrotation Zrotation
								JOINT toe4-2.L
								{
									OFFSET 0.029800 -0.139000 -0.044200
									CHANNELS 6 Xposition Yposition Zposition Xrotation Yrotation Zrotation
									JOINT toe4-3.L
									{
										OFFSET 0.004300 -0.103300 -0.007900
										CHANNELS 6 Xposition Yposition Zposition Xrotation Yrotation Zrotation
										End Site
										{
											OFFSET 0.011514 -0.081631 -0.057353
										}
									}
								}
							}
							JOINT toe5-1.L
							{
								OFFSET 0.408600 -1.059320 -0.429400
								CHANNELS 6 Xposition Yposition Zposition Xrotation Yrotation Zrotation
								JOINT toe5-2.L
								{
									OFFSET 0.010000 -0.078500 -0.026100
									CHANNELS 6 Xposition Yposition Zposition Xrotation Yrotation Zrotation
									JOINT toe5-3.L
									{
										OFFSET -0.002900 -0.073800 -0.047700
										CHANNELS 6 Xposition Yposition Zposition Xrotation Yrotation Zrotation
										End Site
										{
											OFFSET 0.009310 -0.103407 -0.041481
										}
									}
								}
							}
						}
					}
				}
			}
		}
	}
	JOINT pelvis.R
	{
		OFFSET 0.000000 -0.856810 -0.018050
		CHANNELS 6 Xposition Yposition Zposition Xrotation Yrotation Zrotation
		JOINT upperleg01.R
		{
			OFFSET -0.942650 0.058670 -0.111866
			CHANNELS 6 Xposition Yposition Zposition Xrotation Yrotation Zrotation
			JOINT upperleg02.R
			{
				OFFSET -0.087650 -0.242770 -0.759737
				CHANNELS 6 Xposition Yposition Zposition Xrotation Yrotation Zrotation
				JOINT lowerleg01.R
				{
					OFFSET -0.306300 -0.061070 -2.919780
					CHANNELS 6 Xposition Yposition Zposition Xrotation Yrotation Zrotation
					JOINT lowerleg02.R
					{
						OFFSET -0.148700 0.088630 -1.887700
						CHANNELS 6 Xposition Yposition Zposition Xrotation Yrotation Zrotation
						JOINT foot.R
						{
							OFFSET -0.148700 0.088640 -1.887700
							CHANNELS 6 Xposition Yposition Zposition Xrotation Yrotation Zrotation
							JOINT toe1-1.R
							{
								OFFSET 0.221000 -1.237520 -0.424200
								CHANNELS 6 Xposition Yposition Zposition Xrotation Yrotation Zrotation
								JOINT toe1-2.R
								{
									OFFSET -0.020000 -0.218500 -0.053200
									CHANNELS 6 Xposition Yposition Zposition Xrotation Yrotation Zrotation
									End Site
									{
										OFFSET -0.040514 -0.250001 -0.043680
									}
								}
							}
							JOINT toe2-1.R
							{
								OFFSET 0.008100 -1.233420 -0.440300
								CHANNELS 6 Xposition Yposition Zposition Xrotation Yrotation Zrotation
								JOINT toe2-2.R
								{
									OFFSET -0.020900 -0.185800 -0.033600
									CHANNELS 6 Xposition Yposition Zposition Xrotation Yrotation Zrotation
									JOINT toe2-3.R
									{
										OFFSET -0.010700 -0.111200 -0.030300
										CHANNELS 6 Xposition Yposition Zposition Xrotation Yrotation Zrotation
										End Site
										{
											OFFSET -0.000258 -0.160471 -0.060575
										}
									}
								}
							}
							JOINT toe3-1.R
							{
								OFFSET -0.133400 -1.213720 -0.445700
								CHANNELS 6 Xposition Yposition Zposition Xrotation Yrotation Zrotation
								JOINT toe3-2.R
								{
									OFFSET -0.027700 -0.157300 -0.025300
									CHANNELS 6 Xposition Yposition Zposition Xrotation Yrotation Zrotation
									JOINT toe3-3.R
									{
										OFFSET -0.010300 -0.113100 -0.042700
										CHANNELS 6 Xposition Yposition Zposition Xrotation Yrotation Zrotation
										End Site
										{
											OFFSET 0.006596 -0.120303 -0.044095
										}
									}
								}
							}
							JOINT toe4-1.R
							{
								OFFSET -0.279800 -1.153320 -0.443400
								CHANNELS 6 Xposition Yposition Zposition Xrotation Yrotation Zrotation
								JOINT toe4-2.R
								{
									OFFSET -0.029800 -0.139000 -0.044200
									CHANNELS 6 Xposition Yposition Zposition Xrotation Yrotation Zrotation
									JOINT toe4-3.R
									{
										OFFSET -0.004300 -0.103300 -0.007900
										CHANNELS 6 Xposition Yposition Zposition Xrotation Yrotation Zrotation
										End Site
										{
											OFFSET -0.011514 -0.081631 -0.057353
										}
									}
								}
							}
							JOINT toe5-1.R
							{
								OFFSET -0.408600 -1.059320 -0.429400
								CHANNELS 6 Xposition Yposition Zposition Xrotation Yrotation Zrotation
								JOINT toe5-2.R
								{
									OFFSET -0.010000 -0.078500 -0.026100
									CHANNELS 6 Xposition Yposition Zposition Xrotation Yrotation Zrotation
									JOINT toe5-3.R
									{
										OFFSET 0.002900 -0.073800 -0.047700
										CHANNELS 6 Xposition Yposition Zposition Xrotation Yrotation Zrotation
										End Site
										{
											OFFSET -0.009310 -0.103407 -0.041481
										}
									}
								}
							}
						}
					}
				}
			}
		}
	}
}
MOTION
Frames: 1
Frame Time: 0.041667
0.000000 0.623230 -0.155122 -0.006046 -5.721548 -0.120937 -0.000000 -0.856810 -0.018050 0.519583 9.632423 -6.160887 -0.000000 0.455750 0.721247 11.156970 11.041728 2.692549 -0.000000 -0.218720 0.626770 11.417282 0.000002 -0.000001 -0.000000 -0.121320 0.902100 -11.537803 -11.296572 -1.218126 -0.000000 -0.009630 1.523100 -0.000000 -0.000000 0.000005 -0.000000 -0.009630 1.523100 0.000001 0.000000 -0.000003 -0.000000 -0.009630 1.523099 0.000001 -0.000000 0.000000 0.226970 -0.081420 0.747700 -0.000001 -0.000004 -0.000000 0.666090 -0.002570 0.184500 -0.000001 -0.000000 -0.000001 0.642840 0.003610 -0.336500 16.406377 -10.952333 1.175577 0.550000 0.012139 -0.576000 21.398411 -5.745844 -24.085480 1.019000 -0.050400 -1.137400 -18.694660 7.247564 -66.219558 0.546500 -0.671870 -0.598900 -0.000000 0.000002 -0.000003 0.546499 -0.671889 -0.598900 -17.218413 3.901449 -13.614677 0.010400 -0.390200 -0.084100 0.000001 -0.000003 -0.000003 -0.190100 -0.186300 -0.088200 20.700891 -8.943698 4.171479 -0.111400 -0.272400 -0.139500 31.552127 -10.402795 7.735155 0.097200 -0.225400 -0.150400 0.000004 -0.000006 0.000002 0.156500 -0.609100 -0.254500 36.069293 14.322174 -25.637583 0.030699 -0.180600 -0.144610 27.058354 12.078771 -18.841572 -0.005600 -0.139601 -0.153870 35.774875 12.355423 -26.514695 0.097201 -0.225400 -0.150400 0.000002 0.000001 0.000000 0.302000 -0.440200 -0.344400 31.447533 26.542600 -24.699670 0.064901 -0.175201 -0.244030 31.861087 24.035070 -26.560157 0.023700 -0.147000 -0.203310 31.859393 24.450691 -26.207166 0.203100 -0.124500 -0.283400 0.000000 -0.000001 0.000002 0.262900 -0.385300 -0.275309 27.390705 33.155746 -20.313992 0.083700 -0.117600 -0.227080 28.632495 30.748853 -23.079990 0.037400 -0.102900 -0.195970 37.369584 37.042407 -29.576905 0.203100 -0.124500 -0.283400 -0.000000 0.000002 -0.000001 0.277500 -0.208800 -0.344610 11.956978 30.402384 -11.200560 0.052899 -0.058100 -0.176240 19.208459 37.765844 -19.595507 0.015600 -0.045700 -0.133050 26.425218 45.566565 -26.022628 -0.226970 -0.081420 0.747700 -0.108178 11.411287 -0.344462 -0.666090 -0.002570 0.184499 -11.246239 3.930829 20.446982 -0.642840 0.003610 -0.336500 -37.939768 -49.034054 5.063110 -0.550000 0.012140 -0.576000 0.000002 0.000004 -0.000002 -1.019000 -0.050400 -1.137400 -51.953134 -21.423363 56.093335 -0.546501 -0.671870 -0.598900 -29.378867 -21.014839 -31.200810 -0.546499 -0.671891 -0.598901 -46.174777 42.534866 -39.658988 -0.010400 -0.390200 -0.084100 0.000003 0.000002 0.000004 0.190100 -0.186300 -0.088200 -5.868571 13.388962 -29.429424 0.111401 -0.272400 -0.139501 -0.000002 0.000001 -0.000001 -0.097200 -0.225400 -0.150400 -0.000000 0.000006 -0.000001 -0.156500 -0.609100 -0.254500 -6.754765 16.716970 -16.728282 -0.030700 -0.180600 -0.144611 0.000001 0.000002 0.000001 0.005599 -0.139600 -0.153870 0.000002 -0.000008 0.000001 -0.097201 -0.225400 -0.150401 0.000002 0.000001 0.000001 -0.301998 -0.440200 -0.344401 -11.893021 17.356279 -6.772956 -0.064900 -0.175201 -0.244030 -0.000003 -0.000004 -0.000004 -0.023700 -0.147000 -0.203310 0.000003 0.000004 -0.000000 -0.203100 -0.124500 -0.283400 -0.000001 -0.000001 -0.000000 -0.262900 -0.385300 -0.275309 -15.252975 17.494076 -0.984222 -0.083701 -0.117600 -0.227080 -0.000001 0.000000 -0.000002 -0.037401 -0.102901 -0.195970 0.000001 0.000001 0.000001 -0.203100 -0.124500 -0.283400 -0.000000 0.000001 -0.000001 -0.277500 -0.208800 -0.344610 -16.672808 19.117518 1.372859 -0.052900 -0.058100 -0.176240 0.000002 0.000001 0.000001 -0.015600 -0.045700 -0.133050 -0.000001 0.000001 -0.000001 -0.000000 0.140700 1.426000 11.417284 -0.000000 0.000000 0.000000 -0.205640 0.396000 0.000003 -0.000000 0.000000 0.000000 -0.100291 0.364300 0.000005 0.000000 -0.000000 -0.000000 -0.116850 0.290699 -33.149514 2.575820 -10.637376 -0.000000 -0.131540 0.047300 2.290724 -0.000001 -0.000001 -0.000000 -0.435481 -0.690200 -0.000003 0.000001 0.000001 0.000000 -0.265500 0.153200 11.417273 -0.000002 0.000002 0.000000 -0.107101 0.085600 -11.417308 0.000000 0.000001 0.000000 -0.265501 0.153200 -4.818534 -8.896944 -5.691335 0.120230 -0.081800 0.041799 0.000002 -0.000000 -0.000003 -0.000000 -0.265500 0.153201 -4.818532 8.896940 5.691339 -0.120230 -0.081800 0.041800 0.000004 0.000001 -0.000000 -0.000000 -0.435481 -0.690200 -0.000003 -0.000000 -0.000000 0.000000 0.347970 0.394900 -0.000003 -0.000000 -0.000000 0.000000 -0.283150 0.039901 -0.000002 -0.000000 -0.000001 -0.000000 -0.198820 0.000700 0.000005 0.000001 -0.000001 -0.000000 -0.080900 -0.043101 0.000000 -0.000001 0.000002 -0.000000 -0.080900 -0.043101 0.000005 -0.000002 0.000001 0.000000 -0.080900 -0.043101 0.000002 -0.000003 0.000000 0.000000 -0.198820 0.000701 0.000002 -0.000000 0.000000 -0.000000 -0.198820 0.000700 0.000002 -0.000004 -0.000000 0.000000 -0.283150 0.039900 -0.000002 -0.000000 0.000001 -0.000000 -0.283150 0.039900 -0.000003 0.000000 -0.000001 0.033033 -0.996820 0.215601 -0.000000 -0.000001 -0.000002 0.161037 0.114900 -0.133700 0.000002 0.000001 -0.000006 0.056099 -0.005900 -0.166498 -0.000000 0.000001 -0.000003 0.016860 -0.005100 -0.156900 0.000003 -0.000002 0.000002 -0.033033 -0.996820 0.215600 0.000004 0.000001 0.000002 -0.161037 0.114900 -0.133700 -0.000000 -0.000002 0.000008 -0.056100 -0.005900 -0.166498 0.000001 -0.000001 -0.000000 -0.016860 -0.005100 -0.156900 -0.000000 -0.000002 -0.000001 -0.000000 0.594880 -0.042999 -0.000002 -0.000000 0.000001 -0.000000 -1.604300 -0.038301 -2.118349 11.221102 0.100013 0.127770 0.023400 -0.055200 0.000002 -0.000007 -0.000001 -0.000000 -1.604300 -0.038300 -2.118349 -11.221099 -0.100015 -0.127770 0.023401 -0.055200 0.000001 0.000003 0.000003 0.000000 -1.604300 -0.038301 -11.417318 0.000001 0.000002 0.000000 -0.009501 -0.038601 11.417283 0.000000 0.000002 -0.000000 -0.131540 0.047301 -0.000002 0.000000 0.000001 0.054900 -0.957580 -0.017300 0.000001 -0.000000 0.000002 -0.054900 -0.957580 -0.017301 -0.000000 0.000001 0.000003 -0.000000 0.073460 1.401900 -0.000002 -0.000001 0.000001 0.183700 -0.496550 -0.101101 -0.000002 0.000001 -0.000003 0.100590 -0.265030 -0.939800 -0.000001 0.000000 -0.000001 0.100590 -0.265030 -0.939800 -0.000003 0.000000 -0.000001 0.100590 -0.265030 -0.939800 0.000001 -0.000001 -0.000000 -0.000000 0.073460 1.401899 -0.000003 0.000001 0.000000 -0.183700 -0.496550 -0.101100 -0.000002 -0.000002 -0.000002 -0.100590 -0.265029 -0.939800 -0.000003 0.000001 -0.000002 -0.100590 -0.265030 -0.939800 -0.000003 0.000000 0.000004 -0.100590 -0.265029 -0.939800 0.000003 0.000001 0.000002 0.584200 -0.562290 0.428401 -0.000000 -0.000002 0.000001 -0.075770 -0.153231 0.006300 -0.000003 -0.000001 0.000002 -0.201130 -0.183401 0.147201 -0.000001 0.000002 0.000001 -0.584200 -0.562290 0.428400 0.000001 -0.000001 0.000001 0.075770 -0.153230 0.006301 -0.000003 -0.000000 0.000003 0.201130 -0.183400 0.147202 -0.000003 0.000002 0.000000 0.605569 -0.548450 0.210000 -0.000002 0.000002 0.000000 -0.089270 -0.156970 0.045402 -0.000004 -0.000002 -0.000006 -0.054900 -0.062701 -0.254900 0.000008 -0.000002 0.000008 -0.605570 -0.548450 0.210000 -0.000003 -0.000000 0.000001 0.089270 -0.156969 0.045400 -0.000001 -0.000000 0.000000 0.054900 -0.062700 -0.254901 0.000003 -0.000001 -0.000001 -0.000000 -0.856810 -0.018050 0.000001 0.000001 -0.000000 0.942650 0.058670 -0.111866 -7.899688 13.727258 -16.217644 0.087650 -0.242770 -0.759737 -0.000001 0.000002 -0.000001 0.306300 -0.061070 -2.919780 11.376263 0.329815 0.878600 0.148700 0.088630 -1.887700 -0.000001 -0.000001 -0.000001 0.148700 0.088640 -1.887699 -0.000004 0.000001 -0.000000 -0.221000 -1.237521 -0.424200 0.000001 -0.000000 0.000001 0.020000 -0.218500 -0.053200 0.000000 0.000001 -0.000001 -0.008100 -1.233420 -0.440300 0.000001 0.000001 0.000000 0.020900 -0.185800 -0.033601 -0.000001 0.000001 -0.000000 0.010700 -0.111200 -0.030299 -0.000003 0.000001 -0.000000 0.133400 -1.213721 -0.445701 -0.000000 0.000001 0.000002 0.027700 -0.157300 -0.025300 0.000003 -0.000000 0.000001 0.010300 -0.113101 -0.042700 0.000000 -0.000001 0.000002 0.279800 -1.153320 -0.443401 0.000001 -0.000000 0.000002 0.029800 -0.138999 -0.044200 0.000000 0.000001 -0.000003 0.004300 -0.103300 -0.007900 -0.000002 0.000000 -0.000000 0.408600 -1.059320 -0.429400 0.000001 0.000000 -0.000000 0.010000 -0.078499 -0.026101 0.000002 0.000000 -0.000001 -0.002900 -0.073800 -0.047701 0.000005 -0.000001 0.000001 -0.000000 -0.856810 -0.018050 0.000001 -0.000000 -0.000000 -0.942650 0.058670 -0.111866 -18.124571 -7.713947 25.904116 -0.087650 -0.242770 -0.759737 0.000002 -0.000002 0.000000 -0.306300 -0.061070 -2.919780 41.427887 -1.951057 -2.724059 -0.148700 0.088630 -1.887700 -0.000003 0.000001 0.000001 -0.148700 0.088641 -1.887700 -0.216577 5.391003 -10.059050 0.221000 -1.237521 -0.424201 -22.490956 1.117035 2.313046 -0.020000 -0.218500 -0.053200 0.000001 0.000000 0.000001 0.008100 -1.233420 -0.440301 -22.453455 1.684729 2.467904 -0.020900 -0.185801 -0.033600 -0.000001 0.000000 0.000000 -0.010700 -0.111200 -0.030298 -0.000003 0.000000 -0.000004 -0.133400 -1.213720 -0.445701 -22.301165 3.009601 2.933534 -0.027700 -0.157301 -0.025300 -0.000004 0.000000 -0.000002 -0.010300 -0.113100 -0.042702 0.000004 0.000002 0.000000 -0.279800 -1.153320 -0.443402 -11.185764 1.774220 1.634756 -0.029800 -0.139001 -0.044199 0.000002 -0.000001 -0.000001 -0.004300 -0.103301 -0.007899 -0.000004 0.000001 -0.000003 -0.408600 -1.059320 -0.429401 -0.000001 0.000000 0.000000 -0.010000 -0.078501 -0.026100 -0.000002 -0.000002 -0.000001 0.002900 -0.073800 -0.047702 0.000000 0.000000 -0.000000 
