HIERARCHY
ROOT root
{
	OFFSET 0.000000 0.655540 11.217299
	CHANNELS 6 Xposition Yposition Zposition Xrotation Yrotation Zrotation
	JOINT spine05
	{
		OFFSET 0.000000 -0.754926 0.149000
		CHANNELS 6 Xposition Yposition Zposition Xrotation Yrotation Zrotation
		JOINT spine04
		{
			OFFSET 0.000000 0.353326 0.883300
			CHANNELS 6 Xposition Yposition Zposition Xrotation Yrotation Zrotation
			JOINT spine03
			{
				OFFSET 0.000000 -0.101240 0.740900
				CHANNELS 6 Xposition Yposition Zposition Xrotation Yrotation Zrotation
				JOINT spine02
				{
					OFFSET 0.000000 0.130500 0.715300
					CHANNELS 6 Xposition Yposition Zposition Xrotation Yrotation Zrotation
					JOINT breast.L
					{
						OFFSET 0.000000 0.223430 1.624801
						CHANNELS 6 Xposition Yposition Zposition Xrotation Yrotation Zrotation
						End Site
						{
							OFFSET 1.069842 -1.934803 -0.102255
						}
					}
					JOINT breast.R
					{
						OFFSET 0.000000 0.223430 1.624801
						CHANNELS 6 Xposition Yposition Zposition Xrotation Yrotation Zrotation
						End Site
						{
							OFFSET -1.069842 -1.934803 -0.102255
						}
					}
					JOINT spine01
					{
						OFFSET 0.000000 0.223430 1.624801
						CHANNELS 6 Xposition Yposition Zposition Xrotation Yrotation Zrotation
						JOINT clavicle.L
						{
							OFFSET 0.259960 -0.849750 1.553800
							CHANNELS 6 Xposition Yposition Zposition Xrotation Yrotation Zrotation
							JOINT shoulder01.L
							{
								OFFSET 1.048740 0.036060 0.194099
								CHANNELS 6 Xposition Yposition Zposition Xrotation Yrotation Zrotation
								JOINT upperarm01.L
								{
									OFFSET 0.847500 0.094460 -0.499699
									CHANNELS 6 Xposition Yposition Zposition Xrotation Yrotation Zrotation
									JOINT upperarm02.L
									{
										OFFSET 0.457600 0.018160 -0.593101
										CHANNELS 6 Xposition Yposition Zposition Xrotation Yrotation Zrotation
										JOINT lowerarm01.L
										{
											OFFSET 1.586800 -0.084290 -1.718801
											CHANNELS 6 Xposition Yposition Zposition Xrotation Yrotation Zrotation
											JOINT lowerarm02.L
											{
												OFFSET 0.744600 -1.063270 -0.714600
												CHANNELS 6 Xposition Yposition Zposition Xrotation Yrotation Zrotation
												JOINT wrist.L
												{
													OFFSET 0.744600 -1.063400 -0.714700
													CHANNELS 6 Xposition Yposition Zposition Xrotation Yrotation Zrotation
													JOINT finger1-1.L
													{
														OFFSET 0.015700 -0.553700 -0.078000
														CHANNELS 6 Xposition Yposition Zposition Xrotation Yrotation Zrotation
														JOINT finger1-2.L
														{
															OFFSET -0.257100 -0.262700 -0.101400
															CHANNELS 6 Xposition Yposition Zposition Xrotation Yrotation Zrotation
															JOINT finger1-3.L
															{
																OFFSET -0.157500 -0.397900 -0.155100
																CHANNELS 6 Xposition Yposition Zposition Xrotation Yrotation Zrotation
																End Site
																{
																	OFFSET -0.065273 -0.261028 -0.201174
																}
															}
														}
													}
													JOINT metacarpal1.L
													{
														OFFSET 0.134700 -0.338000 -0.186900
														CHANNELS 6 Xposition Yposition Zposition Xrotation Yrotation Zrotation
														JOINT finger2-1.L
														{
															OFFSET 0.203500 -0.850300 -0.275600
															CHANNELS 6 Xposition Yposition Zposition Xrotation Yrotation Zrotation
															JOINT finger2-2.L
															{
																OFFSET 0.040400 -0.265300 -0.179699
																CHANNELS 6 Xposition Yposition Zposition Xrotation Yrotation Zrotation
																JOINT finger2-3.L
																{
																	OFFSET -0.006600 -0.214200 -0.196900
																	CHANNELS 6 Xposition Yposition Zposition Xrotation Yrotation Zrotation
																	End Site
																	{
																		OFFSET -0.038933 -0.221560 -0.231432
																	}
																}
															}
														}
													}
													JOINT metacarpal2.L
													{
														OFFSET 0.134700 -0.338000 -0.186900
														CHANNELS 6 Xposition Yposition Zposition Xrotation Yrotation Zrotation
														JOINT finger3-1.L
														{
															OFFSET 0.400900 -0.638600 -0.423000
															CHANNELS 6 Xposition Yposition Zposition Xrotation Yrotation Zrotation
															JOINT finger3-2.L
															{
																OFFSET 0.092500 -0.267900 -0.313600
																CHANNELS 6 Xposition Yposition Zposition Xrotation Yrotation Zrotation
																JOINT finger3-3.L
																{
																	OFFSET 0.030800 -0.216000 -0.253500
																	CHANNELS 6 Xposition Yposition Zposition Xrotation Yrotation Zrotation
																	End Site
																	{
																		OFFSET 0.005270 -0.195002 -0.265798
																	}
																}
															}
														}
													}
													JOINT metacarpal3.L
													{
														OFFSET 0.278300 -0.216600 -0.379600
														CHANNELS 6 Xposition Yposition Zposition Xrotation Yrotation Zrotation
														JOINT finger4-1.L
														{
															OFFSET 0.350400 -0.546700 -0.329401
															CHANNELS 6 Xposition Yposition Zposition Xrotation Yrotation Zrotation
															JOINT finger4-2.L
															{
																OFFSET 0.114700 -0.186800 -0.299299
																CHANNELS 6 Xposition Yposition Zposition Xrotation Yrotation Zrotation
																JOINT finger4-3.L
																{
																	OFFSET 0.056900 -0.167900 -0.250600
																	CHANNELS 6 Xposition Yposition Zposition Xrotation Yrotation Zrotation
																	End Site
																	{
																		OFFSET 0.034617 -0.149859 -0.287920
																	}
																}
															}
														}
													}
													JOINT metacarpal4.L
													{
														OFFSET 0.278300 -0.216600 -0.379600
														CHANNELS 6 Xposition Yposition Zposition Xrotation Yrotation Zrotation
														JOINT finger5-1.L
														{
															OFFSET 0.371000 -0.309900 -0.447400
															CHANNELS 6 Xposition Yposition Zposition Xrotation Yrotation Zrotation
															JOINT finger5-2.L
															{
																OFFSET 0.075100 -0.105800 -0.230600
																CHANNELS 6 Xposition Yposition Zposition Xrotation Yrotation Zrotation
																JOINT finger5-3.L
																{
																	OFFSET 0.025200 -0.078800 -0.173600
																	CHANNELS 6 Xposition Yposition Zposition Xrotation Yrotation Zrotation
																	End Site
																	{
																		OFFSET 0.028446 -0.092147 -0.224318
																	}
																}
															}
														}
													}
												}
											}
										}
									}
								}
							}
						}
						JOINT clavicle.R
						{
							OFFSET -0.259960 -0.849750 1.553800
							CHANNELS 6 Xposition Yposition Zposition Xrotation Yrotation Zrotation
							JOINT shoulder01.R
							{
								OFFSET -1.048740 0.036060 0.194099
								CHANNELS 6 Xposition Yposition Zposition Xrotation Yrotation Zrotation
								JOINT upperarm01.R
								{
									OFFSET -0.847500 0.094460 -0.499699
									CHANNELS 6 Xposition Yposition Zposition Xrotation Yrotation Zrotation
									JOINT upperarm02.R
									{
										OFFSET -0.457600 0.018160 -0.593101
										CHANNELS 6 Xposition Yposition Zposition Xrotation Yrotation Zrotation
										JOINT lowerarm01.R
										{
											OFFSET -1.586800 -0.084290 -1.718801
											CHANNELS 6 Xposition Yposition Zposition Xrotation Yrotation Zrotation
											JOINT lowerarm02.R
											{
												OFFSET -0.744600 -1.063270 -0.714600
												CHANNELS 6 Xposition Yposition Zposition Xrotation Yrotation Zrotation
												JOINT wrist.R
												{
													OFFSET -0.744600 -1.063400 -0.714700
													CHANNELS 6 Xposition Yposition Zposition Xrotation Yrotation Zrotation
													JOINT finger1-1.R
													{
														OFFSET -0.015700 -0.553700 -0.078000
														CHANNELS 6 Xposition Yposition Zposition Xrotation Yrotation Zrotation
														JOINT finger1-2.R
														{
															OFFSET 0.257100 -0.262700 -0.101400
															CHANNELS 6 Xposition Yposition Zposition Xrotation Yrotation Zrotation
															JOINT finger1-3.R
															{
																OFFSET 0.157500 -0.397900 -0.155100
																CHANNELS 6 Xposition Yposition Zposition Xrotation Yrotation Zrotation
																End Site
																{
																	OFFSET 0.065273 -0.261028 -0.201174
																}
															}
														}
													}
													JOINT metacarpal1.R
													{
														OFFSET -0.134700 -0.338000 -0.186900
														CHANNELS 6 Xposition Yposition Zposition Xrotation Yrotation Zrotation
														JOINT finger2-1.R
														{
															OFFSET -0.203500 -0.850300 -0.275600
															CHANNELS 6 Xposition Yposition Zposition Xrotation Yrotation Zrotation
															JOINT finger2-2.R
															{
																OFFSET -0.040400 -0.265300 -0.179699
																CHANNELS 6 Xposition Yposition Zposition Xrotation Yrotation Zrotation
																JOINT finger2-3.R
																{
																	OFFSET 0.006600 -0.214200 -0.196900
																	CHANNELS 6 Xposition Yposition Zposition Xrotation Yrotation Zrotation
																	End Site
																	{
																		OFFSET 0.038933 -0.221560 -0.231432
																	}
																}
															}
														}
													}
													JOINT metacarpal2.R
													{
														OFFSET -0.134700 -0.338000 -0.186900
														CHANNELS 6 Xposition Yposition Zposition Xrotation Yrotation Zrotation
														JOINT finger3-1.R
														{
															OFFSET -0.400900 -0.638600 -0.423000
															CHANNELS 6 Xposition Yposition Zposition Xrotation Yrotation Zrotation
															JOINT finger3-2.R
															{
																OFFSET -0.092500 -0.267900 -0.313600
																CHANNELS 6 Xposition Yposition Zposition Xrotation Yrotation Zrotation
																JOINT finger3-3.R
																{
																	OFFSET -0.030800 -0.216000 -0.253500
																	CHANNELS 6 Xposition Yposition Zposition Xrotation Yrotation Zrotation
																	End Site
																	{
																		OFFSET -0.005270 -0.195002 -0.265798
																	}
																}
															}
														}
													}
													JOINT metacarpal3.R
													{
														OFFSET -0.278300 -0.216600 -0.379600
														CHANNELS 6 Xposition Yposition Zposition Xrotation Yrotation Zrotation
														JOINT finger4-1.R
														{
															OFFSET -0.350400 -0.546700 -0.329401
															CHANNELS 6 Xposition Yposition Zposition Xrotation Yrotation Zrotation
															JOINT finger4-2.R
															{
																OFFSET -0.114700 -0.186800 -0.299299
																CHANNELS 6 Xposition Yposition Zposition Xrotation Yrotation Zrotation
																JOINT finger4-3.R
																{
																	OFFSET -0.056900 -0.167900 -0.250600
																	CHANNELS 6 Xposition Yposition Zposition Xrotation Yrotation Zrotation
																	End Site
																	{
																		OFFSET -0.034617 -0.149859 -0.287920
																	}
																}
															}
														}
													}
													JOINT metacarpal4.R
													{
														OFFSET -0.278300 -0.216600 -0.379600
														CHANNELS 6 Xposition Yposition Zposition Xrotation Yrotation Zrotation
														JOINT finger5-1.R
														{
															OFFSET -0.371000 -0.309900 -0.447400
															CHANNELS 6 Xposition Yposition Zposition Xrotation Yrotation Zrotation
															JOINT finger5-2.R
															{
																OFFSET -0.075100 -0.105800 -0.230600
																CHANNELS 6 Xposition Yposition Zposition Xrotation Yrotation Zrotation
																JOINT finger5-3.R
																{
																	OFFSET -0.025200 -0.078800 -0.173600
																	CHANNELS 6 Xposition Yposition Zposition Xrotation Yrotation Zrotation
																	End Site
																	{
																		OFFSET -0.028446 -0.092147 -0.224318
																	}
																}
															}
														}
													}
												}
											}
										}
									}
								}
							}
						}
						JOINT neck01
						{
							OFFSET 0.000000 -0.659980 2.398200
							CHANNELS 6 Xposition Yposition Zposition Xrotation Yrotation Zrotation
							JOINT neck02
							{
								OFFSET -0.000796 -0.060540 0.240400
								CHANNELS 6 Xposition Yposition Zposition Xrotation Yrotation Zrotation
								JOINT neck03
								{
									OFFSET -0.002827 -0.104220 0.386900
									CHANNELS 6 Xposition Yposition Zposition Xrotation Yrotation Zrotation
									JOINT head
									{
										OFFSET 0.007029 -0.106920 0.415998
										CHANNELS 6 Xposition Yposition Zposition Xrotation Yrotation Zrotation
										JOINT jaw
										{
											OFFSET 0.040009 -0.211690 0.067001
											CHANNELS 6 Xposition Yposition Zposition Xrotation Yrotation Zrotation
											JOINT special04
											{
												OFFSET 0.229415 -0.672180 -0.945700
												CHANNELS 6 Xposition Yposition Zposition Xrotation Yrotation Zrotation
												JOINT oris02
												{
													OFFSET 0.041210 -0.188400 0.239300
													CHANNELS 6 Xposition Yposition Zposition Xrotation Yrotation Zrotation
													JOINT oris01
													{
														OFFSET 0.019050 -0.079600 0.185400
														CHANNELS 6 Xposition Yposition Zposition Xrotation Yrotation Zrotation
														End Site
														{
															OFFSET 0.007317 -0.052564 0.144053
														}
													}
												}
												JOINT oris06.L
												{
													OFFSET 0.041210 -0.188400 0.239300
													CHANNELS 6 Xposition Yposition Zposition Xrotation Yrotation Zrotation
													JOINT oris07.L
													{
														OFFSET 0.161280 0.004700 0.110399
														CHANNELS 6 Xposition Yposition Zposition Xrotation Yrotation Zrotation
														End Site
														{
															OFFSET 0.102891 0.015847 0.220968
														}
													}
												}
												JOINT oris06.R
												{
													OFFSET 0.041210 -0.188400 0.239300
													CHANNELS 6 Xposition Yposition Zposition Xrotation Yrotation Zrotation
													JOINT oris07.R
													{
														OFFSET -0.118140 -0.073300 0.092400
														CHANNELS 6 Xposition Yposition Zposition Xrotation Yrotation Zrotation
														End Site
														{
															OFFSET -0.086925 -0.033159 0.184061
														}
													}
												}
											}
											JOINT tongue00
											{
												OFFSET 0.229415 -0.672180 -0.945700
												CHANNELS 6 Xposition Yposition Zposition Xrotation Yrotation Zrotation
												JOINT tongue01
												{
													OFFSET -0.164150 0.534170 0.530699
													CHANNELS 6 Xposition Yposition Zposition Xrotation Yrotation Zrotation
													JOINT tongue02
													{
														OFFSET 0.078780 -0.296470 0.049000
														CHANNELS 6 Xposition Yposition Zposition Xrotation Yrotation Zrotation
														JOINT tongue03
														{
															OFFSET 0.057110 -0.208600 0.004002
															CHANNELS 6 Xposition Yposition Zposition Xrotation Yrotation Zrotation
															JOINT tongue04
															{
																OFFSET 0.026270 -0.084400 -0.049000
																CHANNELS 6 Xposition Yposition Zposition Xrotation Yrotation Zrotation
																End Site
																{
																	OFFSET 0.026370 -0.084680 -0.049305
																}
															}
															JOINT tongue07.L
															{
																OFFSET 0.026270 -0.084400 -0.049000
																CHANNELS 6 Xposition Yposition Zposition Xrotation Yrotation Zrotation
																End Site
																{
																	OFFSET 0.134746 0.022468 -0.027365
																}
															}
															JOINT tongue07.R
															{
																OFFSET 0.026270 -0.084400 -0.049000
																CHANNELS 6 Xposition Yposition Zposition Xrotation Yrotation Zrotation
																End Site
																{
																	OFFSET -0.107977 -0.041328 -0.045469
																}
															}
														}
														JOINT tongue06.L
														{
															OFFSET 0.057110 -0.208600 0.004002
															CHANNELS 6 Xposition Yposition Zposition Xrotation Yrotation Zrotation
															End Site
															{
																OFFSET 0.176238 0.063988 -0.035936
															}
														}
														JOINT tongue06.R
														{
															OFFSET 0.057110 -0.208600 0.004002
															CHANNELS 6 Xposition Yposition Zposition Xrotation Yrotation Zrotation
															End Site
															{
																OFFSET -0.162374 -0.026196 -0.061747
															}
														}
													}
													JOINT tongue05.L
													{
														OFFSET 0.078780 -0.296470 0.049000
														CHANNELS 6 Xposition Yposition Zposition Xrotation Yrotation Zrotation
														End Site
														{
															OFFSET 0.221229 0.028815 -0.025522
														}
													}
													JOINT tongue05.R
													{
														OFFSET 0.078780 -0.296470 0.049000
														CHANNELS 6 Xposition Yposition Zposition Xrotation Yrotation Zrotation
														End Site
														{
															OFFSET -0.183235 -0.079517 -0.056446
														}
													}
												}
											}
										}
										JOINT levator02.L
										{
											OFFSET 0.329704 -1.278770 0.228001
											CHANNELS 6 Xposition Yposition Zposition Xrotation Yrotation Zrotation
											JOINT levator03.L
											{
												OFFSET 0.138210 0.252400 -0.073999
												CHANNELS 6 Xposition Yposition Zposition Xrotation Yrotation Zrotation
												JOINT levator04.L
												{
													OFFSET 0.099680 0.032600 -0.215000
													CHANNELS 6 Xposition Yposition Zposition Xrotation Yrotation Zrotation
													JOINT levator05.L
													{
														OFFSET 0.082630 0.034700 -0.139000
														CHANNELS 6 Xposition Yposition Zposition Xrotation Yrotation Zrotation
														End Site
														{
															OFFSET -0.015297 0.002722 -0.098007
														}
													}
												}
											}
										}
										JOINT levator02.R
										{
											OFFSET 0.279654 -1.294870 0.220001
											CHANNELS 6 Xposition Yposition Zposition Xrotation Yrotation Zrotation
											JOINT levator03.R
											{
												OFFSET -0.210354 0.163200 -0.107000
												CHANNELS 6 Xposition Yposition Zposition Xrotation Yrotation Zrotation
												JOINT levator04.R
												{
													OFFSET -0.063033 -0.002800 -0.213999
													CHANNELS 6 Xposition Yposition Zposition Xrotation Yrotation Zrotation
													JOINT levator05.R
													{
														OFFSET -0.034098 0.003600 -0.169001
														CHANNELS 6 Xposition Yposition Zposition Xrotation Yrotation Zrotation
														End Site
														{
															OFFSET 0.044516 0.008834 -0.107952
														}
													}
												}
											}
										}
										JOINT special01
										{
											OFFSET -0.212606 0.724000 -0.005999
											CHANNELS 6 Xposition Yposition Zposition Xrotation Yrotation Zrotation
											JOINT oris04.L
											{
												OFFSET 0.540120 -1.946670 -0.119001
												CHANNELS 6 Xposition Yposition Zposition Xrotation Yrotation Zrotation
												JOINT oris03.L
												{
													OFFSET 0.151550 0.087300 -0.049999
													CHANNELS 6 Xposition Yposition Zposition Xrotation Yrotation Zrotation
													End Site
													{
														OFFSET 0.047559 0.039135 -0.042097
													}
												}
											}
											JOINT oris04.R
											{
												OFFSET 0.540120 -1.946670 -0.119001
												CHANNELS 6 Xposition Yposition Zposition Xrotation Yrotation Zrotation
												JOINT oris03.R
												{
													OFFSET -0.147080 0.011500 -0.065998
													CHANNELS 6 Xposition Yposition Zposition Xrotation Yrotation Zrotation
													End Site
													{
														OFFSET -0.038128 0.016276 -0.050095
													}
												}
											}
											JOINT oris06
											{
												OFFSET 0.540120 -1.946670 -0.119001
												CHANNELS 6 Xposition Yposition Zposition Xrotation Yrotation Zrotation
												JOINT oris05
												{
													OFFSET 0.006430 0.020700 -0.067999
													CHANNELS 6 Xposition Yposition Zposition Xrotation Yrotation Zrotation
													End Site
													{
														OFFSET 0.014026 0.001420 -0.064005
													}
												}
											}
										}
										JOINT special03
										{
											OFFSET 0.040009 -0.211690 0.067001
											CHANNELS 6 Xposition Yposition Zposition Xrotation Yrotation Zrotation
											JOINT levator06.L
											{
												OFFSET 0.356675 -1.164980 -0.074001
												CHANNELS 6 Xposition Yposition Zposition Xrotation Yrotation Zrotation
												End Site
												{
													OFFSET 0.044394 0.297180 0.089409
												}
											}
											JOINT levator06.R
											{
												OFFSET 0.260005 -1.195680 -0.082001
												CHANNELS 6 Xposition Yposition Zposition Xrotation Yrotation Zrotation
												End Site
												{
													OFFSET -0.183309 0.241295 0.064045
												}
											}
										}
										JOINT special06.L
										{
											OFFSET -0.124316 0.047420 1.680000
											CHANNELS 6 Xposition Yposition Zposition Xrotation Yrotation Zrotation
											JOINT special05.L
											{
												OFFSET 0.377370 -0.641890 -0.167000
												CHANNELS 6 Xposition Yposition Zposition Xrotation Yrotation Zrotation
												JOINT eye.L
												{
													OFFSET 0.236300 -0.197100 -1.053999
													CHANNELS 6 Xposition Yposition Zposition Xrotation Yrotation Zrotation
													End Site
													{
														OFFSET 0.123888 -0.387954 -0.038559
													}
												}
												JOINT orbicularis03.L
												{
													OFFSET 0.236300 -0.197100 -1.053999
													CHANNELS 6 Xposition Yposition Zposition Xrotation Yrotation Zrotation
													End Site
													{
														OFFSET 0.106701 -0.367157 0.089193
													}
												}
												JOINT orbicularis04.L
												{
													OFFSET 0.236300 -0.197100 -1.053999
													CHANNELS 6 Xposition Yposition Zposition Xrotation Yrotation Zrotation
													End Site
													{
														OFFSET 0.124414 -0.360851 -0.162123
													}
												}
											}
										}
										JOINT special06.R
										{
											OFFSET -0.124316 0.047420 1.680000
											CHANNELS 6 Xposition Yposition Zposition Xrotation Yrotation Zrotation
											JOINT special05.R
											{
												OFFSET -0.000530 -0.744590 -0.195999
												CHANNELS 6 Xposition Yposition Zposition Xrotation Yrotation Zrotation
												JOINT eye.R
												{
													OFFSET 0.027763 -0.254600 -1.070000
													CHANNELS 6 Xposition Yposition Zposition Xrotation Yrotation Zrotation
													End Site
													{
														OFFSET 0.095865 -0.395718 -0.040819
													}
												}
												JOINT orbicularis03.R
												{
													OFFSET 0.027763 -0.254600 -1.070000
													CHANNELS 6 Xposition Yposition Zposition Xrotation Yrotation Zrotation
													End Site
													{
														OFFSET 0.085297 -0.374364 0.087172
													}
												}
												JOINT orbicularis04.R
												{
													OFFSET 0.027763 -0.254600 -1.070000
													CHANNELS 6 Xposition Yposition Zposition Xrotation Yrotation Zrotation
													End Site
													{
														OFFSET 0.096361 -0.368955 -0.164627
													}
												}
											}
										}
										JOINT temporalis01.L
										{
											OFFSET 0.771734 -0.520510 0.574001
											CHANNELS 6 Xposition Yposition Zposition Xrotation Yrotation Zrotation
											JOINT oculi02.L
											{
												OFFSET -0.023560 -0.214460 0.013000
												CHANNELS 6 Xposition Yposition Zposition Xrotation Yrotation Zrotation
												JOINT oculi01.L
												{
													OFFSET -0.175250 -0.260800 0.125999
													CHANNELS 6 Xposition Yposition Zposition Xrotation Yrotation Zrotation
													End Site
													{
														OFFSET -0.189040 -0.113465 -0.034061
													}
												}
											}
										}
										JOINT temporalis01.R
										{
											OFFSET -0.486246 -0.867470 0.474001
											CHANNELS 6 Xposition Yposition Zposition Xrotation Yrotation Zrotation
											JOINT oculi02.R
											{
												OFFSET 0.132990 -0.168200 0.036001
												CHANNELS 6 Xposition Yposition Zposition Xrotation Yrotation Zrotation
												JOINT oculi01.R
												{
													OFFSET 0.260537 -0.148100 0.132999
													CHANNELS 6 Xposition Yposition Zposition Xrotation Yrotation Zrotation
													End Site
													{
														OFFSET 0.208416 -0.011267 -0.030018
													}
												}
											}
										}
										JOINT temporalis02.L
										{
											OFFSET 0.797174 -0.491590 0.320002
											CHANNELS 6 Xposition Yposition Zposition Xrotation Yrotation Zrotation
											JOINT risorius02.L
											{
												OFFSET -0.056980 -0.218580 0.074999
												CHANNELS 6 Xposition Yposition Zposition Xrotation Yrotation Zrotation
												JOINT risorius03.L
												{
													OFFSET 0.002560 -0.095100 -0.313000
													CHANNELS 6 Xposition Yposition Zposition Xrotation Yrotation Zrotation
													End Site
													{
														OFFSET 0.024663 0.183281 -0.300013
													}
												}
											}
										}
										JOINT temporalis02.R
										{
											OFFSET -0.497416 -0.838370 0.221001
											CHANNELS 6 Xposition Yposition Zposition Xrotation Yrotation Zrotation
											JOINT risorius02.R
											{
												OFFSET 0.159530 -0.165000 0.091000
												CHANNELS 6 Xposition Yposition Zposition Xrotation Yrotation Zrotation
												JOINT risorius03.R
												{
													OFFSET 0.068760 -0.058300 -0.301998
													CHANNELS 6 Xposition Yposition Zposition Xrotation Yrotation Zrotation
													End Site
													{
														OFFSET -0.078371 0.152752 -0.310791
													}
												}
											}
										}
									}
								}
							}
						}
					}
				}
			}
		}
	}
	JOINT pelvis.L
	{
		OFFSET 0.000000 -0.754926 0.149000
		CHANNELS 6 Xposition Yposition Zposition Xrotation Yrotation Zrotation
		JOINT upperleg01.L
		{
			OFFSET 1.227600 0.114290 -0.171000
			CHANNELS 6 Xposition Yposition Zposition Xrotation Yrotation Zrotation
			JOINT upperleg02.L
			{
				OFFSET -0.122300 -0.263204 -0.829700
				CHANNELS 6 Xposition Yposition Zposition Xrotation Yrotation Zrotation
				JOINT lowerleg01.L
				{
					OFFSET 0.565300 -0.090390 -4.302100
					CHANNELS 6 Xposition Yposition Zposition Xrotation Yrotation Zrotation
					JOINT lowerleg02.L
					{
						OFFSET 0.245000 0.129440 -2.615700
						CHANNELS 6 Xposition Yposition Zposition Xrotation Yrotation Zrotation
						JOINT foot.L
						{
							OFFSET 0.245000 0.129436 -2.615700
							CHANNELS 6 Xposition Yposition Zposition Xrotation Yrotation Zrotation
							JOINT toe1-1.L
							{
								OFFSET -0.339700 -1.684186 -0.473800
								CHANNELS 6 Xposition Yposition Zposition Xrotation Yrotation Zrotation
								JOINT toe1-2.L
								{
									OFFSET 0.027000 -0.318400 -0.085600
									CHANNELS 6 Xposition Yposition Zposition Xrotation Yrotation Zrotation
									End Site
									{
										OFFSET 0.048533 -0.353398 -0.121492
									}
								}
							}
							JOINT toe2-1.L
							{
								OFFSET -0.048200 -1.720786 -0.513600
								CHANNELS 6 Xposition Yposition Zposition Xrotation Yrotation Zrotation
								JOINT toe2-2.L
								{
									OFFSET 0.017400 -0.264700 -0.041200
									CHANNELS 6 Xposition Yposition Zposition Xrotation Yrotation Zrotation
									JOINT toe2-3.L
									{
										OFFSET 0.003000 -0.166100 -0.057800
										CHANNELS 6 Xposition Yposition Zposition Xrotation Yrotation Zrotation
										End Site
										{
											OFFSET 0.010693 -0.205299 -0.068101
										}
									}
								}
							}
							JOINT toe3-1.L
							{
								OFFSET 0.159000 -1.684886 -0.545800
								CHANNELS 6 Xposition Yposition Zposition Xrotation Yrotation Zrotation
								JOINT toe3-2.L
								{
									OFFSET 0.006000 -0.244300 -0.033600
									CHANNELS 6 Xposition Yposition Zposition Xrotation Yrotation Zrotation
									JOINT toe3-3.L
									{
										OFFSET -0.004600 -0.151900 -0.045700
										CHANNELS 6 Xposition Yposition Zposition Xrotation Yrotation Zrotation
										End Site
										{
											OFFSET 0.000699 -0.160092 -0.043429
										}
									}
								}
							}
							JOINT toe4-1.L
							{
								OFFSET 0.341400 -1.589486 -0.555100
								CHANNELS 6 Xposition Yposition Zposition Xrotation Yrotation Zrotation
								JOINT toe4-2.L
								{
									OFFSET 0.002800 -0.190400 -0.030800
									CHANNELS 6 Xposition Yposition Zposition Xrotation Yrotation Zrotation
									JOINT toe4-3.L
									{
										OFFSET -0.013700 -0.148200 -0.042000
										CHANNELS 6 Xposition Yposition Zposition Xrotation Yrotation Zrotation
										End Site
										{
											OFFSET 0.007323 -0.134305 -0.059386
										}
									}
								}
							}
							JOINT toe5-1.L
							{
								OFFSET 0.516300 -1.543186 -0.572500
								CHANNELS 6 Xposition Yposition Zposition Xrotation Yrotation Zrotation
								JOINT toe5-2.L
								{
									OFFSET -0.000600 -0.140900 -0.032000
									CHANNELS 6 Xposition Yposition Zposition Xrotation Yrotation Zrotation
									JOINT toe5-3.L
									{
										OFFSET -0.017800 -0.100900 -0.028500
										CHANNELS 6 Xposition Yposition Zposition Xrotation Yrotation Zrotation
										End Site
										{
											OFFSET -0.000968 -0.135612 -0.072277
										}
									}
								}
							}
						}
					}
				}
			}
		}
	}
	JOINT pelvis.R
	{
		OFFSET 0.000000 -0.754926 0.149000
		CHANNELS 6 Xposition Yposition Zposition Xrotation Yrotation Zrotation
		JOINT upperleg01.R
		{
			OFFSET -1.227600 0.114290 -0.171000
			CHANNELS 6 Xposition Yposition Zposition Xrotation Yrotation Zrotation
			JOINT upperleg02.R
			{
				OFFSET 0.122300 -0.263204 -0.829700
				CHANNELS 6 Xposition Yposition Zposition Xrotation Yrotation Zrotation
				JOINT lowerleg01.R
				{
					OFFSET -0.565300 -0.090390 -4.302100
					CHANNELS 6 Xposition Yposition Zposition Xrotation Yrotation Zrotation
					JOINT lowerleg02.R
					{
						OFFSET -0.245000 0.129440 -2.615700
						CHANNELS 6 Xposition Yposition Zposition Xrotation Yrotation Zrotation
						JOINT foot.R
						{
							OFFSET -0.245000 0.129436 -2.615700
							CHANNELS 6 Xposition Yposition Zposition Xrotation Yrotation Zrotation
							JOINT toe1-1.R
							{
								OFFSET 0.339700 -1.684186 -0.473800
								CHANNELS 6 Xposition Yposition Zposition Xrotation Yrotation Zrotation
								JOINT toe1-2.R
								{
									OFFSET -0.027000 -0.318400 -0.085600
									CHANNELS 6 Xposition Yposition Zposition Xrotation Yrotation Zrotation
									End Site
									{
										OFFSET -0.048533 -0.353398 -0.121492
									}
								}
							}
							JOINT toe2-1.R
							{
								OFFSET 0.048200 -1.720786 -0.513600
								CHANNELS 6 Xposition Yposition Zposition Xrotation Yrotation Zrotation
								JOINT toe2-2.R
								{
									OFFSET -0.017400 -0.264700 -0.041200
									CHANNELS 6 Xposition Yposition Zposition Xrotation Yrotation Zrotation
									JOINT toe2-3.R
									{
										OFFSET -0.003000 -0.166100 -0.057800
										CHANNELS 6 Xposition Yposition Zposition Xrotation Yrotation Zrotation
										End Site
										{
											OFFSET -0.010693 -0.205299 -0.068101
										}
									}
								}
							}
							JOINT toe3-1.R
							{
								OFFSET -0.159000 -1.684886 -0.545800
								CHANNELS 6 Xposition Yposition Zposition Xrotation Yrotation Zrotation
								JOINT toe3-2.R
								{
									OFFSET -0.006000 -0.244300 -0.033600
									CHANNELS 6 Xposition Yposition Zposition Xrotation Yrotation Zrotation
									JOINT toe3-3.R
									{
										OFFSET 0.004600 -0.151900 -0.045700
										CHANNELS 6 Xposition Yposition Zposition Xrotation Yrotation Zrotation
										End Site
										{
											OFFSET -0.000699 -0.160092 -0.043429
										}
									}
								}
							}
							JOINT toe4-1.R
							{
								OFFSET -0.341400 -1.589486 -0.555100
								CHANNELS 6 Xposition Yposition Zposition Xrotation Yrotation Zrotation
								JOINT toe4-2.R
								{
									OFFSET -0.002800 -0.190400 -0.030800
									CHANNELS 6 Xposition Yposition Zposition Xrotation Yrotation Zrotation
									JOINT toe4-3.R
									{
										OFFSET 0.013700 -0.148200 -0.042000
										CHANNELS 6 Xposition Yposition Zposition Xrotation Yrotation Zrotation
										End Site
										{
											OFFSET -0.007323 -0.134305 -0.059386
										}
									}
								}
							}
							JOINT toe5-1.R
							{
								OFFSET -0.516300 -1.543186 -0.572500
								CHANNELS 6 Xposition Yposition Zposition Xrotation Yrotation Zrotation
								JOINT toe5-2.R
								{
									OFFSET 0.000600 -0.140900 -0.032000
									CHANNELS 6 Xposition Yposition Zposition Xrotation Yrotation Zrotation
									JOINT toe5-3.R
									{
										OFFSET 0.017800 -0.100900 -0.028500
										CHANNELS 6 Xposition Yposition Zposition Xrotation Yrotation Zrotation
										End Site
										{
											OFFSET 0.000968 -0.135612 -0.072277
										}
									}
								}
							}
						}
					}
				}
			}
		}
	}
}
MOTION
Frames: 1
Frame Time: 0.041667
0.000000 0.655540 11.217300 -0.000000 0.000000 -0.000000 0.000000 -0.754925 0.149001 30.893000 0.000000 -0.000000 0.000000 0.353325 0.883299 6.609375 0.000000 -0.000000 0.000000 -0.101241 0.740901 2.303410 0.000000 -0.000000 0.000000 0.130500 0.715301 8.104264 0.000000 -0.000000 0.000000 0.223432 1.624800 -0.000004 0.000000 -0.000000 -0.000000 0.223431 1.624802 -0.000007 0.000000 -0.000000 0.000000 0.223431 1.624800 4.455109 0.000000 -0.000000 0.259960 -0.849749 1.553800 -0.000001 -0.000000 -0.000000 1.048740 0.036059 0.194099 -41.155086 16.671664 -16.968509 0.847499 0.094460 -0.499695 -3.986525 13.892846 -0.268743 0.457600 0.018160 -0.593102 -10.672005 -2.749381 -6.929441 1.586799 -0.084289 -1.718802 -8.191648 17.471626 -41.596562 0.744600 -1.063271 -0.714599 0.000001 -0.000003 -0.000007 0.744600 -1.063401 -0.714697 -4.572637 -14.688759 11.938063 0.015701 -0.553701 -0.078000 -0.000002 -0.000004 0.000002 -0.257101 -0.262701 -0.101399 0.000000 -0.000004 -0.000000 -0.157498 -0.397900 -0.155098 17.864056 -14.194509 -7.722887 0.134701 -0.338003 -0.186900 -11.924421 -10.235070 -1.292163 0.203499 -0.850301 -0.275601 3.196572 4.097611 -29.330540 0.040401 -0.265302 -0.179697 -14.272572 -2.423080 -78.071480 -0.006600 -0.214202 -0.196900 0.000007 -0.000001 -0.000005 0.134702 -0.338002 -0.186899 -8.619609 -6.057663 -7.423054 0.400900 -0.638599 -0.423002 -5.397258 10.721579 23.075239 0.092499 -0.267898 -0.313597 36.364241 24.257094 -22.438088 0.030798 -0.215998 -0.253499 49.277923 43.333811 -31.721338 0.278302 -0.216602 -0.379597 -5.936022 -10.568674 0.403643 0.350401 -0.546702 -0.329400 -23.476217 12.306231 14.204821 0.114698 -0.186798 -0.299299 18.476066 15.062760 -12.325650 0.056900 -0.167899 -0.250599 30.175424 40.829751 -14.461640 0.278300 -0.216601 -0.379598 -4.008532 -6.561116 -7.295733 0.370999 -0.309902 -0.447401 -28.436297 14.044623 10.081640 0.075099 -0.105798 -0.230600 16.338110 11.021945 -1.466137 0.025201 -0.078802 -0.173599 0.000003 -0.000002 0.000002 -0.259960 -0.849749 1.553800 -0.000001 0.000000 -0.000000 -1.048741 0.036058 0.194099 -39.396582 -12.532716 12.511220 -0.847501 0.094461 -0.499696 7.624667 -12.868650 30.506886 -0.457599 0.018160 -0.593102 -9.361958 8.576378 6.324755 -1.586798 -0.084292 -1.718801 -25.601207 -6.776891 15.695126 -0.744600 -1.063270 -0.714600 0.000001 -0.000003 0.000004 -0.744600 -1.063402 -0.714698 -17.927134 5.101590 -12.286389 -0.015700 -0.553700 -0.078000 -0.000002 -0.000000 -0.000003 0.257100 -0.262700 -0.101400 19.746403 12.058090 3.593534 0.157499 -0.397901 -0.155099 3.309889 -2.835023 -1.625276 -0.134700 -0.338001 -0.186901 3.586857 3.372366 8.655830 -0.203501 -0.850301 -0.275601 8.512260 -5.577944 31.358669 -0.040400 -0.265301 -0.179698 21.823148 -24.131523 29.078373 0.006598 -0.214202 -0.196899 6.626152 -12.727516 23.948038 -0.134701 -0.338000 -0.186900 2.846125 -2.963951 -3.799166 -0.400898 -0.638600 -0.423001 19.941518 -24.521429 21.173364 -0.092499 -0.267900 -0.313598 16.704438 -24.100242 20.511946 -0.030800 -0.215998 -0.253499 23.673885 -2.349077 21.089749 -0.278301 -0.216600 -0.379601 -0.000002 -0.000002 0.000002 -0.350398 -0.546702 -0.329401 9.910242 -21.556118 17.421535 -0.114698 -0.186800 -0.299298 20.576401 -26.415929 17.772646 -0.056900 -0.167899 -0.250598 21.987649 -28.787441 10.019288 -0.278298 -0.216599 -0.379601 5.286090 -9.611846 4.456919 -0.371000 -0.309900 -0.447399 13.226483 -23.408698 36.439954 -0.075099 -0.105801 -0.230600 2.272656 -13.617603 4.881864 -0.025200 -0.078802 -0.173599 4.882083 -31.572761 13.346663 -0.000000 -0.659980 2.398202 -15.405592 -0.000001 0.000002 -0.000797 -0.060539 0.240403 -21.375401 -0.000002 -0.000002 -0.002827 -0.104221 0.386900 -0.000003 -0.000001 -0.000002 0.007029 -0.106920 0.415998 0.000000 0.000001 0.000003 0.040009 -0.211690 0.067001 0.000001 -0.000001 0.000002 0.229415 -0.672181 -0.945698 -0.000000 0.000000 -0.000000 0.041210 -0.188400 0.239296 0.000005 0.000000 -0.000001 0.019050 -0.079600 0.185396 -0.000001 0.000000 -0.000001 0.041211 -0.188400 0.239298 0.000004 0.000002 -0.000000 0.161280 0.004698 0.110399 0.000002 -0.000001 0.000003 0.041209 -0.188400 0.239298 0.000003 -0.000003 0.000001 -0.118138 -0.073301 0.092401 0.000001 0.000003 0.000000 0.229415 -0.672179 -0.945698 -0.000002 0.000001 -0.000001 -0.164150 0.534171 0.530697 -0.000005 0.000000 0.000001 0.078780 -0.296470 0.048998 0.000001 0.000000 0.000000 0.057110 -0.208600 0.004002 -0.000001 0.000001 0.000001 0.026270 -0.084400 -0.048998 0.000001 0.000000 -0.000000 0.026270 -0.084400 -0.049002 -0.000001 0.000000 0.000000 0.026270 -0.084401 -0.048998 0.000005 0.000000 0.000003 0.057110 -0.208600 0.004004 -0.000001 -0.000001 -0.000001 0.057111 -0.208600 0.004002 -0.000001 0.000002 0.000001 0.078780 -0.296470 0.049000 -0.000000 -0.000000 -0.000000 0.078779 -0.296470 0.049002 -0.000002 -0.000002 -0.000001 0.329703 -1.278770 0.228003 0.000003 -0.000002 0.000002 0.138210 0.252401 -0.073998 -0.000004 0.000000 0.000001 0.099680 0.032602 -0.215000 -0.000006 -0.000001 -0.000002 0.082630 0.034700 -0.139002 0.000001 -0.000001 -0.000001 0.279655 -1.294870 0.220003 0.000001 -0.000001 0.000002 -0.210354 0.163199 -0.107000 0.000001 0.000000 -0.000001 -0.063032 -0.002800 -0.213995 -0.000000 0.000001 -0.000001 -0.034098 0.003600 -0.169002 -0.000002 0.000000 -0.000001 -0.212606 0.724000 -0.005999 0.000002 -0.000001 0.000001 0.540121 -1.946670 -0.119005 -0.000000 0.000003 0.000001 0.151548 0.087300 -0.050001 0.000001 -0.000003 -0.000003 0.540120 -1.946670 -0.119001 -0.000002 0.000000 0.000000 -0.147081 0.011500 -0.065998 -0.000000 -0.000006 -0.000003 0.540121 -1.946670 -0.119005 -0.000001 0.000001 0.000002 0.006430 0.020701 -0.068003 -0.000005 -0.000002 -0.000001 0.040009 -0.211691 0.067003 0.000001 -0.000001 -0.000000 0.356675 -1.164979 -0.074001 0.000002 -0.000003 -0.000002 0.260005 -1.195681 -0.081999 0.000001 -0.000001 -0.000003 -0.124316 0.047418 1.680002 0.000002 0.000000 0.000004 0.377370 -0.641888 -0.166998 -0.000003 0.000000 -0.000001 0.236300 -0.197100 -1.053999 0.000002 -0.000001 -0.000002 0.236300 -0.197099 -1.053999 -0.000001 -0.000000 0.000001 0.236300 -0.197100 -1.053999 -0.000001 0.000002 -0.000001 -0.124316 0.047420 1.680002 -0.000002 -0.000001 0.000000 -0.000530 -0.744590 -0.195997 -0.000002 0.000001 -0.000000 0.027763 -0.254601 -1.069996 -0.000001 0.000000 -0.000000 0.027763 -0.254599 -1.069998 0.000000 0.000000 -0.000000 0.027763 -0.254599 -1.070002 0.000001 0.000000 -0.000000 0.771733 -0.520510 0.574001 0.000002 -0.000003 0.000000 -0.023561 -0.214460 0.013000 0.000001 0.000002 -0.000002 -0.175250 -0.260800 0.125999 -0.000005 -0.000000 0.000003 -0.486246 -0.867471 0.474001 0.000003 -0.000000 0.000002 0.132990 -0.168200 0.036005 0.000003 -0.000004 -0.000000 0.260538 -0.148100 0.132999 0.000003 0.000001 -0.000000 0.797174 -0.491591 0.320002 0.000002 -0.000001 0.000001 -0.056980 -0.218580 0.074997 -0.000001 -0.000001 -0.000002 0.002559 -0.095100 -0.312998 0.000003 -0.000000 -0.000001 -0.497416 -0.838372 0.221003 0.000000 0.000001 0.000002 0.159531 -0.165000 0.090998 0.000001 -0.000001 0.000002 0.068759 -0.058297 -0.301998 -0.000000 0.000000 -0.000002 -0.000000 -0.754925 0.149001 -0.000002 2.423788 -0.000001 1.227600 0.114289 -0.171001 0.000001 4.157834 12.025738 -0.122300 -0.263204 -0.829698 -7.264243 -8.982180 -32.232370 0.565300 -0.090390 -4.302102 12.678681 40.866002 30.891696 0.245000 0.129440 -2.615700 -0.000001 -0.000000 0.000000 0.245000 0.129436 -2.615700 23.415985 18.990390 -2.517615 -0.339700 -1.684186 -0.473800 0.000000 0.000000 -0.000003 0.027000 -0.318400 -0.085600 -0.000004 0.000001 0.000002 -0.048200 -1.720786 -0.513600 0.000000 0.000002 -0.000001 0.017400 -0.264700 -0.041200 -0.000003 -0.000002 -0.000000 0.003000 -0.166100 -0.057800 -0.000004 -0.000000 0.000000 0.159001 -1.684886 -0.545800 -0.000001 0.000004 -0.000002 0.005999 -0.244300 -0.033600 0.000001 0.000002 0.000002 -0.004600 -0.151900 -0.045700 0.000005 0.000000 0.000001 0.341400 -1.589486 -0.555100 0.000001 0.000002 0.000001 0.002800 -0.190400 -0.030800 0.000003 -0.000001 0.000006 -0.013700 -0.148200 -0.042000 -0.000002 -0.000000 -0.000002 0.516300 -1.543186 -0.572500 -0.000001 0.000003 0.000001 -0.000600 -0.140900 -0.032000 -0.000000 -0.000001 0.000004 -0.017800 -0.100900 -0.028500 -0.000007 -0.000001 -0.000002 0.000000 -0.754925 0.149000 -0.000002 0.000001 -0.000000 -1.227600 0.114290 -0.171000 0.000001 -5.476271 0.000002 0.122300 -0.263204 -0.829698 0.000001 -6.009904 0.000002 -0.565300 -0.090390 -4.302099 0.000000 -0.000002 -0.000000 -0.245000 0.129440 -2.615700 0.000000 -0.000001 0.000000 -0.245000 0.129436 -2.615700 -0.000002 -0.000001 0.000000 0.339700 -1.684186 -0.473800 -0.000000 -0.000000 0.000001 -0.027000 -0.318400 -0.085600 0.000000 -0.000001 -0.000000 0.048200 -1.720786 -0.513600 0.000004 -0.000000 0.000001 -0.017400 -0.264700 -0.041200 -0.000003 -0.000001 -0.000001 -0.003000 -0.166100 -0.057800 -0.000001 0.000001 0.000000 -0.159000 -1.684886 -0.545800 0.000003 0.000001 0.000000 -0.006000 -0.244300 -0.033600 -0.000001 0.000000 -0.000000 0.004600 -0.151900 -0.045700 0.000001 0.000000 -0.000000 -0.341400 -1.589486 -0.555100 0.000002 -0.000001 0.000000 -0.002800 -0.190400 -0.030800 -0.000001 -0.000001 0.000000 0.013700 -0.148200 -0.042000 -0.000001 0.000001 0.000001 -0.516300 -1.543186 -0.572500 0.000002 -0.000001 0.000000 0.000600 -0.140900 -0.032000 -0.000002 -0.000001 -0.000001 0.017800 -0.100900 -0.028500 -0.000000 0.000002 -0.000001 
