HIERARCHY
ROOT root
{
	OFFSET 0.000000 0.703700 10.723599
	CHANNELS 6 Xposition Yposition Zposition Xrotation Yrotation Zrotation
	JOINT spine05
	{
		OFFSET 0.000000 -0.780220 0.122900
		CHANNELS 6 Xposition Yposition Zposition Xrotation Yrotation Zrotation
		JOINT spine04
		{
			OFFSET 0.000000 0.347250 0.953000
			CHANNELS 6 Xposition Yposition Zposition Xrotation Yrotation Zrotation
			JOINT spine03
			{
				OFFSET 0.000000 -0.089580 0.791401
				CHANNELS 6 Xposition Yposition Zposition Xrotation Yrotation Zrotation
				JOINT spine02
				{
					OFFSET 0.000000 0.231210 0.714499
					CHANNELS 6 Xposition Yposition Zposition Xrotation Yrotation Zrotation
					JOINT breast.L
					{
						OFFSET 0.000000 0.244060 1.528800
						CHANNELS 6 Xposition Yposition Zposition Xrotation Yrotation Zrotation
						End Site
						{
							OFFSET 1.095230 -2.299012 -0.286370
						}
					}
					JOINT breast.R
					{
						OFFSET 0.000000 0.244060 1.528800
						CHANNELS 6 Xposition Yposition Zposition Xrotation Yrotation Zrotation
						End Site
						{
							OFFSET -1.095230 -2.299012 -0.286370
						}
					}
					JOINT spine01
					{
						OFFSET 0.000000 0.244060 1.528800
						CHANNELS 6 Xposition Yposition Zposition Xrotation Yrotation Zrotation
						JOINT clavicle.L
						{
							OFFSET 0.253430 -0.997500 1.388800
							CHANNELS 6 Xposition Yposition Zposition Xrotation Yrotation Zrotation
							JOINT shoulder01.L
							{
								OFFSET 1.017970 0.073990 0.216900
								CHANNELS 6 Xposition Yposition Zposition Xrotation Yrotation Zrotation
								JOINT upperarm01.L
								{
									OFFSET 0.699500 0.107040 -0.500700
									CHANNELS 6 Xposition Yposition Zposition Xrotation Yrotation Zrotation
									JOINT upperarm02.L
									{
										OFFSET 0.488700 -0.010160 -0.551300
										CHANNELS 6 Xposition Yposition Zposition Xrotation Yrotation Zrotation
										JOINT lowerarm01.L
										{
											OFFSET 1.453700 -0.103030 -1.607399
											CHANNELS 6 Xposition Yposition Zposition Xrotation Yrotation Zrotation
											JOINT lowerarm02.L
											{
												OFFSET 0.694000 -0.989660 -0.666301
												CHANNELS 6 Xposition Yposition Zposition Xrotation Yrotation Zrotation
												JOINT wrist.L
												{
													OFFSET 0.693900 -0.989700 -0.666200
													CHANNELS 6 Xposition Yposition Zposition Xrotation Yrotation Zrotation
													JOINT finger1-1.L
													{
														OFFSET 0.010700 -0.509500 -0.073800
														CHANNELS 6 Xposition Yposition Zposition Xrotation Yrotation Zrotation
														JOINT finger1-2.L
														{
															OFFSET -0.234900 -0.243400 -0.092000
															CHANNELS 6 Xposition Yposition Zposition Xrotation Yrotation Zrotation
															JOINT finger1-3.L
															{
																OFFSET -0.145500 -0.366900 -0.143300
																CHANNELS 6 Xposition Yposition Zposition Xrotation Yrotation Zrotation
																End Site
																{
																	OFFSET -0.059788 -0.241235 -0.185760
																}
															}
														}
													}
													JOINT metacarpal1.L
													{
														OFFSET 0.120800 -0.310400 -0.174200
														CHANNELS 6 Xposition Yposition Zposition Xrotation Yrotation Zrotation
														JOINT finger2-1.L
														{
															OFFSET 0.193400 -0.786200 -0.252200
															CHANNELS 6 Xposition Yposition Zposition Xrotation Yrotation Zrotation
															JOINT finger2-2.L
															{
																OFFSET 0.039500 -0.247400 -0.164600
																CHANNELS 6 Xposition Yposition Zposition Xrotation Yrotation Zrotation
																JOINT finger2-3.L
																{
																	OFFSET -0.007800 -0.196200 -0.182199
																	CHANNELS 6 Xposition Yposition Zposition Xrotation Yrotation Zrotation
																	End Site
																	{
																		OFFSET -0.039564 -0.203004 -0.215302
																	}
																}
															}
														}
													}
													JOINT metacarpal2.L
													{
														OFFSET 0.120800 -0.310400 -0.174200
														CHANNELS 6 Xposition Yposition Zposition Xrotation Yrotation Zrotation
														JOINT finger3-1.L
														{
															OFFSET 0.377200 -0.591300 -0.386000
															CHANNELS 6 Xposition Yposition Zposition Xrotation Yrotation Zrotation
															JOINT finger3-2.L
															{
																OFFSET 0.084100 -0.247500 -0.290401
																CHANNELS 6 Xposition Yposition Zposition Xrotation Yrotation Zrotation
																JOINT finger3-3.L
																{
																	OFFSET 0.025200 -0.198100 -0.236300
																	CHANNELS 6 Xposition Yposition Zposition Xrotation Yrotation Zrotation
																	End Site
																	{
																		OFFSET 0.004599 -0.180111 -0.245291
																	}
																}
															}
														}
													}
													JOINT metacarpal3.L
													{
														OFFSET 0.253100 -0.198400 -0.352100
														CHANNELS 6 Xposition Yposition Zposition Xrotation Yrotation Zrotation
														JOINT finger4-1.L
														{
															OFFSET 0.326400 -0.505300 -0.302600
															CHANNELS 6 Xposition Yposition Zposition Xrotation Yrotation Zrotation
															JOINT finger4-2.L
															{
																OFFSET 0.106900 -0.173000 -0.275900
																CHANNELS 6 Xposition Yposition Zposition Xrotation Yrotation Zrotation
																JOINT finger4-3.L
																{
																	OFFSET 0.051300 -0.154500 -0.231600
																	CHANNELS 6 Xposition Yposition Zposition Xrotation Yrotation Zrotation
																	End Site
																	{
																		OFFSET 0.031690 -0.138435 -0.265985
																	}
																}
															}
														}
													}
													JOINT metacarpal4.L
													{
														OFFSET 0.253100 -0.198400 -0.352100
														CHANNELS 6 Xposition Yposition Zposition Xrotation Yrotation Zrotation
														JOINT finger5-1.L
														{
															OFFSET 0.345100 -0.286800 -0.411800
															CHANNELS 6 Xposition Yposition Zposition Xrotation Yrotation Zrotation
															JOINT finger5-2.L
															{
																OFFSET 0.070600 -0.098500 -0.212700
																CHANNELS 6 Xposition Yposition Zposition Xrotation Yrotation Zrotation
																JOINT finger5-3.L
																{
																	OFFSET 0.021900 -0.072100 -0.160099
																	CHANNELS 6 Xposition Yposition Zposition Xrotation Yrotation Zrotation
																	End Site
																	{
																		OFFSET 0.026403 -0.084901 -0.207189
																	}
																}
															}
														}
													}
												}
											}
										}
									}
								}
							}
						}
						JOINT clavicle.R
						{
							OFFSET -0.253430 -0.997500 1.388800
							CHANNELS 6 Xposition Yposition Zposition Xrotation Yrotation Zrotation
							JOINT shoulder01.R
							{
								OFFSET -1.017970 0.073990 0.216900
								CHANNELS 6 Xposition Yposition Zposition Xrotation Yrotation Zrotation
								JOINT upperarm01.R
								{
									OFFSET -0.699500 0.107040 -0.500700
									CHANNELS 6 Xposition Yposition Zposition Xrotation Yrotation Zrotation
									JOINT upperarm02.R
									{
										OFFSET -0.488700 -0.010160 -0.551300
										CHANNELS 6 Xposition Yposition Zposition Xrotation Yrotation Zrotation
										JOINT lowerarm01.R
										{
											OFFSET -1.453700 -0.103030 -1.607399
											CHANNELS 6 Xposition Yposition Zposition Xrotation Yrotation Zrotation
											JOINT lowerarm02.R
											{
												OFFSET -0.694000 -0.989660 -0.666301
												CHANNELS 6 Xposition Yposition Zposition Xrotation Yrotation Zrotation
												JOINT wrist.R
												{
													OFFSET -0.693900 -0.989700 -0.666200
													CHANNELS 6 Xposition Yposition Zposition Xrotation Yrotation Zrotation
													JOINT finger1-1.R
													{
														OFFSET -0.010700 -0.509500 -0.073800
														CHANNELS 6 Xposition Yposition Zposition Xrotation Yrotation Zrotation
														JOINT finger1-2.R
														{
															OFFSET 0.234900 -0.243400 -0.092000
															CHANNELS 6 Xposition Yposition Zposition Xrotation Yrotation Zrotation
															JOINT finger1-3.R
															{
																OFFSET 0.145500 -0.366900 -0.143300
																CHANNELS 6 Xposition Yposition Zposition Xrotation Yrotation Zrotation
																End Site
																{
																	OFFSET 0.059788 -0.241235 -0.185760
																}
															}
														}
													}
													JOINT metacarpal1.R
													{
														OFFSET -0.120800 -0.310400 -0.174200
														CHANNELS 6 Xposition Yposition Zposition Xrotation Yrotation Zrotation
														JOINT finger2-1.R
														{
															OFFSET -0.193400 -0.786200 -0.252200
															CHANNELS 6 Xposition Yposition Zposition Xrotation Yrotation Zrotation
															JOINT finger2-2.R
															{
																OFFSET -0.039500 -0.247400 -0.164600
																CHANNELS 6 Xposition Yposition Zposition Xrotation Yrotation Zrotation
																JOINT finger2-3.R
																{
																	OFFSET 0.007800 -0.196200 -0.182199
																	CHANNELS 6 Xposition Yposition Zposition Xrotation Yrotation Zrotation
																	End Site
																	{
																		OFFSET 0.039564 -0.203004 -0.215302
																	}
																}
															}
														}
													}
													JOINT metacarpal2.R
													{
														OFFSET -0.120800 -0.310400 -0.174200
														CHANNELS 6 Xposition Yposition Zposition Xrotation Yrotation Zrotation
														JOINT finger3-1.R
														{
															OFFSET -0.377200 -0.591300 -0.386000
															CHANNELS 6 Xposition Yposition Zposition Xrotation Yrotation Zrotation
															JOINT finger3-2.R
															{
																OFFSET -0.084100 -0.247500 -0.290401
																CHANNELS 6 Xposition Yposition Zposition Xrotation Yrotation Zrotation
																JOINT finger3-3.R
																{
																	OFFSET -0.025200 -0.198100 -0.236300
																	CHANNELS 6 Xposition Yposition Zposition Xrotation Yrotation Zrotation
																	End Site
																	{
																		OFFSET -0.004599 -0.180111 -0.245291
																	}
																}
															}
														}
													}
													JOINT metacarpal3.R
													{
														OFFSET -0.253100 -0.198400 -0.352100
														CHANNELS 6 Xposition Yposition Zposition Xrotation Yrotation Zrotation
														JOINT finger4-1.R
														{
															OFFSET -0.326400 -0.505300 -0.302600
															CHANNELS 6 Xposition Yposition Zposition Xrotation Yrotation Zrotation
															JOINT finger4-2.R
															{
																OFFSET -0.106900 -0.173000 -0.275900
																CHANNELS 6 Xposition Yposition Zposition Xrotation Yrotation Zrotation
																JOINT finger4-3.R
																{
																	OFFSET -0.051300 -0.154500 -0.231600
																	CHANNELS 6 Xposition Yposition Zposition Xrotation Yrotation Zrotation
																	End Site
																	{
																		OFFSET -0.031690 -0.138435 -0.265985
																	}
																}
															}
														}
													}
													JOINT metacarpal4.R
													{
														OFFSET -0.253100 -0.198400 -0.352100
														CHANNELS 6 Xposition Yposition Zposition Xrotation Yrotation Zrotation
														JOINT finger5-1.R
														{
															OFFSET -0.345100 -0.286800 -0.411800
															CHANNELS 6 Xposition Yposition Zposition Xrotation Yrotation Zrotation
															JOINT finger5-2.R
															{
																OFFSET -0.070600 -0.098500 -0.212700
																CHANNELS 6 Xposition Yposition Zposition Xrotation Yrotation Zrotation
																JOINT finger5-3.R
																{
																	OFFSET -0.021900 -0.072100 -0.160099
																	CHANNELS 6 Xposition Yposition Zposition Xrotation Yrotation Zrotation
																	End Site
																	{
																		OFFSET -0.026403 -0.084901 -0.207189
																	}
																}
															}
														}
													}
												}
											}
										}
									}
								}
							}
						}
						JOINT neck01
						{
							OFFSET 0.000000 -0.787100 2.224501
							CHANNELS 6 Xposition Yposition Zposition Xrotation Yrotation Zrotation
							JOINT neck02
							{
								OFFSET 0.000000 -0.048440 0.221399
								CHANNELS 6 Xposition Yposition Zposition Xrotation Yrotation Zrotation
								JOINT neck03
								{
									OFFSET 0.000000 -0.095070 0.375399
									CHANNELS 6 Xposition Yposition Zposition Xrotation Yrotation Zrotation
									JOINT head
									{
										OFFSET 0.000000 -0.150060 0.401802
										CHANNELS 6 Xposition Yposition Zposition Xrotation Yrotation Zrotation
										JOINT jaw
										{
											OFFSET 0.000000 -0.219090 0.068501
											CHANNELS 6 Xposition Yposition Zposition Xrotation Yrotation Zrotation
											JOINT special04
											{
												OFFSET 0.000000 -0.610560 -0.957901
												CHANNELS 6 Xposition Yposition Zposition Xrotation Yrotation Zrotation
												JOINT oris02
												{
													OFFSET 0.000000 -0.239600 0.209801
													CHANNELS 6 Xposition Yposition Zposition Xrotation Yrotation Zrotation
													JOINT oris01
													{
														OFFSET 0.000000 -0.095300 0.151798
														CHANNELS 6 Xposition Yposition Zposition Xrotation Yrotation Zrotation
														End Site
														{
															OFFSET 0.000000 -0.050943 0.137486
														}
													}
												}
												JOINT oris06.L
												{
													OFFSET 0.000000 -0.239600 0.209801
													CHANNELS 6 Xposition Yposition Zposition Xrotation Yrotation Zrotation
													JOINT oris07.L
													{
														OFFSET 0.136030 -0.057200 0.072699
														CHANNELS 6 Xposition Yposition Zposition Xrotation Yrotation Zrotation
														End Site
														{
															OFFSET 0.063514 -0.027726 0.164619
														}
													}
												}
												JOINT oris06.R
												{
													OFFSET 0.000000 -0.239600 0.209801
													CHANNELS 6 Xposition Yposition Zposition Xrotation Yrotation Zrotation
													JOINT oris07.R
													{
														OFFSET -0.136030 -0.057200 0.072699
														CHANNELS 6 Xposition Yposition Zposition Xrotation Yrotation Zrotation
														End Site
														{
															OFFSET -0.063514 -0.027726 0.164619
														}
													}
												}
											}
											JOINT tongue00
											{
												OFFSET 0.000000 -0.610560 -0.957901
												CHANNELS 6 Xposition Yposition Zposition Xrotation Yrotation Zrotation
												JOINT tongue01
												{
													OFFSET 0.000000 0.486390 0.501999
													CHANNELS 6 Xposition Yposition Zposition Xrotation Yrotation Zrotation
													JOINT tongue02
													{
														OFFSET 0.000000 -0.320190 0.048601
														CHANNELS 6 Xposition Yposition Zposition Xrotation Yrotation Zrotation
														JOINT tongue03
														{
															OFFSET 0.000000 -0.225200 0.003199
															CHANNELS 6 Xposition Yposition Zposition Xrotation Yrotation Zrotation
															JOINT tongue04
															{
																OFFSET 0.000000 -0.092000 -0.047699
																CHANNELS 6 Xposition Yposition Zposition Xrotation Yrotation Zrotation
																End Site
																{
																	OFFSET 0.000000 -0.092008 -0.047785
																}
															}
															JOINT tongue07.L
															{
																OFFSET 0.000000 -0.092000 -0.047798
																CHANNELS 6 Xposition Yposition Zposition Xrotation Yrotation Zrotation
																End Site
																{
																	OFFSET 0.129704 -0.008360 -0.033873
																}
															}
															JOINT tongue07.R
															{
																OFFSET 0.000000 -0.092000 -0.047798
																CHANNELS 6 Xposition Yposition Zposition Xrotation Yrotation Zrotation
																End Site
																{
																	OFFSET -0.129704 -0.008360 -0.033873
																}
															}
														}
														JOINT tongue06.L
														{
															OFFSET 0.000000 -0.225200 0.003199
															CHANNELS 6 Xposition Yposition Zposition Xrotation Yrotation Zrotation
															End Site
															{
																OFFSET 0.183897 0.022118 -0.047300
															}
														}
														JOINT tongue06.R
														{
															OFFSET 0.000000 -0.225200 0.003199
															CHANNELS 6 Xposition Yposition Zposition Xrotation Yrotation Zrotation
															End Site
															{
																OFFSET -0.183897 0.022118 -0.047300
															}
														}
													}
													JOINT tongue05.L
													{
														OFFSET 0.000000 -0.320190 0.048601
														CHANNELS 6 Xposition Yposition Zposition Xrotation Yrotation Zrotation
														End Site
														{
															OFFSET 0.219972 -0.026900 -0.040041
														}
													}
													JOINT tongue05.R
													{
														OFFSET 0.000000 -0.320190 0.048601
														CHANNELS 6 Xposition Yposition Zposition Xrotation Yrotation Zrotation
														End Site
														{
															OFFSET -0.219972 -0.026900 -0.040041
														}
													}
												}
											}
										}
										JOINT levator02.L
										{
											OFFSET 0.032324 -1.323750 0.181799
											CHANNELS 6 Xposition Yposition Zposition Xrotation Yrotation Zrotation
											JOINT levator03.L
											{
												OFFSET 0.178916 0.184800 -0.111200
												CHANNELS 6 Xposition Yposition Zposition Xrotation Yrotation Zrotation
												JOINT levator04.L
												{
													OFFSET 0.057090 0.016200 -0.239300
													CHANNELS 6 Xposition Yposition Zposition Xrotation Yrotation Zrotation
													JOINT levator05.L
													{
														OFFSET 0.042790 0.039500 -0.192299
														CHANNELS 6 Xposition Yposition Zposition Xrotation Yrotation Zrotation
														End Site
														{
															OFFSET -0.026338 -0.001229 -0.086704
														}
													}
												}
											}
										}
										JOINT levator02.R
										{
											OFFSET -0.032324 -1.323750 0.181799
											CHANNELS 6 Xposition Yposition Zposition Xrotation Yrotation Zrotation
											JOINT levator03.R
											{
												OFFSET -0.178916 0.184800 -0.111200
												CHANNELS 6 Xposition Yposition Zposition Xrotation Yrotation Zrotation
												JOINT levator04.R
												{
													OFFSET -0.057090 0.016200 -0.239300
													CHANNELS 6 Xposition Yposition Zposition Xrotation Yrotation Zrotation
													JOINT levator05.R
													{
														OFFSET -0.042790 0.039500 -0.192299
														CHANNELS 6 Xposition Yposition Zposition Xrotation Yrotation Zrotation
														End Site
														{
															OFFSET 0.026338 -0.001229 -0.086704
														}
													}
												}
											}
										}
										JOINT special01
										{
											OFFSET 0.000000 0.792010 0.050200
											CHANNELS 6 Xposition Yposition Zposition Xrotation Yrotation Zrotation
											JOINT oris04.L
											{
												OFFSET 0.000000 -2.062760 -0.232901
												CHANNELS 6 Xposition Yposition Zposition Xrotation Yrotation Zrotation
												JOINT oris03.L
												{
													OFFSET 0.145550 0.043100 -0.083900
													CHANNELS 6 Xposition Yposition Zposition Xrotation Yrotation Zrotation
													End Site
													{
														OFFSET 0.036893 0.011525 -0.059214
													}
												}
											}
											JOINT oris04.R
											{
												OFFSET 0.000000 -2.062760 -0.232901
												CHANNELS 6 Xposition Yposition Zposition Xrotation Yrotation Zrotation
												JOINT oris03.R
												{
													OFFSET -0.145550 0.043100 -0.083900
													CHANNELS 6 Xposition Yposition Zposition Xrotation Yrotation Zrotation
													End Site
													{
														OFFSET -0.036893 0.011525 -0.059214
													}
												}
											}
											JOINT oris06
											{
												OFFSET 0.000000 -2.062760 -0.232901
												CHANNELS 6 Xposition Yposition Zposition Xrotation Yrotation Zrotation
												JOINT oris05
												{
													OFFSET 0.000000 0.008800 -0.069000
													CHANNELS 6 Xposition Yposition Zposition Xrotation Yrotation Zrotation
													End Site
													{
														OFFSET 0.000000 -0.014729 -0.074095
													}
												}
											}
										}
										JOINT special03
										{
											OFFSET 0.000000 -0.219090 0.068501
											CHANNELS 6 Xposition Yposition Zposition Xrotation Yrotation Zrotation
											JOINT levator06.L
											{
												OFFSET 0.064976 -1.208560 -0.127800
												CHANNELS 6 Xposition Yposition Zposition Xrotation Yrotation Zrotation
												End Site
												{
													OFFSET 0.107252 0.264907 0.076582
												}
											}
											JOINT levator06.R
											{
												OFFSET -0.064976 -1.208560 -0.127800
												CHANNELS 6 Xposition Yposition Zposition Xrotation Yrotation Zrotation
												End Site
												{
													OFFSET -0.107252 0.264907 0.076582
												}
											}
										}
										JOINT special06.L
										{
											OFFSET 0.000000 -0.035170 1.690800
											CHANNELS 6 Xposition Yposition Zposition Xrotation Yrotation Zrotation
											JOINT special05.L
											{
												OFFSET 0.206740 -0.725980 -0.227001
												CHANNELS 6 Xposition Yposition Zposition Xrotation Yrotation Zrotation
												JOINT eye.L
												{
													OFFSET 0.113980 -0.191400 -1.056999
													CHANNELS 6 Xposition Yposition Zposition Xrotation Yrotation Zrotation
													End Site
													{
														OFFSET 0.015369 -0.420856 -0.064289
													}
												}
												JOINT orbicularis03.L
												{
													OFFSET 0.113980 -0.191400 -1.056999
													CHANNELS 6 Xposition Yposition Zposition Xrotation Yrotation Zrotation
													End Site
													{
														OFFSET 0.013775 -0.405667 0.066582
													}
												}
												JOINT orbicularis04.L
												{
													OFFSET 0.113980 -0.191400 -1.056999
													CHANNELS 6 Xposition Yposition Zposition Xrotation Yrotation Zrotation
													End Site
													{
														OFFSET 0.015439 -0.384739 -0.185333
													}
												}
											}
										}
										JOINT special06.R
										{
											OFFSET 0.000000 -0.035170 1.690800
											CHANNELS 6 Xposition Yposition Zposition Xrotation Yrotation Zrotation
											JOINT special05.R
											{
												OFFSET -0.206740 -0.725980 -0.227001
												CHANNELS 6 Xposition Yposition Zposition Xrotation Yrotation Zrotation
												JOINT eye.R
												{
													OFFSET -0.113980 -0.191400 -1.056999
													CHANNELS 6 Xposition Yposition Zposition Xrotation Yrotation Zrotation
													End Site
													{
														OFFSET -0.015369 -0.420856 -0.064289
													}
												}
												JOINT orbicularis03.R
												{
													OFFSET -0.113980 -0.191400 -1.056999
													CHANNELS 6 Xposition Yposition Zposition Xrotation Yrotation Zrotation
													End Site
													{
														OFFSET -0.013775 -0.405667 0.066582
													}
												}
												JOINT orbicularis04.R
												{
													OFFSET -0.113980 -0.191400 -1.056999
													CHANNELS 6 Xposition Yposition Zposition Xrotation Yrotation Zrotation
													End Site
													{
														OFFSET -0.015439 -0.384739 -0.185333
													}
												}
											}
										}
										JOINT temporalis01.L
										{
											OFFSET 0.682250 -0.763650 0.494801
											CHANNELS 6 Xposition Yposition Zposition Xrotation Yrotation Zrotation
											JOINT oculi02.L
											{
												OFFSET -0.080980 -0.197500 -0.012001
												CHANNELS 6 Xposition Yposition Zposition Xrotation Yrotation Zrotation
												JOINT oculi01.L
												{
													OFFSET -0.229310 -0.234200 0.144001
													CHANNELS 6 Xposition Yposition Zposition Xrotation Yrotation Zrotation
													End Site
													{
														OFFSET -0.197822 -0.051542 0.011410
													}
												}
											}
										}
										JOINT temporalis01.R
										{
											OFFSET -0.682250 -0.763650 0.494801
											CHANNELS 6 Xposition Yposition Zposition Xrotation Yrotation Zrotation
											JOINT oculi02.R
											{
												OFFSET 0.080980 -0.197500 -0.012001
												CHANNELS 6 Xposition Yposition Zposition Xrotation Yrotation Zrotation
												JOINT oculi01.R
												{
													OFFSET 0.229310 -0.234200 0.144001
													CHANNELS 6 Xposition Yposition Zposition Xrotation Yrotation Zrotation
													End Site
													{
														OFFSET 0.197822 -0.051542 0.011410
													}
												}
											}
										}
										JOINT temporalis02.L
										{
											OFFSET 0.687810 -0.719450 0.243799
											CHANNELS 6 Xposition Yposition Zposition Xrotation Yrotation Zrotation
											JOINT risorius02.L
											{
												OFFSET -0.097960 -0.201500 0.057001
												CHANNELS 6 Xposition Yposition Zposition Xrotation Yrotation Zrotation
												JOINT risorius03.L
												{
													OFFSET -0.076010 -0.053600 -0.332302
													CHANNELS 6 Xposition Yposition Zposition Xrotation Yrotation Zrotation
													End Site
													{
														OFFSET 0.062148 0.181919 -0.262182
													}
												}
											}
										}
										JOINT temporalis02.R
										{
											OFFSET -0.687810 -0.719450 0.243799
											CHANNELS 6 Xposition Yposition Zposition Xrotation Yrotation Zrotation
											JOINT risorius02.R
											{
												OFFSET 0.097960 -0.201500 0.057001
												CHANNELS 6 Xposition Yposition Zposition Xrotation Yrotation Zrotation
												JOINT risorius03.R
												{
													OFFSET 0.076010 -0.053600 -0.332302
													CHANNELS 6 Xposition Yposition Zposition Xrotation Yrotation Zrotation
													End Site
													{
														OFFSET -0.062148 0.181919 -0.262182
													}
												}
											}
										}
									}
								}
							}
						}
					}
				}
			}
		}
	}
	JOINT pelvis.L
	{
		OFFSET 0.000000 -0.780220 0.122900
		CHANNELS 6 Xposition Yposition Zposition Xrotation Yrotation Zrotation
		JOINT upperleg01.L
		{
			OFFSET 1.259600 0.112279 -0.202100
			CHANNELS 6 Xposition Yposition Zposition Xrotation Yrotation Zrotation
			JOINT upperleg02.L
			{
				OFFSET -0.106500 -0.258269 -0.757000
				CHANNELS 6 Xposition Yposition Zposition Xrotation Yrotation Zrotation
				JOINT lowerleg01.L
				{
					OFFSET 0.531500 -0.095800 -3.987700
					CHANNELS 6 Xposition Yposition Zposition Xrotation Yrotation Zrotation
					JOINT lowerleg02.L
					{
						OFFSET 0.173000 0.149350 -2.557000
						CHANNELS 6 Xposition Yposition Zposition Xrotation Yrotation Zrotation
						JOINT foot.L
						{
							OFFSET 0.173000 0.149358 -2.557100
							CHANNELS 6 Xposition Yposition Zposition Xrotation Yrotation Zrotation
							JOINT toe1-1.L
							{
								OFFSET -0.330200 -1.629098 -0.432300
								CHANNELS 6 Xposition Yposition Zposition Xrotation Yrotation Zrotation
								JOINT toe1-2.L
								{
									OFFSET 0.026100 -0.303000 -0.089700
									CHANNELS 6 Xposition Yposition Zposition Xrotation Yrotation Zrotation
									End Site
									{
										OFFSET 0.047743 -0.337915 -0.121938
									}
								}
							}
							JOINT toe2-1.L
							{
								OFFSET -0.047000 -1.664798 -0.473300
								CHANNELS 6 Xposition Yposition Zposition Xrotation Yrotation Zrotation
								JOINT toe2-2.L
								{
									OFFSET 0.018200 -0.251500 -0.049700
									CHANNELS 6 Xposition Yposition Zposition Xrotation Yrotation Zrotation
									JOINT toe2-3.L
									{
										OFFSET 0.002800 -0.158000 -0.054000
										CHANNELS 6 Xposition Yposition Zposition Xrotation Yrotation Zrotation
										End Site
										{
											OFFSET 0.010931 -0.196498 -0.072999
										}
									}
								}
							}
							JOINT toe3-1.L
							{
								OFFSET 0.154400 -1.630998 -0.506800
								CHANNELS 6 Xposition Yposition Zposition Xrotation Yrotation Zrotation
								JOINT toe3-2.L
								{
									OFFSET 0.006700 -0.232000 -0.042600
									CHANNELS 6 Xposition Yposition Zposition Xrotation Yrotation Zrotation
									JOINT toe3-3.L
									{
										OFFSET -0.004000 -0.144100 -0.041600
										CHANNELS 6 Xposition Yposition Zposition Xrotation Yrotation Zrotation
										End Site
										{
											OFFSET 0.001031 -0.152718 -0.046038
										}
									}
								}
							}
							JOINT toe4-1.L
							{
								OFFSET 0.331800 -1.539898 -0.518100
								CHANNELS 6 Xposition Yposition Zposition Xrotation Yrotation Zrotation
								JOINT toe4-2.L
								{
									OFFSET 0.003300 -0.181000 -0.039100
									CHANNELS 6 Xposition Yposition Zposition Xrotation Yrotation Zrotation
									JOINT toe4-3.L
									{
										OFFSET -0.013500 -0.140800 -0.036000
										CHANNELS 6 Xposition Yposition Zposition Xrotation Yrotation Zrotation
										End Site
										{
											OFFSET 0.007174 -0.127804 -0.059983
										}
									}
								}
							}
							JOINT toe5-1.L
							{
								OFFSET 0.501400 -1.494798 -0.536100
								CHANNELS 6 Xposition Yposition Zposition Xrotation Yrotation Zrotation
								JOINT toe5-2.L
								{
									OFFSET 0.000300 -0.134400 -0.035100
									CHANNELS 6 Xposition Yposition Zposition Xrotation Yrotation Zrotation
									JOINT toe5-3.L
									{
										OFFSET -0.016900 -0.095900 -0.028500
										CHANNELS 6 Xposition Yposition Zposition Xrotation Yrotation Zrotation
										End Site
										{
											OFFSET -0.001324 -0.129116 -0.071171
										}
									}
								}
							}
						}
					}
				}
			}
		}
	}
	JOINT pelvis.R
	{
		OFFSET 0.000000 -0.780220 0.122900
		CHANNELS 6 Xposition Yposition Zposition Xrotation Yrotation Zrotation
		JOINT upperleg01.R
		{
			OFFSET -1.259600 0.112279 -0.202100
			CHANNELS 6 Xposition Yposition Zposition Xrotation Yrotation Zrotation
			JOINT upperleg02.R
			{
				OFFSET 0.106500 -0.258269 -0.757000
				CHANNELS 6 Xposition Yposition Zposition Xrotation Yrotation Zrotation
				JOINT lowerleg01.R
				{
					OFFSET -0.531500 -0.095800 -3.987700
					CHANNELS 6 Xposition Yposition Zposition Xrotation Yrotation Zrotation
					JOINT lowerleg02.R
					{
						OFFSET -0.173000 0.149350 -2.557000
						CHANNELS 6 Xposition Yposition Zposition Xrotation Yrotation Zrotation
						JOINT foot.R
						{
							OFFSET -0.173000 0.149358 -2.557100
							CHANNELS 6 Xposition Yposition Zposition Xrotation Yrotation Zrotation
							JOINT toe1-1.R
							{
								OFFSET 0.330200 -1.629098 -0.432300
								CHANNELS 6 Xposition Yposition Zposition Xrotation Yrotation Zrotation
								JOINT toe1-2.R
								{
									OFFSET -0.026100 -0.303000 -0.089700
									CHANNELS 6 Xposition Yposition Zposition Xrotation Yrotation Zrotation
									End Site
									{
										OFFSET -0.047743 -0.337915 -0.121938
									}
								}
							}
							JOINT toe2-1.R
							{
								OFFSET 0.047000 -1.664798 -0.473300
								CHANNELS 6 Xposition Yposition Zposition Xrotation Yrotation Zrotation
								JOINT toe2-2.R
								{
									OFFSET -0.018200 -0.251500 -0.049700
									CHANNELS 6 Xposition Yposition Zposition Xrotation Yrotation Zrotation
									JOINT toe2-3.R
									{
										OFFSET -0.002800 -0.158000 -0.054000
										CHANNELS 6 Xposition Yposition Zposition Xrotation Yrotation Zrotation
										End Site
										{
											OFFSET -0.010931 -0.196498 -0.072999
										}
									}
								}
							}
							JOINT toe3-1.R
							{
								OFFSET -0.154400 -1.630998 -0.506800
								CHANNELS 6 Xposition Yposition Zposition Xrotation Yrotation Zrotation
								JOINT toe3-2.R
								{
									OFFSET -0.006700 -0.232000 -0.042600
									CHANNELS 6 Xposition Yposition Zposition Xrotation Yrotation Zrotation
									JOINT toe3-3.R
									{
										OFFSET 0.004000 -0.144100 -0.041600
										CHANNELS 6 Xposition Yposition Zposition Xrotation Yrotation Zrotation
										End Site
										{
											OFFSET -0.001031 -0.152718 -0.046038
										}
									}
								}
							}
							JOINT toe4-1.R
							{
								OFFSET -0.331800 -1.539898 -0.518100
								CHANNELS 6 Xposition Yposition Zposition Xrotation Yrotation Zrotation
								JOINT toe4-2.R
								{
									OFFSET -0.003300 -0.181000 -0.039100
									CHANNELS 6 Xposition Yposition Zposition Xrotation Yrotation Zrotation
									JOINT toe4-3.R
									{
										OFFSET 0.013500 -0.140800 -0.036000
										CHANNELS 6 Xposition Yposition Zposition Xrotation Yrotation Zrotation
										End Site
										{
											OFFSET -0.007174 -0.127804 -0.059983
										}
									}
								}
							}
							JOINT toe5-1.R
							{
								OFFSET -0.501400 -1.494798 -0.536100
								CHANNELS 6 Xposition Yposition Zposition Xrotation Yrotation Zrotation
								JOINT toe5-2.R
								{
									OFFSET -0.000300 -0.134400 -0.035100
									CHANNELS 6 Xposition Yposition Zposition Xrotation Yrotation Zrotation
									JOINT toe5-3.R
									{
										OFFSET 0.016900 -0.095900 -0.028500
										CHANNELS 6 Xposition Yposition Zposition Xrotation Yrotation Zrotation
										End Site
										{
											OFFSET 0.001324 -0.129116 -0.071171
										}
									}
								}
							}
						}
					}
				}
			}
		}
	}
}
MOTION
Frames: 1
Frame Time: 0.041667
0.000000 0.703700 10.723600 -17.524688 0.000000 -0.000000 0.000000 -0.780220 0.122901 25.096564 0.000000 -0.000000 0.000000 0.347250 0.953001 16.323599 0.000000 -0.000000 0.000000 -0.089579 0.791400 -0.000000 0.000000 -0.000000 0.000000 0.231210 0.714499 -0.000000 0.000000 -0.000000 0.000000 0.244060 1.528801 -0.000001 0.000000 -0.000002 -0.000000 0.244060 1.528801 -0.000001 -0.000000 0.000002 0.000000 0.244060 1.528799 -0.000000 0.000000 -0.000000 0.253430 -0.997501 1.388802 0.000002 0.000000 0.000000 1.017969 0.073990 0.216897 -15.076845 18.916742 -3.932770 0.699499 0.107040 -0.500701 -39.858733 26.842645 -34.233820 0.488700 -0.010160 -0.551300 0.293056 -0.181930 -0.217935 1.453701 -0.103031 -1.607399 -12.608930 58.376254 -69.726253 0.693999 -0.989659 -0.666301 -4.756711 -5.186432 -1.088846 0.693900 -0.989700 -0.666201 -25.994991 -34.171911 -28.189557 0.010701 -0.509500 -0.073801 10.769505 -6.123470 15.800949 -0.234901 -0.243401 -0.091999 0.000000 0.000002 0.000006 -0.145500 -0.366900 -0.143298 -0.000000 -0.000001 -0.000002 0.120801 -0.310400 -0.174201 2.914981 5.757403 1.005658 0.193400 -0.786201 -0.252200 -0.000000 0.000002 -0.000003 0.039499 -0.247399 -0.164600 -0.000002 -0.000000 0.000005 -0.007801 -0.196203 -0.182197 -0.000003 0.000002 -0.000000 0.120800 -0.310400 -0.174200 -5.440116 1.328197 -3.447195 0.377199 -0.591302 -0.386002 0.000003 0.000003 -0.000002 0.084100 -0.247499 -0.290403 -0.000003 0.000004 -0.000000 0.025200 -0.198102 -0.236302 -0.000003 -0.000001 0.000006 0.253102 -0.198400 -0.352102 -8.261479 -1.370508 -5.127657 0.326403 -0.505301 -0.302601 -6.285555 -8.319119 -0.771507 0.106901 -0.173000 -0.275904 0.000006 -0.000002 0.000006 0.051297 -0.154499 -0.231599 0.000001 0.000002 -0.000000 0.253100 -0.198400 -0.352102 -10.728501 -8.684436 -1.906896 0.345100 -0.286799 -0.411802 -18.187329 -8.680719 -4.061321 0.070599 -0.098500 -0.212699 0.000001 -0.000001 0.000003 0.021899 -0.072100 -0.160101 -0.000003 0.000003 -0.000000 -0.253430 -0.997501 1.388802 0.000002 -0.000000 -0.000000 -1.017968 0.073989 0.216898 -22.905664 -21.179604 6.214850 -0.699501 0.107040 -0.500700 -35.195091 -15.263921 28.597169 -0.488699 -0.010161 -0.551300 -0.000001 -0.000001 -0.000001 -1.453701 -0.103033 -1.607399 38.682787 -17.986455 79.712187 -0.694002 -0.989659 -0.666301 -6.754654 -9.848843 -7.655585 -0.693901 -0.989700 -0.666200 -36.093824 -10.896375 -42.309877 -0.010701 -0.509501 -0.073799 -0.172484 -0.345629 -0.301703 0.234902 -0.243400 -0.092000 4.404745 10.883096 8.768523 0.145501 -0.366900 -0.143302 11.838746 19.019669 26.216877 -0.120800 -0.310400 -0.174199 19.183165 -16.522108 15.463079 -0.193398 -0.786200 -0.252199 18.125121 -14.162148 10.980390 -0.039501 -0.247400 -0.164600 14.406991 -11.748555 8.509961 0.007799 -0.196201 -0.182201 13.172833 -10.891951 7.710659 -0.120799 -0.310401 -0.174199 10.819334 -19.600152 12.262732 -0.377198 -0.591300 -0.386001 23.077775 -21.476937 17.373080 -0.084100 -0.247499 -0.290399 8.101205 -8.097199 0.008576 -0.025200 -0.198099 -0.236302 10.422849 -11.429952 5.432299 -0.253100 -0.198401 -0.352099 -2.059858 -30.156904 -0.644329 -0.326400 -0.505301 -0.302601 24.185512 -16.261625 6.943869 -0.106898 -0.173002 -0.275903 12.694779 -11.692627 8.755675 -0.051299 -0.154500 -0.231600 13.553273 -12.228854 1.338269 -0.253099 -0.198401 -0.352100 -1.569698 -21.938981 9.904296 -0.345098 -0.286800 -0.411800 29.670939 -24.991182 19.441847 -0.070599 -0.098499 -0.212701 -0.000002 0.000003 0.000003 -0.021899 -0.072099 -0.160099 -1.885244 -16.771470 5.837154 0.000000 -0.787101 2.224501 0.000002 0.000000 -0.000000 -0.000000 -0.048441 0.221399 -13.647469 5.750271 -1.612247 0.000000 -0.095069 0.375397 -0.000000 0.000000 -0.000000 -0.000000 -0.150061 0.401803 0.185673 -8.682589 2.445389 0.000000 -0.219091 0.068502 0.000003 0.000000 0.000000 -0.000000 -0.610559 -0.957901 -0.000002 -0.000000 -0.000000 0.000000 -0.239599 0.209801 -0.000000 0.000000 0.000000 0.000000 -0.095302 0.151798 -0.000000 0.000000 -0.000000 0.000000 -0.239598 0.209797 0.000002 -0.000002 0.000000 0.136030 -0.057200 0.072699 0.000001 -0.000005 -0.000000 0.000000 -0.239600 0.209799 -0.000003 -0.000001 -0.000001 -0.136031 -0.057199 0.072697 0.000003 -0.000000 0.000001 -0.000000 -0.610559 -0.957903 0.000000 -0.000000 0.000000 0.000000 0.486390 0.501999 -0.000000 0.000000 -0.000000 0.000000 -0.320190 0.048599 -0.000000 -0.000000 0.000000 -0.000000 -0.225200 0.003199 0.000000 -0.000000 0.000000 0.000000 -0.092000 -0.047701 0.000002 0.000000 0.000000 0.000000 -0.091999 -0.047798 0.000002 -0.000001 -0.000001 0.000000 -0.091999 -0.047798 0.000004 0.000000 0.000001 -0.000000 -0.225200 0.003195 0.000001 -0.000001 -0.000000 -0.000000 -0.225200 0.003197 0.000001 0.000000 -0.000000 0.000000 -0.320191 0.048599 0.000000 -0.000000 0.000000 0.000000 -0.320191 0.048599 -0.000001 -0.000001 0.000000 0.032324 -1.323749 0.181799 0.000002 -0.000000 0.000002 0.178915 0.184800 -0.111202 -0.000002 -0.000001 0.000003 0.057091 0.016199 -0.239304 0.000003 0.000002 -0.000003 0.042791 0.039500 -0.192299 -0.000001 -0.000001 0.000005 -0.032324 -1.323749 0.181799 0.000002 0.000000 -0.000002 -0.178915 0.184800 -0.111202 -0.000000 -0.000001 0.000002 -0.057090 0.016200 -0.239304 -0.000001 -0.000001 0.000002 -0.042790 0.039501 -0.192297 -0.000003 0.000003 -0.000003 0.000000 0.792011 0.050198 -0.000000 -0.000000 -0.000000 -0.000000 -2.062761 -0.232901 0.000000 0.000001 0.000003 0.145550 0.043100 -0.083902 0.000001 0.000005 -0.000001 0.000001 -2.062760 -0.232901 -0.000001 0.000001 -0.000001 -0.145549 0.043100 -0.083904 -0.000002 -0.000002 -0.000000 0.000000 -2.062761 -0.232901 0.000001 0.000000 -0.000000 -0.000000 0.008800 -0.069004 -0.000001 0.000000 -0.000000 0.000000 -0.219090 0.068501 0.000001 -0.000000 0.000000 0.064976 -1.208561 -0.127800 0.000002 -0.000001 -0.000000 -0.064976 -1.208561 -0.127800 -0.000000 -0.000000 -0.000003 0.000000 -0.035170 1.690802 0.000000 0.000001 0.000000 0.206740 -0.725981 -0.227003 -0.000001 0.000001 0.000001 0.113980 -0.191401 -1.056999 0.000001 0.000000 -0.000001 0.113980 -0.191401 -1.057003 0.000002 -0.000000 0.000000 0.113980 -0.191401 -1.057001 0.000002 -0.000000 -0.000000 -0.000000 -0.035170 1.690802 0.000002 -0.000001 0.000002 -0.206740 -0.725981 -0.227001 -0.000001 0.000000 0.000002 -0.113980 -0.191401 -1.057003 0.000001 0.000001 0.000000 -0.113980 -0.191401 -1.057005 0.000000 0.000001 0.000000 -0.113980 -0.191401 -1.057003 0.000004 0.000001 -0.000001 0.682250 -0.763650 0.494801 -0.000000 -0.000001 -0.000000 -0.080979 -0.197500 -0.011999 -0.000000 0.000001 -0.000006 -0.229309 -0.234200 0.144001 0.000002 0.000001 -0.000000 -0.682250 -0.763649 0.494801 0.000001 0.000001 -0.000001 0.080981 -0.197500 -0.012001 -0.000000 0.000001 0.000004 0.229310 -0.234198 0.143995 0.000002 0.000002 -0.000003 0.687810 -0.719450 0.243801 -0.000001 0.000001 0.000003 -0.097961 -0.201500 0.056999 -0.000001 0.000001 -0.000003 -0.076009 -0.053600 -0.332302 0.000002 0.000002 -0.000005 -0.687810 -0.719450 0.243801 -0.000000 0.000002 -0.000002 0.097960 -0.201499 0.056999 0.000001 0.000000 0.000003 0.076010 -0.053599 -0.332300 0.000002 0.000000 0.000002 0.000000 -0.780219 0.122902 0.000001 0.000001 -0.000000 1.259601 0.112280 -0.202100 -31.983618 5.898236 -5.014311 -0.106500 -0.258270 -0.757000 -15.043806 2.625506 5.461254 0.531500 -0.095800 -3.987701 90.209457 -2.921135 -0.188776 0.173000 0.149350 -2.557000 0.000001 0.000001 -0.000000 0.173000 0.149358 -2.557100 -13.976443 -0.000001 -0.000003 -0.330200 -1.629098 -0.432300 -0.000001 0.000000 -0.000000 0.026100 -0.303000 -0.089700 0.000001 0.000000 -0.000001 -0.047000 -1.664798 -0.473300 -0.000000 0.000000 -0.000000 0.018200 -0.251500 -0.049701 -0.000001 0.000001 -0.000000 0.002800 -0.158000 -0.054000 0.000000 0.000001 -0.000001 0.154400 -1.630998 -0.506801 -0.000004 -0.000001 0.000000 0.006701 -0.232000 -0.042601 -0.000003 -0.000000 -0.000001 -0.004000 -0.144100 -0.041600 -0.000002 0.000000 0.000000 0.331800 -1.539898 -0.518100 -0.000002 -0.000001 -0.000001 0.003300 -0.181000 -0.039100 0.000002 -0.000000 0.000001 -0.013500 -0.140799 -0.036000 -0.000003 0.000001 0.000001 0.501400 -1.494797 -0.536100 -0.000004 -0.000000 -0.000001 0.000300 -0.134400 -0.035100 0.000003 0.000001 0.000000 -0.016900 -0.095900 -0.028500 0.000001 0.000000 -0.000001 -0.000000 -0.780219 0.122902 0.000001 -0.000001 -0.000000 -1.259601 0.112280 -0.202100 -38.590200 -0.000001 0.000009 0.106500 -0.258270 -0.756999 -12.489579 -2.187009 -4.351000 -0.531500 -0.095801 -3.987702 92.091434 0.254619 0.412924 -0.173000 0.149350 -2.556999 0.000001 0.000000 -0.000000 -0.173000 0.149358 -2.557100 -12.118223 -0.000000 0.000003 0.330200 -1.629098 -0.432301 -0.000002 -0.000001 0.000000 -0.026100 -0.303000 -0.089699 -0.000002 -0.000000 0.000001 0.047000 -1.664798 -0.473301 0.000003 0.000000 0.000000 -0.018200 -0.251500 -0.049700 -0.000001 0.000001 -0.000000 -0.002800 -0.158000 -0.054000 0.000004 0.000000 0.000000 -0.154400 -1.630998 -0.506800 -0.000001 0.000000 -0.000000 -0.006701 -0.232000 -0.042599 -0.000001 0.000000 0.000000 0.004000 -0.144100 -0.041601 -0.000000 0.000000 -0.000000 -0.331800 -1.539898 -0.518100 0.000002 0.000001 0.000000 -0.003300 -0.181000 -0.039100 0.000002 0.000000 -0.000001 0.013500 -0.140800 -0.036000 0.000000 -0.000001 0.000001 -0.501400 -1.494797 -0.536101 -0.000000 -0.000000 -0.000000 -0.000300 -0.134401 -0.035100 -0.000000 -0.000000 0.000002 0.016900 -0.095900 -0.028501 -0.000004 0.000000 -0.000001 
