HIERARCHY
ROOT root
{
	OFFSET 0.000000 0.676050 11.745700
	CHANNELS 6 Xposition Yposition Zposition Xrotation Yrotation Zrotation
	JOINT spine05
	{
		OFFSET 0.000000 -0.759375 0.101600
		CHANNELS 6 Xposition Yposition Zposition Xrotation Yrotation Zrotation
		JOINT spine04
		{
			OFFSET 0.000000 0.362795 0.976900
			CHANNELS 6 Xposition Yposition Zposition Xrotation Yrotation Zrotation
			JOINT spine03
			{
				OFFSET 0.000000 -0.112560 0.783900
				CHANNELS 6 Xposition Yposition Zposition Xrotation Yrotation Zrotation
				JOINT spine02
				{
					OFFSET 0.000000 0.112690 0.790299
					CHANNELS 6 Xposition Yposition Zposition Xrotation Yrotation Zrotation
					JOINT breast.L
					{
						OFFSET 0.000000 0.249310 1.664301
						CHANNELS 6 Xposition Yposition Zposition Xrotation Yrotation Zrotation
						End Site
						{
							OFFSET 1.079702 -2.317502 -0.143833
						}
					}
					JOINT breast.R
					{
						OFFSET 0.000000 0.249310 1.664301
						CHANNELS 6 Xposition Yposition Zposition Xrotation Yrotation Zrotation
						End Site
						{
							OFFSET -1.079702 -2.317502 -0.143833
						}
					}
					JOINT spine01
					{
						OFFSET 0.000000 0.249310 1.664301
						CHANNELS 6 Xposition Yposition Zposition Xrotation Yrotation Zrotation
						JOINT clavicle.L
						{
							OFFSET 0.267260 -0.889590 1.498400
							CHANNELS 6 Xposition Yposition Zposition Xrotation Yrotation Zrotation
							JOINT shoulder01.L
							{
								OFFSET 1.103440 0.034850 0.199699
								CHANNELS 6 Xposition Yposition Zposition Xrotation Yrotation Zrotation
								JOINT upperarm01.L
								{
									OFFSET 0.887400 0.103380 -0.500999
									CHANNELS 6 Xposition Yposition Zposition Xrotation Yrotation Zrotation
									JOINT upperarm02.L
									{
										OFFSET 0.646700 0.082630 -0.596100
										CHANNELS 6 Xposition Yposition Zposition Xrotation Yrotation Zrotation
										JOINT lowerarm01.L
										{
											OFFSET 1.528100 -0.156800 -1.837000
											CHANNELS 6 Xposition Yposition Zposition Xrotation Yrotation Zrotation
											JOINT lowerarm02.L
											{
												OFFSET 0.773900 -1.108380 -0.746700
												CHANNELS 6 Xposition Yposition Zposition Xrotation Yrotation Zrotation
												JOINT wrist.L
												{
													OFFSET 0.773900 -1.108400 -0.746600
													CHANNELS 6 Xposition Yposition Zposition Xrotation Yrotation Zrotation
													JOINT finger1-1.L
													{
														OFFSET 0.016100 -0.576000 -0.082400
														CHANNELS 6 Xposition Yposition Zposition Xrotation Yrotation Zrotation
														JOINT finger1-2.L
														{
															OFFSET -0.266600 -0.273300 -0.105900
															CHANNELS 6 Xposition Yposition Zposition Xrotation Yrotation Zrotation
															JOINT finger1-3.L
															{
																OFFSET -0.163200 -0.413500 -0.162100
																CHANNELS 6 Xposition Yposition Zposition Xrotation Yrotation Zrotation
																End Site
																{
																	OFFSET -0.068565 -0.271002 -0.207376
																}
															}
														}
													}
													JOINT metacarpal1.L
													{
														OFFSET 0.139800 -0.351800 -0.195500
														CHANNELS 6 Xposition Yposition Zposition Xrotation Yrotation Zrotation
														JOINT finger2-1.L
														{
															OFFSET 0.209900 -0.883300 -0.287399
															CHANNELS 6 Xposition Yposition Zposition Xrotation Yrotation Zrotation
															JOINT finger2-2.L
															{
																OFFSET 0.041900 -0.275500 -0.186900
																CHANNELS 6 Xposition Yposition Zposition Xrotation Yrotation Zrotation
																JOINT finger2-3.L
																{
																	OFFSET -0.006400 -0.223000 -0.204301
																	CHANNELS 6 Xposition Yposition Zposition Xrotation Yrotation Zrotation
																	End Site
																	{
																		OFFSET -0.038974 -0.230498 -0.239505
																	}
																}
															}
														}
													}
													JOINT metacarpal2.L
													{
														OFFSET 0.139800 -0.351800 -0.195500
														CHANNELS 6 Xposition Yposition Zposition Xrotation Yrotation Zrotation
														JOINT finger3-1.L
														{
															OFFSET 0.413400 -0.663100 -0.442100
															CHANNELS 6 Xposition Yposition Zposition Xrotation Yrotation Zrotation
															JOINT finger3-2.L
															{
																OFFSET 0.097500 -0.278600 -0.324700
																CHANNELS 6 Xposition Yposition Zposition Xrotation Yrotation Zrotation
																JOINT finger3-3.L
																{
																	OFFSET 0.033000 -0.224700 -0.262600
																	CHANNELS 6 Xposition Yposition Zposition Xrotation Yrotation Zrotation
																	End Site
																	{
																		OFFSET 0.006692 -0.202929 -0.275578
																	}
																}
															}
														}
													}
													JOINT metacarpal3.L
													{
														OFFSET 0.289000 -0.225600 -0.395801
														CHANNELS 6 Xposition Yposition Zposition Xrotation Yrotation Zrotation
														JOINT finger4-1.L
														{
															OFFSET 0.362300 -0.567700 -0.343699
															CHANNELS 6 Xposition Yposition Zposition Xrotation Yrotation Zrotation
															JOINT finger4-2.L
															{
																OFFSET 0.120000 -0.194200 -0.310300
																CHANNELS 6 Xposition Yposition Zposition Xrotation Yrotation Zrotation
																JOINT finger4-3.L
																{
																	OFFSET 0.059400 -0.174700 -0.260201
																	CHANNELS 6 Xposition Yposition Zposition Xrotation Yrotation Zrotation
																	End Site
																	{
																		OFFSET 0.037039 -0.156094 -0.298598
																	}
																}
															}
														}
													}
													JOINT metacarpal4.L
													{
														OFFSET 0.289000 -0.225600 -0.395801
														CHANNELS 6 Xposition Yposition Zposition Xrotation Yrotation Zrotation
														JOINT finger5-1.L
														{
															OFFSET 0.384900 -0.321400 -0.465199
															CHANNELS 6 Xposition Yposition Zposition Xrotation Yrotation Zrotation
															JOINT finger5-2.L
															{
																OFFSET 0.077900 -0.110500 -0.239800
																CHANNELS 6 Xposition Yposition Zposition Xrotation Yrotation Zrotation
																JOINT finger5-3.L
																{
																	OFFSET 0.026500 -0.081900 -0.180099
																	CHANNELS 6 Xposition Yposition Zposition Xrotation Yrotation Zrotation
																	End Site
																	{
																		OFFSET 0.029758 -0.095851 -0.232925
																	}
																}
															}
														}
													}
												}
											}
										}
									}
								}
							}
						}
						JOINT clavicle.R
						{
							OFFSET -0.267260 -0.889590 1.498400
							CHANNELS 6 Xposition Yposition Zposition Xrotation Yrotation Zrotation
							JOINT shoulder01.R
							{
								OFFSET -1.103440 0.034850 0.199699
								CHANNELS 6 Xposition Yposition Zposition Xrotation Yrotation Zrotation
								JOINT upperarm01.R
								{
									OFFSET -0.887400 0.103380 -0.500999
									CHANNELS 6 Xposition Yposition Zposition Xrotation Yrotation Zrotation
									JOINT upperarm02.R
									{
										OFFSET -0.646700 0.082630 -0.596100
										CHANNELS 6 Xposition Yposition Zposition Xrotation Yrotation Zrotation
										JOINT lowerarm01.R
										{
											OFFSET -1.528100 -0.156800 -1.837000
											CHANNELS 6 Xposition Yposition Zposition Xrotation Yrotation Zrotation
											JOINT lowerarm02.R
											{
												OFFSET -0.773900 -1.108380 -0.746700
												CHANNELS 6 Xposition Yposition Zposition Xrotation Yrotation Zrotation
												JOINT wrist.R
												{
													OFFSET -0.773900 -1.108400 -0.746600
													CHANNELS 6 Xposition Yposition Zposition Xrotation Yrotation Zrotation
													JOINT finger1-1.R
													{
														OFFSET -0.016100 -0.576000 -0.082400
														CHANNELS 6 Xposition Yposition Zposition Xrotation Yrotation Zrotation
														JOINT finger1-2.R
														{
															OFFSET 0.266600 -0.273300 -0.105900
															CHANNELS 6 Xposition Yposition Zposition Xrotation Yrotation Zrotation
															JOINT finger1-3.R
															{
																OFFSET 0.163200 -0.413500 -0.162100
																CHANNELS 6 Xposition Yposition Zposition Xrotation Yrotation Zrotation
																End Site
																{
																	OFFSET 0.068565 -0.271002 -0.207376
																}
															}
														}
													}
													JOINT metacarpal1.R
													{
														OFFSET -0.139800 -0.351800 -0.195500
														CHANNELS 6 Xposition Yposition Zposition Xrotation Yrotation Zrotation
														JOINT finger2-1.R
														{
															OFFSET -0.209900 -0.883300 -0.287399
															CHANNELS 6 Xposition Yposition Zposition Xrotation Yrotation Zrotation
															JOINT finger2-2.R
															{
																OFFSET -0.041900 -0.275500 -0.186900
																CHANNELS 6 Xposition Yposition Zposition Xrotation Yrotation Zrotation
																JOINT finger2-3.R
																{
																	OFFSET 0.006400 -0.223000 -0.204301
																	CHANNELS 6 Xposition Yposition Zposition Xrotation Yrotation Zrotation
																	End Site
																	{
																		OFFSET 0.038974 -0.230498 -0.239505
																	}
																}
															}
														}
													}
													JOINT metacarpal2.R
													{
														OFFSET -0.139800 -0.351800 -0.195500
														CHANNELS 6 Xposition Yposition Zposition Xrotation Yrotation Zrotation
														JOINT finger3-1.R
														{
															OFFSET -0.413400 -0.663100 -0.442100
															CHANNELS 6 Xposition Yposition Zposition Xrotation Yrotation Zrotation
															JOINT finger3-2.R
															{
																OFFSET -0.097500 -0.278600 -0.324700
																CHANNELS 6 Xposition Yposition Zposition Xrotation Yrotation Zrotation
																JOINT finger3-3.R
																{
																	OFFSET -0.033000 -0.224700 -0.262600
																	CHANNELS 6 Xposition Yposition Zposition Xrotation Yrotation Zrotation
																	End Site
																	{
																		OFFSET -0.006692 -0.202929 -0.275578
																	}
																}
															}
														}
													}
													JOINT metacarpal3.R
													{
														OFFSET -0.289000 -0.225600 -0.395801
														CHANNELS 6 Xposition Yposition Zposition Xrotation Yrotation Zrotation
														JOINT finger4-1.R
														{
															OFFSET -0.362300 -0.567700 -0.343699
															CHANNELS 6 Xposition Yposition Zposition Xrotation Yrotation Zrotation
															JOINT finger4-2.R
															{
																OFFSET -0.120000 -0.194200 -0.310300
																CHANNELS 6 Xposition Yposition Zposition Xrotation Yrotation Zrotation
																JOINT finger4-3.R
																{
																	OFFSET -0.059400 -0.174700 -0.260201
																	CHANNELS 6 Xposition Yposition Zposition Xrotation Yrotation Zrotation
																	End Site
																	{
																		OFFSET -0.037039 -0.156094 -0.298598
																	}
																}
															}
														}
													}
													JOINT metacarpal4.R
													{
														OFFSET -0.289000 -0.225600 -0.395801
														CHANNELS 6 Xposition Yposition Zposition Xrotation Yrotation Zrotation
														JOINT finger5-1.R
														{
															OFFSET -0.384900 -0.321400 -0.465199
															CHANNELS 6 Xposition Yposition Zposition Xrotation Yrotation Zrotation
															JOINT finger5-2.R
															{
																OFFSET -0.077900 -0.110500 -0.239800
																CHANNELS 6 Xposition Yposition Zposition Xrotation Yrotation Zrotation
																JOINT finger5-3.R
																{
																	OFFSET -0.026500 -0.081900 -0.180099
																	CHANNELS 6 Xposition Yposition Zposition Xrotation Yrotation Zrotation
																	End Site
																	{
																		OFFSET -0.029758 -0.095851 -0.232925
																	}
																}
															}
														}
													}
												}
											}
										}
									}
								}
							}
						}
						JOINT neck01
						{
							OFFSET 0.000000 -0.687770 2.363400
							CHANNELS 6 Xposition Yposition Zposition Xrotation Yrotation Zrotation
							JOINT neck02
							{
								OFFSET 0.000000 0.014520 0.591000
								CHANNELS 6 Xposition Yposition Zposition Xrotation Yrotation Zrotation
								JOINT neck03
								{
									OFFSET 0.000000 -0.188040 0.342001
									CHANNELS 6 Xposition Yposition Zposition Xrotation Yrotation Zrotation
									JOINT head
									{
										OFFSET 0.000000 -0.166620 0.376999
										CHANNELS 6 Xposition Yposition Zposition Xrotation Yrotation Zrotation
										JOINT jaw
										{
											OFFSET 0.000000 -0.240290 0.056000
											CHANNELS 6 Xposition Yposition Zposition Xrotation Yrotation Zrotation
											JOINT special04
											{
												OFFSET 0.000000 -0.664710 -0.993000
												CHANNELS 6 Xposition Yposition Zposition Xrotation Yrotation Zrotation
												JOINT oris02
												{
													OFFSET 0.000000 -0.236000 0.225000
													CHANNELS 6 Xposition Yposition Zposition Xrotation Yrotation Zrotation
													JOINT oris01
													{
														OFFSET 0.000000 -0.101900 0.141001
														CHANNELS 6 Xposition Yposition Zposition Xrotation Yrotation Zrotation
														End Site
														{
															OFFSET 0.000000 -0.053776 0.142971
														}
													}
												}
												JOINT oris06.L
												{
													OFFSET 0.000000 -0.236000 0.225000
													CHANNELS 6 Xposition Yposition Zposition Xrotation Yrotation Zrotation
													JOINT oris07.L
													{
														OFFSET 0.151260 -0.061800 0.070002
														CHANNELS 6 Xposition Yposition Zposition Xrotation Yrotation Zrotation
														End Site
														{
															OFFSET 0.065665 -0.020240 0.151983
														}
													}
												}
												JOINT oris06.R
												{
													OFFSET 0.000000 -0.236000 0.225000
													CHANNELS 6 Xposition Yposition Zposition Xrotation Yrotation Zrotation
													JOINT oris07.R
													{
														OFFSET -0.151260 -0.061800 0.070002
														CHANNELS 6 Xposition Yposition Zposition Xrotation Yrotation Zrotation
														End Site
														{
															OFFSET -0.065665 -0.020240 0.151983
														}
													}
												}
											}
											JOINT tongue00
											{
												OFFSET 0.000000 -0.664710 -0.993000
												CHANNELS 6 Xposition Yposition Zposition Xrotation Yrotation Zrotation
												JOINT tongue01
												{
													OFFSET 0.000000 0.519420 0.536001
													CHANNELS 6 Xposition Yposition Zposition Xrotation Yrotation Zrotation
													JOINT tongue02
													{
														OFFSET 0.000000 -0.330120 0.039000
														CHANNELS 6 Xposition Yposition Zposition Xrotation Yrotation Zrotation
														JOINT tongue03
														{
															OFFSET 0.000000 -0.237000 -0.006001
															CHANNELS 6 Xposition Yposition Zposition Xrotation Yrotation Zrotation
															JOINT tongue04
															{
																OFFSET 0.000000 -0.093900 -0.054001
																CHANNELS 6 Xposition Yposition Zposition Xrotation Yrotation Zrotation
																End Site
																{
																	OFFSET 0.000000 -0.093993 -0.053837
																}
															}
															JOINT tongue07.L
															{
																OFFSET 0.000000 -0.093900 -0.054001
																CHANNELS 6 Xposition Yposition Zposition Xrotation Yrotation Zrotation
																End Site
																{
																	OFFSET 0.137168 -0.006939 -0.038034
																}
															}
															JOINT tongue07.R
															{
																OFFSET 0.000000 -0.093900 -0.054001
																CHANNELS 6 Xposition Yposition Zposition Xrotation Yrotation Zrotation
																End Site
																{
																	OFFSET -0.137168 -0.006939 -0.038034
																}
															}
														}
														JOINT tongue06.L
														{
															OFFSET 0.000000 -0.237000 -0.006001
															CHANNELS 6 Xposition Yposition Zposition Xrotation Yrotation Zrotation
															End Site
															{
																OFFSET 0.194783 0.025988 -0.047794
															}
														}
														JOINT tongue06.R
														{
															OFFSET 0.000000 -0.237000 -0.006001
															CHANNELS 6 Xposition Yposition Zposition Xrotation Yrotation Zrotation
															End Site
															{
																OFFSET -0.194783 0.025988 -0.047794
															}
														}
													}
													JOINT tongue05.L
													{
														OFFSET 0.000000 -0.330120 0.039000
														CHANNELS 6 Xposition Yposition Zposition Xrotation Yrotation Zrotation
														End Site
														{
															OFFSET 0.232739 -0.026865 -0.042234
														}
													}
													JOINT tongue05.R
													{
														OFFSET 0.000000 -0.330120 0.039000
														CHANNELS 6 Xposition Yposition Zposition Xrotation Yrotation Zrotation
														End Site
														{
															OFFSET -0.232739 -0.026865 -0.042234
														}
													}
												}
											}
										}
										JOINT levator02.L
										{
											OFFSET 0.036374 -1.431000 0.190001
											CHANNELS 6 Xposition Yposition Zposition Xrotation Yrotation Zrotation
											JOINT levator03.L
											{
												OFFSET 0.220676 0.225700 -0.127001
												CHANNELS 6 Xposition Yposition Zposition Xrotation Yrotation Zrotation
												JOINT levator04.L
												{
													OFFSET 0.052060 0.016900 -0.219999
													CHANNELS 6 Xposition Yposition Zposition Xrotation Yrotation Zrotation
													JOINT levator05.L
													{
														OFFSET 0.035120 0.038200 -0.237000
														CHANNELS 6 Xposition Yposition Zposition Xrotation Yrotation Zrotation
														End Site
														{
															OFFSET -0.027295 -0.001992 -0.098009
														}
													}
												}
											}
										}
										JOINT levator02.R
										{
											OFFSET -0.036374 -1.431000 0.190001
											CHANNELS 6 Xposition Yposition Zposition Xrotation Yrotation Zrotation
											JOINT levator03.R
											{
												OFFSET -0.220676 0.225700 -0.127001
												CHANNELS 6 Xposition Yposition Zposition Xrotation Yrotation Zrotation
												JOINT levator04.R
												{
													OFFSET -0.052250 0.016900 -0.219999
													CHANNELS 6 Xposition Yposition Zposition Xrotation Yrotation Zrotation
													JOINT levator05.R
													{
														OFFSET -0.035430 0.038200 -0.237000
														CHANNELS 6 Xposition Yposition Zposition Xrotation Yrotation Zrotation
														End Site
														{
															OFFSET 0.027807 -0.001993 -0.098005
														}
													}
												}
											}
										}
										JOINT special01
										{
											OFFSET 0.000000 0.852520 0.016001
											CHANNELS 6 Xposition Yposition Zposition Xrotation Yrotation Zrotation
											JOINT oris04.L
											{
												OFFSET 0.000000 -2.214420 -0.235001
												CHANNELS 6 Xposition Yposition Zposition Xrotation Yrotation Zrotation
												JOINT oris03.L
												{
													OFFSET 0.176620 0.057100 -0.073000
													CHANNELS 6 Xposition Yposition Zposition Xrotation Yrotation Zrotation
													End Site
													{
														OFFSET 0.031747 0.019466 -0.059002
													}
												}
											}
											JOINT oris04.R
											{
												OFFSET 0.000000 -2.214420 -0.235001
												CHANNELS 6 Xposition Yposition Zposition Xrotation Yrotation Zrotation
												JOINT oris03.R
												{
													OFFSET -0.176620 0.057100 -0.073000
													CHANNELS 6 Xposition Yposition Zposition Xrotation Yrotation Zrotation
													End Site
													{
														OFFSET -0.031747 0.019466 -0.059002
													}
												}
											}
											JOINT oris06
											{
												OFFSET 0.000000 -2.214420 -0.235001
												CHANNELS 6 Xposition Yposition Zposition Xrotation Yrotation Zrotation
												JOINT oris05
												{
													OFFSET 0.000000 0.018600 -0.065001
													CHANNELS 6 Xposition Yposition Zposition Xrotation Yrotation Zrotation
													End Site
													{
														OFFSET 0.000000 -0.015465 -0.065983
													}
												}
											}
										}
										JOINT special03
										{
											OFFSET 0.000000 -0.240290 0.056000
											CHANNELS 6 Xposition Yposition Zposition Xrotation Yrotation Zrotation
											JOINT levator06.L
											{
												OFFSET 0.083144 -1.298710 -0.124001
												CHANNELS 6 Xposition Yposition Zposition Xrotation Yrotation Zrotation
												End Site
												{
													OFFSET 0.143551 0.300019 0.058945
												}
											}
											JOINT levator06.R
											{
												OFFSET -0.083144 -1.298710 -0.124001
												CHANNELS 6 Xposition Yposition Zposition Xrotation Yrotation Zrotation
												End Site
												{
													OFFSET -0.143551 0.300019 0.058945
												}
											}
										}
										JOINT special06.L
										{
											OFFSET 0.000000 -0.002590 1.735001
											CHANNELS 6 Xposition Yposition Zposition Xrotation Yrotation Zrotation
											JOINT special05.L
											{
												OFFSET 0.217610 -0.786510 -0.209999
												CHANNELS 6 Xposition Yposition Zposition Xrotation Yrotation Zrotation
												JOINT eye.L
												{
													OFFSET 0.119760 -0.205100 -1.099001
													CHANNELS 6 Xposition Yposition Zposition Xrotation Yrotation Zrotation
													End Site
													{
														OFFSET 0.016239 -0.443693 -0.056261
													}
												}
												JOINT orbicularis03.L
												{
													OFFSET 0.119760 -0.205100 -1.099001
													CHANNELS 6 Xposition Yposition Zposition Xrotation Yrotation Zrotation
													End Site
													{
														OFFSET 0.014491 -0.424621 0.080944
													}
												}
												JOINT orbicularis04.L
												{
													OFFSET 0.119760 -0.205100 -1.099001
													CHANNELS 6 Xposition Yposition Zposition Xrotation Yrotation Zrotation
													End Site
													{
														OFFSET 0.016318 -0.408629 -0.184486
													}
												}
											}
										}
										JOINT special06.R
										{
											OFFSET 0.000000 -0.002590 1.735001
											CHANNELS 6 Xposition Yposition Zposition Xrotation Yrotation Zrotation
											JOINT special05.R
											{
												OFFSET -0.217610 -0.786510 -0.209999
												CHANNELS 6 Xposition Yposition Zposition Xrotation Yrotation Zrotation
												JOINT eye.R
												{
													OFFSET -0.119760 -0.205100 -1.099001
													CHANNELS 6 Xposition Yposition Zposition Xrotation Yrotation Zrotation
													End Site
													{
														OFFSET -0.016239 -0.443693 -0.056261
													}
												}
												JOINT orbicularis03.R
												{
													OFFSET -0.119760 -0.205100 -1.099001
													CHANNELS 6 Xposition Yposition Zposition Xrotation Yrotation Zrotation
													End Site
													{
														OFFSET -0.014491 -0.424621 0.080944
													}
												}
												JOINT orbicularis04.R
												{
													OFFSET -0.119760 -0.205100 -1.099001
													CHANNELS 6 Xposition Yposition Zposition Xrotation Yrotation Zrotation
													End Site
													{
														OFFSET -0.016318 -0.408629 -0.184486
													}
												}
											}
										}
										JOINT temporalis01.L
										{
											OFFSET 0.725100 -0.796800 0.513000
											CHANNELS 6 Xposition Yposition Zposition Xrotation Yrotation Zrotation
											JOINT oculi02.L
											{
												OFFSET -0.093140 -0.222700 -0.017000
												CHANNELS 6 Xposition Yposition Zposition Xrotation Yrotation Zrotation
												JOINT oculi01.L
												{
													OFFSET -0.238590 -0.247100 0.169001
													CHANNELS 6 Xposition Yposition Zposition Xrotation Yrotation Zrotation
													End Site
													{
														OFFSET -0.210669 -0.046505 0.010817
													}
												}
											}
										}
										JOINT temporalis01.R
										{
											OFFSET -0.725100 -0.796800 0.513000
											CHANNELS 6 Xposition Yposition Zposition Xrotation Yrotation Zrotation
											JOINT oculi02.R
											{
												OFFSET 0.093140 -0.222700 -0.017000
												CHANNELS 6 Xposition Yposition Zposition Xrotation Yrotation Zrotation
												JOINT oculi01.R
												{
													OFFSET 0.238590 -0.247100 0.169001
													CHANNELS 6 Xposition Yposition Zposition Xrotation Yrotation Zrotation
													End Site
													{
														OFFSET 0.210669 -0.046505 0.010817
													}
												}
											}
										}
										JOINT temporalis02.L
										{
											OFFSET 0.728640 -0.753300 0.252001
											CHANNELS 6 Xposition Yposition Zposition Xrotation Yrotation Zrotation
											JOINT risorius02.L
											{
												OFFSET -0.108520 -0.224700 0.066000
												CHANNELS 6 Xposition Yposition Zposition Xrotation Yrotation Zrotation
												JOINT risorius03.L
												{
													OFFSET -0.078010 -0.051400 -0.345001
													CHANNELS 6 Xposition Yposition Zposition Xrotation Yrotation Zrotation
													End Site
													{
														OFFSET 0.061019 0.187624 -0.245228
													}
												}
											}
										}
										JOINT temporalis02.R
										{
											OFFSET -0.728640 -0.753300 0.252001
											CHANNELS 6 Xposition Yposition Zposition Xrotation Yrotation Zrotation
											JOINT risorius02.R
											{
												OFFSET 0.108520 -0.224700 0.066000
												CHANNELS 6 Xposition Yposition Zposition Xrotation Yrotation Zrotation
												JOINT risorius03.R
												{
													OFFSET 0.075650 -0.051400 -0.345001
													CHANNELS 6 Xposition Yposition Zposition Xrotation Yrotation Zrotation
													End Site
													{
														OFFSET -0.062733 0.187567 -0.245277
													}
												}
											}
										}
									}
								}
							}
						}
					}
				}
			}
		}
	}
	JOINT pelvis.L
	{
		OFFSET 0.000000 -0.759375 0.101600
		CHANNELS 6 Xposition Yposition Zposition Xrotation Yrotation Zrotation
		JOINT upperleg01.L
		{
			OFFSET 1.272700 0.115806 -0.118299
			CHANNELS 6 Xposition Yposition Zposition Xrotation Yrotation Zrotation
			JOINT upperleg02.L
			{
				OFFSET -0.110800 -0.322121 -0.881101
				CHANNELS 6 Xposition Yposition Zposition Xrotation Yrotation Zrotation
				JOINT lowerleg01.L
				{
					OFFSET 0.566400 -0.060090 -4.505700
					CHANNELS 6 Xposition Yposition Zposition Xrotation Yrotation Zrotation
					JOINT lowerleg02.L
					{
						OFFSET 0.252600 0.137820 -2.738600
						CHANNELS 6 Xposition Yposition Zposition Xrotation Yrotation Zrotation
						JOINT foot.L
						{
							OFFSET 0.252600 0.137822 -2.738600
							CHANNELS 6 Xposition Yposition Zposition Xrotation Yrotation Zrotation
							JOINT toe1-1.L
							{
								OFFSET -0.352700 -1.748612 -0.502600
								CHANNELS 6 Xposition Yposition Zposition Xrotation Yrotation Zrotation
								JOINT toe1-2.L
								{
									OFFSET 0.028200 -0.331500 -0.085600
									CHANNELS 6 Xposition Yposition Zposition Xrotation Yrotation Zrotation
									End Site
									{
										OFFSET 0.050280 -0.367784 -0.121420
									}
								}
							}
							JOINT toe2-1.L
							{
								OFFSET -0.050100 -1.786612 -0.542300
								CHANNELS 6 Xposition Yposition Zposition Xrotation Yrotation Zrotation
								JOINT toe2-2.L
								{
									OFFSET 0.017900 -0.275600 -0.040300
									CHANNELS 6 Xposition Yposition Zposition Xrotation Yrotation Zrotation
									JOINT toe2-3.L
									{
										OFFSET 0.003200 -0.173000 -0.058600
										CHANNELS 6 Xposition Yposition Zposition Xrotation Yrotation Zrotation
										End Site
										{
											OFFSET 0.011044 -0.213603 -0.067181
										}
									}
								}
							}
							JOINT toe3-1.L
							{
								OFFSET 0.165000 -1.749112 -0.574100
								CHANNELS 6 Xposition Yposition Zposition Xrotation Yrotation Zrotation
								JOINT toe3-2.L
								{
									OFFSET 0.006100 -0.254500 -0.032700
									CHANNELS 6 Xposition Yposition Zposition Xrotation Yrotation Zrotation
									JOINT toe3-3.L
									{
										OFFSET -0.004900 -0.158200 -0.046500
										CHANNELS 6 Xposition Yposition Zposition Xrotation Yrotation Zrotation
										End Site
										{
											OFFSET 0.000692 -0.166596 -0.043017
										}
									}
								}
							}
							JOINT toe4-1.L
							{
								OFFSET 0.354300 -1.649912 -0.582900
								CHANNELS 6 Xposition Yposition Zposition Xrotation Yrotation Zrotation
								JOINT toe4-2.L
								{
									OFFSET 0.002800 -0.198200 -0.030000
									CHANNELS 6 Xposition Yposition Zposition Xrotation Yrotation Zrotation
									JOINT toe4-3.L
									{
										OFFSET -0.014100 -0.154400 -0.043100
										CHANNELS 6 Xposition Yposition Zposition Xrotation Yrotation Zrotation
										End Site
										{
											OFFSET 0.007574 -0.139799 -0.059394
										}
									}
								}
							}
							JOINT toe5-1.L
							{
								OFFSET 0.535800 -1.601712 -0.600200
								CHANNELS 6 Xposition Yposition Zposition Xrotation Yrotation Zrotation
								JOINT toe5-2.L
								{
									OFFSET -0.000700 -0.146800 -0.031900
									CHANNELS 6 Xposition Yposition Zposition Xrotation Yrotation Zrotation
									JOINT toe5-3.L
									{
										OFFSET -0.018500 -0.105000 -0.028600
										CHANNELS 6 Xposition Yposition Zposition Xrotation Yrotation Zrotation
										End Site
										{
											OFFSET -0.000934 -0.141203 -0.072595
										}
									}
								}
							}
						}
					}
				}
			}
		}
	}
	JOINT pelvis.R
	{
		OFFSET 0.000000 -0.759375 0.101600
		CHANNELS 6 Xposition Yposition Zposition Xrotation Yrotation Zrotation
		JOINT upperleg01.R
		{
			OFFSET -1.272700 0.115806 -0.118299
			CHANNELS 6 Xposition Yposition Zposition Xrotation Yrotation Zrotation
			JOINT upperleg02.R
			{
				OFFSET 0.110800 -0.322121 -0.881101
				CHANNELS 6 Xposition Yposition Zposition Xrotation Yrotation Zrotation
				JOINT lowerleg01.R
				{
					OFFSET -0.566400 -0.060090 -4.505700
					CHANNELS 6 Xposition Yposition Zposition Xrotation Yrotation Zrotation
					JOINT lowerleg02.R
					{
						OFFSET -0.252600 0.137820 -2.738600
						CHANNELS 6 Xposition Yposition Zposition Xrotation Yrotation Zrotation
						JOINT foot.R
						{
							OFFSET -0.252600 0.137822 -2.738600
							CHANNELS 6 Xposition Yposition Zposition Xrotation Yrotation Zrotation
							JOINT toe1-1.R
							{
								OFFSET 0.352700 -1.748612 -0.502600
								CHANNELS 6 Xposition Yposition Zposition Xrotation Yrotation Zrotation
								JOINT toe1-2.R
								{
									OFFSET -0.028200 -0.331500 -0.085600
									CHANNELS 6 Xposition Yposition Zposition Xrotation Yrotation Zrotation
									End Site
									{
										OFFSET -0.050280 -0.367784 -0.121420
									}
								}
							}
							JOINT toe2-1.R
							{
								OFFSET 0.050100 -1.786612 -0.542300
								CHANNELS 6 Xposition Yposition Zposition Xrotation Yrotation Zrotation
								JOINT toe2-2.R
								{
									OFFSET -0.017900 -0.275600 -0.040300
									CHANNELS 6 Xposition Yposition Zposition Xrotation Yrotation Zrotation
									JOINT toe2-3.R
									{
										OFFSET -0.003200 -0.173000 -0.058600
										CHANNELS 6 Xposition Yposition Zposition Xrotation Yrotation Zrotation
										End Site
										{
											OFFSET -0.011044 -0.213603 -0.067181
										}
									}
								}
							}
							JOINT toe3-1.R
							{
								OFFSET -0.165000 -1.749112 -0.574100
								CHANNELS 6 Xposition Yposition Zposition Xrotation Yrotation Zrotation
								JOINT toe3-2.R
								{
									OFFSET -0.006100 -0.254500 -0.032700
									CHANNELS 6 Xposition Yposition Zposition Xrotation Yrotation Zrotation
									JOINT toe3-3.R
									{
										OFFSET 0.004900 -0.158200 -0.046500
										CHANNELS 6 Xposition Yposition Zposition Xrotation Yrotation Zrotation
										End Site
										{
											OFFSET -0.000692 -0.166596 -0.043017
										}
									}
								}
							}
							JOINT toe4-1.R
							{
								OFFSET -0.354300 -1.649912 -0.582900
								CHANNELS 6 Xposition Yposition Zposition Xrotation Yrotation Zrotation
								JOINT toe4-2.R
								{
									OFFSET -0.002800 -0.198200 -0.030000
									CHANNELS 6 Xposition Yposition Zposition Xrotation Yrotation Zrotation
									JOINT toe4-3.R
									{
										OFFSET 0.014100 -0.154400 -0.043100
										CHANNELS 6 Xposition Yposition Zposition Xrotation Yrotation Zrotation
										End Site
										{
											OFFSET -0.007574 -0.139799 -0.059394
										}
									}
								}
							}
							JOINT toe5-1.R
							{
								OFFSET -0.535800 -1.601712 -0.600200
								CHANNELS 6 Xposition Yposition Zposition Xrotation Yrotation Zrotation
								JOINT toe5-2.R
								{
									OFFSET 0.000700 -0.146800 -0.031900
									CHANNELS 6 Xposition Yposition Zposition Xrotation Yrotation Zrotation
									JOINT toe5-3.R
									{
										OFFSET 0.018500 -0.105000 -0.028600
										CHANNELS 6 Xposition Yposition Zposition Xrotation Yrotation Zrotation
										End Site
										{
											OFFSET 0.000934 -0.141203 -0.072595
										}
									}
								}
							}
						}
					}
				}
			}
		}
	}
}
MOTION
Frames: 1
Frame Time: 0.041667
0.000000 0.676050 11.745701 26.837577 0.000000 -0.000000 0.000000 -0.759376 0.101599 0.000002 0.000000 -0.000000 0.000000 0.362795 0.976898 -0.000003 0.000000 -0.000000 0.000000 -0.112561 0.783902 -0.000000 0.000000 -0.000000 0.000000 0.112691 0.790302 -0.056683 1.145828 5.663968 -0.000000 0.249310 1.664301 -0.000003 0.000000 0.000000 -0.000000 0.249310 1.664301 -0.000002 0.000001 -0.000004 0.000000 0.249310 1.664302 -0.681437 3.915382 19.738359 0.267260 -0.889591 1.498396 -5.862826 -12.301303 1.850888 1.103440 0.034851 0.199702 -35.506571 -7.086755 -45.356756 0.887401 0.103381 -0.500998 -38.253574 -27.293941 18.251198 0.646700 0.082631 -0.596100 -0.000001 -0.000001 -0.000003 1.528101 -0.156801 -1.837000 -13.266072 -11.727600 -28.617103 0.773901 -1.108382 -0.746700 -2.419661 -5.344441 3.716092 0.773900 -1.108401 -0.746600 -9.543391 -31.457338 19.388021 0.016101 -0.576000 -0.082402 0.000001 -0.000006 0.000001 -0.266601 -0.273300 -0.105900 0.000002 0.000003 -0.000003 -0.163200 -0.413500 -0.162101 0.000002 -0.000001 -0.000003 0.139801 -0.351801 -0.195501 -5.504438 -13.799322 9.075330 0.209899 -0.883300 -0.287400 0.000002 -0.000001 -0.000004 0.041901 -0.275500 -0.186903 0.000003 0.000001 0.000001 -0.006400 -0.223001 -0.204301 -0.000002 0.000001 -0.000002 0.139801 -0.351801 -0.195502 -7.267132 -19.969808 12.739341 0.413401 -0.663097 -0.442100 0.000005 -0.000001 -0.000004 0.097500 -0.278601 -0.324704 -0.000001 -0.000002 0.000001 0.033002 -0.224699 -0.262602 0.000001 -0.000002 -0.000002 0.289000 -0.225602 -0.395801 -5.822199 -14.817858 9.690742 0.362300 -0.567700 -0.343700 0.000006 0.000001 0.000001 0.120001 -0.194199 -0.310300 0.000003 0.000000 -0.000000 0.059400 -0.174699 -0.260201 -0.000003 0.000000 0.000001 0.289000 -0.225600 -0.395801 -5.468274 -13.685583 9.006305 0.384902 -0.321401 -0.465200 -0.000000 0.000002 0.000001 0.077900 -0.110502 -0.239798 0.000004 0.000000 -0.000001 0.026501 -0.081904 -0.180101 -0.000005 -0.000004 0.000003 -0.267260 -0.889590 1.498398 -0.169972 1.978985 9.816975 -1.103439 0.034850 0.199699 -0.083880 1.393020 6.891704 -0.887401 0.103381 -0.500999 -62.179788 24.174775 29.381295 -0.646699 0.082631 -0.596098 0.000002 0.000004 0.000002 -1.528099 -0.156800 -1.837000 -39.261717 42.813176 10.420626 -0.773898 -1.108381 -0.746700 -5.417036 4.976512 1.046769 -0.773903 -1.108402 -0.746598 -6.603860 41.054146 -1.187610 -0.016101 -0.576001 -0.082398 0.000001 0.000002 0.000000 0.266600 -0.273300 -0.105903 0.000001 -0.000003 0.000004 0.163200 -0.413497 -0.162100 0.000007 0.000000 -0.000002 -0.139802 -0.351801 -0.195495 -6.502185 15.388725 -5.533436 -0.209901 -0.883301 -0.287399 0.000003 0.000001 -0.000000 -0.041900 -0.275497 -0.186900 -0.000000 -0.000004 0.000000 0.006399 -0.223001 -0.204301 -0.000003 0.000001 0.000002 -0.139802 -0.351800 -0.195495 -6.516224 15.425873 -5.544799 -0.413401 -0.663100 -0.442098 -0.000000 -0.000001 0.000002 -0.097500 -0.278596 -0.324697 0.000004 0.000000 -0.000001 -0.033000 -0.224699 -0.262598 -0.000004 0.000002 0.000002 -0.289002 -0.225603 -0.395799 -5.010818 11.539056 -4.310166 -0.362299 -0.567699 -0.343699 0.000003 -0.000001 0.000001 -0.120001 -0.194200 -0.310300 0.000005 0.000002 0.000000 -0.059399 -0.174700 -0.260203 -0.000002 -0.000001 -0.000001 -0.289001 -0.225602 -0.395799 -4.090139 9.256975 -3.539208 -0.384899 -0.321400 -0.465200 -0.000003 -0.000001 -0.000003 -0.077901 -0.110498 -0.239798 0.000004 0.000002 -0.000000 -0.026499 -0.081900 -0.180099 -0.000002 0.000001 0.000000 -0.000000 -0.687769 2.363400 12.537065 -11.023245 2.811696 0.000000 0.014521 0.591000 0.000002 0.000001 0.000002 0.000000 -0.188039 0.342003 -0.000005 0.000000 -0.000000 -0.000000 -0.166622 0.376995 0.000001 0.000001 -0.000002 -0.000000 -0.240288 0.055998 -0.000002 0.000002 -0.000001 0.000001 -0.664710 -0.992998 0.000005 -0.000001 0.000002 0.000000 -0.236001 0.225002 -0.000000 0.000000 -0.000000 0.000000 -0.101900 0.141004 0.000002 0.000002 -0.000003 -0.000001 -0.236001 0.225002 0.000002 -0.000003 0.000001 0.151259 -0.061798 0.069998 -0.000000 -0.000004 0.000004 -0.000001 -0.236001 0.225001 0.000003 -0.000003 -0.000001 -0.151259 -0.061800 0.069998 -0.000002 -0.000002 -0.000003 0.000001 -0.664709 -0.993000 0.000003 -0.000002 0.000001 0.000001 0.519420 0.536003 0.000001 0.000002 0.000001 -0.000000 -0.330118 0.039003 -0.000005 0.000001 0.000000 -0.000001 -0.237001 -0.006000 -0.000002 -0.000002 -0.000002 0.000000 -0.093900 -0.054001 -0.000003 -0.000001 0.000004 0.000001 -0.093899 -0.054001 -0.000000 0.000001 0.000004 0.000000 -0.093899 -0.054003 0.000001 -0.000000 0.000002 -0.000001 -0.237000 -0.006000 0.000002 -0.000003 0.000001 -0.000000 -0.237000 -0.006002 0.000002 -0.000003 -0.000002 0.000000 -0.330118 0.039001 -0.000000 -0.000001 0.000001 -0.000000 -0.330118 0.039001 -0.000003 0.000001 -0.000001 0.036375 -1.430998 0.189997 -0.000003 0.000000 -0.000002 0.220676 0.225701 -0.127005 -0.000004 0.000002 -0.000001 0.052059 0.016900 -0.219997 -0.000002 0.000001 0.000005 0.035120 0.038201 -0.237001 -0.000004 -0.000001 -0.000002 -0.036376 -1.430997 0.189999 -0.000001 -0.000000 -0.000000 -0.220676 0.225701 -0.127003 -0.000002 0.000003 -0.000006 -0.052251 0.016899 -0.219999 0.000002 -0.000001 -0.000003 -0.035429 0.038199 -0.237001 0.000000 0.000001 -0.000001 -0.000000 0.852521 0.016003 -0.000002 0.000002 -0.000002 0.000000 -2.214420 -0.235002 -0.000000 0.000001 0.000001 0.176622 0.057102 -0.073002 -0.000001 0.000001 0.000003 -0.000001 -2.214421 -0.235000 -0.000003 -0.000000 0.000000 -0.176619 0.057100 -0.072998 -0.000005 -0.000001 -0.000001 -0.000001 -2.214421 -0.235004 -0.000003 0.000000 0.000002 0.000000 0.018599 -0.065002 -0.000003 0.000001 -0.000002 -0.000000 -0.240289 0.055996 -0.000003 0.000001 -0.000001 0.083143 -1.298711 -0.124003 0.000002 -0.000002 0.000002 -0.083146 -1.298711 -0.124004 0.000001 -0.000001 0.000000 -0.000000 -0.002589 1.735001 0.000003 -0.000001 -0.000001 0.217611 -0.786509 -0.210001 -0.000004 0.000002 0.000000 0.119761 -0.205099 -1.099001 0.000005 0.000001 -0.000003 0.119761 -0.205099 -1.098997 0.000005 0.000001 -0.000000 0.119761 -0.205101 -1.098999 0.000005 0.000002 0.000001 -0.000000 -0.002589 1.734999 0.000003 -0.000000 0.000001 -0.217609 -0.786509 -0.209997 -0.000001 -0.000001 0.000001 -0.119761 -0.205099 -1.099005 -0.000004 0.000001 0.000001 -0.119761 -0.205100 -1.099001 -0.000001 -0.000001 -0.000000 -0.119761 -0.205101 -1.099003 0.000000 -0.000002 0.000001 0.725101 -0.796799 0.512998 0.000006 0.000000 -0.000001 -0.093142 -0.222703 -0.017002 0.000007 -0.000001 -0.000003 -0.238589 -0.247101 0.169002 -0.000008 0.000004 0.000003 -0.725101 -0.796800 0.512999 0.000002 -0.000004 -0.000006 0.093140 -0.222700 -0.017000 -0.000001 0.000001 0.000003 0.238590 -0.247099 0.169001 -0.000008 0.000001 0.000002 0.728640 -0.753299 0.252003 -0.000002 0.000001 -0.000001 -0.108520 -0.224699 0.066002 0.000003 0.000000 -0.000001 -0.078010 -0.051401 -0.345003 -0.000003 -0.000002 -0.000000 -0.728640 -0.753299 0.251999 0.000002 -0.000003 -0.000004 0.108519 -0.224700 0.066002 -0.000000 -0.000000 0.000004 0.075650 -0.051400 -0.344999 0.000003 0.000003 -0.000000 -0.000000 -0.759376 0.101597 -0.000001 0.000000 -0.000000 1.272700 0.115805 -0.118300 -97.759582 -6.393811 0.412162 -0.110800 -0.322122 -0.881100 0.000001 0.000000 -0.000000 0.566400 -0.060090 -4.505700 99.794822 0.000102 -0.000009 0.252600 0.137820 -2.738600 -0.000001 0.000002 0.000001 0.252600 0.137822 -2.738600 -24.914332 0.000001 -0.000012 -0.352700 -1.748612 -0.502600 -17.116224 1.798131 0.654673 0.028200 -0.331500 -0.085599 -20.562288 2.131584 0.849532 -0.050100 -1.786612 -0.542300 -12.590463 1.343268 0.429784 0.017900 -0.275601 -0.040300 -13.150937 1.400556 0.455680 0.003199 -0.173000 -0.058600 -0.000000 -0.000000 -0.000001 0.165000 -1.749112 -0.574100 -8.130568 0.878789 0.243905 0.006100 -0.254500 -0.032700 -0.000001 -0.000000 0.000000 -0.004900 -0.158200 -0.046500 -16.515870 1.738849 0.622790 0.354300 -1.649912 -0.582900 0.000004 -0.000000 0.000000 0.002800 -0.198200 -0.030000 0.000001 -0.000001 0.000000 -0.014100 -0.154400 -0.043100 0.000000 -0.000001 0.000000 0.535800 -1.601712 -0.600200 0.000002 0.000001 -0.000001 -0.000701 -0.146800 -0.031900 -0.000000 -0.000000 -0.000002 -0.018500 -0.105000 -0.028600 0.000000 -0.000001 0.000001 0.000000 -0.759376 0.101597 -0.000001 0.000000 0.000000 -1.272700 0.115806 -0.118300 -0.000002 0.000000 -0.000001 0.110800 -0.322121 -0.881101 -0.000000 -0.000000 0.000000 -0.566400 -0.060090 -4.505699 -0.000002 -0.000000 -0.000000 -0.252600 0.137819 -2.738600 0.000002 -0.000001 -0.000000 -0.252600 0.137822 -2.738600 0.000003 0.000000 -0.000000 0.352700 -1.748612 -0.502600 -24.223297 -0.000005 0.000005 -0.028200 -0.331500 -0.085600 -26.372004 -0.000001 0.000005 0.050100 -1.786612 -0.542301 -18.889426 -0.000003 0.000003 -0.017900 -0.275600 -0.040300 -14.834519 0.000000 0.000003 -0.003200 -0.172999 -0.058600 -8.249175 -0.000000 0.000001 -0.165000 -1.749112 -0.574100 -11.984860 -0.000001 0.000001 -0.006100 -0.254500 -0.032700 -6.958531 0.000000 0.000001 0.004900 -0.158200 -0.046500 -0.000002 -0.000001 0.000000 -0.354300 -1.649913 -0.582900 -0.000001 0.000000 -0.000000 -0.002800 -0.198201 -0.030000 0.000006 0.000000 0.000000 0.014101 -0.154400 -0.043100 -5.653200 0.000000 -0.000000 -0.535800 -1.601713 -0.600200 0.000003 -0.000000 -0.000000 0.000700 -0.146800 -0.031900 -0.000003 -0.000001 -0.000001 0.018501 -0.105000 -0.028599 0.000000 -0.000001 -0.000000 
