HIERARCHY
ROOT root
{
	OFFSET 0.000000 0.063190 0.834400
	CHANNELS 6 Xposition Yposition Zposition Xrotation Yrotation Zrotation
	JOINT spine05
	{
		OFFSET 0.000000 -0.086690 -0.002105
		CHANNELS 6 Xposition Yposition Zposition Xrotation Yrotation Zrotation
		JOINT spine04
		{
			OFFSET 0.000000 0.045650 0.072925
			CHANNELS 6 Xposition Yposition Zposition Xrotation Yrotation Zrotation
			JOINT spine03
			{
				OFFSET 0.000000 -0.022105 0.063380
				CHANNELS 6 Xposition Yposition Zposition Xrotation Yrotation Zrotation
				JOINT spine02
				{
					OFFSET 0.000000 -0.012215 0.091100
					CHANNELS 6 Xposition Yposition Zposition Xrotation Yrotation Zrotation
					JOINT breast.L
					{
						OFFSET 0.000000 -0.000280 0.153710
						CHANNELS 6 Xposition Yposition Zposition Xrotation Yrotation Zrotation
						End Site
						{
							OFFSET 0.104429 -0.146809 -0.040375
						}
					}
					JOINT breast.R
					{
						OFFSET 0.000000 -0.000280 0.153710
						CHANNELS 6 Xposition Yposition Zposition Xrotation Yrotation Zrotation
						End Site
						{
							OFFSET -0.104429 -0.146809 -0.040375
						}
					}
					JOINT spine01
					{
						OFFSET 0.000000 -0.000280 0.153710
						CHANNELS 6 Xposition Yposition Zposition Xrotation Yrotation Zrotation
						JOINT clavicle.L
						{
							OFFSET 0.022930 -0.008900 0.075810
							CHANNELS 6 Xposition Yposition Zposition Xrotation Yrotation Zrotation
							JOINT shoulder01.L
							{
								OFFSET 0.067567 -0.001283 0.019200
								CHANNELS 6 Xposition Yposition Zposition Xrotation Yrotation Zrotation
								JOINT upperarm01.L
								{
									OFFSET 0.064913 0.001753 -0.034210
									CHANNELS 6 Xposition Yposition Zposition Xrotation Yrotation Zrotation
									JOINT upperarm02.L
									{
										OFFSET 0.055030 0.001264 -0.057930
										CHANNELS 6 Xposition Yposition Zposition Xrotation Yrotation Zrotation
										JOINT lowerarm01.L
										{
											OFFSET 0.102980 -0.005135 -0.115000
											CHANNELS 6 Xposition Yposition Zposition Xrotation Yrotation Zrotation
											JOINT lowerarm02.L
											{
												OFFSET 0.055200 -0.068002 -0.060390
												CHANNELS 6 Xposition Yposition Zposition Xrotation Yrotation Zrotation
												JOINT wrist.L
												{
													OFFSET 0.055190 -0.067997 -0.060400
													CHANNELS 6 Xposition Yposition Zposition Xrotation Yrotation Zrotation
													JOINT finger1-1.L
													{
														OFFSET 0.001260 -0.039540 -0.008220
														CHANNELS 6 Xposition Yposition Zposition Xrotation Yrotation Zrotation
														JOINT finger1-2.L
														{
															OFFSET -0.019450 -0.018730 -0.008870
															CHANNELS 6 Xposition Yposition Zposition Xrotation Yrotation Zrotation
															JOINT finger1-3.L
															{
																OFFSET -0.011290 -0.027500 -0.013960
																CHANNELS 6 Xposition Yposition Zposition Xrotation Yrotation Zrotation
																End Site
																{
																	OFFSET -0.004956 -0.019220 -0.017089
																}
															}
														}
													}
													JOINT metacarpal1.L
													{
														OFFSET 0.010030 -0.022910 -0.014940
														CHANNELS 6 Xposition Yposition Zposition Xrotation Yrotation Zrotation
														JOINT finger2-1.L
														{
															OFFSET 0.015780 -0.061560 -0.025610
															CHANNELS 6 Xposition Yposition Zposition Xrotation Yrotation Zrotation
															JOINT finger2-2.L
															{
																OFFSET 0.003070 -0.018250 -0.014570
																CHANNELS 6 Xposition Yposition Zposition Xrotation Yrotation Zrotation
																JOINT finger2-3.L
																{
																	OFFSET -0.000580 -0.014080 -0.015520
																	CHANNELS 6 Xposition Yposition Zposition Xrotation Yrotation Zrotation
																	End Site
																	{
																		OFFSET -0.003705 -0.015429 -0.019521
																	}
																}
															}
														}
													}
													JOINT metacarpal2.L
													{
														OFFSET 0.010030 -0.022910 -0.014940
														CHANNELS 6 Xposition Yposition Zposition Xrotation Yrotation Zrotation
														JOINT finger3-1.L
														{
															OFFSET 0.030440 -0.044460 -0.034650
															CHANNELS 6 Xposition Yposition Zposition Xrotation Yrotation Zrotation
															JOINT finger3-2.L
															{
																OFFSET 0.006640 -0.017620 -0.024700
																CHANNELS 6 Xposition Yposition Zposition Xrotation Yrotation Zrotation
																JOINT finger3-3.L
																{
																	OFFSET 0.002290 -0.014990 -0.020423
																	CHANNELS 6 Xposition Yposition Zposition Xrotation Yrotation Zrotation
																	End Site
																	{
																		OFFSET -0.000297 -0.012753 -0.021475
																	}
																}
															}
														}
													}
													JOINT metacarpal3.L
													{
														OFFSET 0.020730 -0.012740 -0.028400
														CHANNELS 6 Xposition Yposition Zposition Xrotation Yrotation Zrotation
														JOINT finger4-1.L
														{
															OFFSET 0.026310 -0.039080 -0.027690
															CHANNELS 6 Xposition Yposition Zposition Xrotation Yrotation Zrotation
															JOINT finger4-2.L
															{
																OFFSET 0.008990 -0.011910 -0.023038
																CHANNELS 6 Xposition Yposition Zposition Xrotation Yrotation Zrotation
																JOINT finger4-3.L
																{
																	OFFSET 0.003680 -0.010500 -0.019533
																	CHANNELS 6 Xposition Yposition Zposition Xrotation Yrotation Zrotation
																	End Site
																	{
																		OFFSET 0.002026 -0.009230 -0.022827
																	}
																}
															}
														}
													}
													JOINT metacarpal4.L
													{
														OFFSET 0.020730 -0.012740 -0.028400
														CHANNELS 6 Xposition Yposition Zposition Xrotation Yrotation Zrotation
														JOINT finger5-1.L
														{
															OFFSET 0.028050 -0.021160 -0.034908
															CHANNELS 6 Xposition Yposition Zposition Xrotation Yrotation Zrotation
															JOINT finger5-2.L
															{
																OFFSET 0.005430 -0.005780 -0.017723
																CHANNELS 6 Xposition Yposition Zposition Xrotation Yrotation Zrotation
																JOINT finger5-3.L
																{
																	OFFSET 0.001710 -0.004750 -0.013489
																	CHANNELS 6 Xposition Yposition Zposition Xrotation Yrotation Zrotation
																	End Site
																	{
																		OFFSET 0.002191 -0.005530 -0.017130
																	}
																}
															}
														}
													}
												}
											}
										}
									}
								}
							}
						}
						JOINT clavicle.R
						{
							OFFSET -0.022930 -0.008900 0.075810
							CHANNELS 6 Xposition Yposition Zposition Xrotation Yrotation Zrotation
							JOINT shoulder01.R
							{
								OFFSET -0.067567 -0.001283 0.019200
								CHANNELS 6 Xposition Yposition Zposition Xrotation Yrotation Zrotation
								JOINT upperarm01.R
								{
									OFFSET -0.064913 0.001753 -0.034210
									CHANNELS 6 Xposition Yposition Zposition Xrotation Yrotation Zrotation
									JOINT upperarm02.R
									{
										OFFSET -0.055030 0.001264 -0.057930
										CHANNELS 6 Xposition Yposition Zposition Xrotation Yrotation Zrotation
										JOINT lowerarm01.R
										{
											OFFSET -0.102980 -0.005135 -0.115000
											CHANNELS 6 Xposition Yposition Zposition Xrotation Yrotation Zrotation
											JOINT lowerarm02.R
											{
												OFFSET -0.055200 -0.068002 -0.060390
												CHANNELS 6 Xposition Yposition Zposition Xrotation Yrotation Zrotation
												JOINT wrist.R
												{
													OFFSET -0.055190 -0.067997 -0.060400
													CHANNELS 6 Xposition Yposition Zposition Xrotation Yrotation Zrotation
													JOINT finger1-1.R
													{
														OFFSET -0.001260 -0.039540 -0.008220
														CHANNELS 6 Xposition Yposition Zposition Xrotation Yrotation Zrotation
														JOINT finger1-2.R
														{
															OFFSET 0.019450 -0.018730 -0.008870
															CHANNELS 6 Xposition Yposition Zposition Xrotation Yrotation Zrotation
															JOINT finger1-3.R
															{
																OFFSET 0.011290 -0.027500 -0.013960
																CHANNELS 6 Xposition Yposition Zposition Xrotation Yrotation Zrotation
																End Site
																{
																	OFFSET 0.004956 -0.019220 -0.017089
																}
															}
														}
													}
													JOINT metacarpal1.R
													{
														OFFSET -0.010030 -0.022910 -0.014940
														CHANNELS 6 Xposition Yposition Zposition Xrotation Yrotation Zrotation
														JOINT finger2-1.R
														{
															OFFSET -0.015780 -0.061560 -0.025610
															CHANNELS 6 Xposition Yposition Zposition Xrotation Yrotation Zrotation
															JOINT finger2-2.R
															{
																OFFSET -0.003070 -0.018250 -0.014570
																CHANNELS 6 Xposition Yposition Zposition Xrotation Yrotation Zrotation
																JOINT finger2-3.R
																{
																	OFFSET 0.000580 -0.014080 -0.015520
																	CHANNELS 6 Xposition Yposition Zposition Xrotation Yrotation Zrotation
																	End Site
																	{
																		OFFSET 0.003705 -0.015429 -0.019521
																	}
																}
															}
														}
													}
													JOINT metacarpal2.R
													{
														OFFSET -0.010030 -0.022910 -0.014940
														CHANNELS 6 Xposition Yposition Zposition Xrotation Yrotation Zrotation
														JOINT finger3-1.R
														{
															OFFSET -0.030440 -0.044460 -0.034650
															CHANNELS 6 Xposition Yposition Zposition Xrotation Yrotation Zrotation
															JOINT finger3-2.R
															{
																OFFSET -0.006640 -0.017620 -0.024700
																CHANNELS 6 Xposition Yposition Zposition Xrotation Yrotation Zrotation
																JOINT finger3-3.R
																{
																	OFFSET -0.002290 -0.014990 -0.020423
																	CHANNELS 6 Xposition Yposition Zposition Xrotation Yrotation Zrotation
																	End Site
																	{
																		OFFSET 0.000297 -0.012753 -0.021475
																	}
																}
															}
														}
													}
													JOINT metacarpal3.R
													{
														OFFSET -0.020730 -0.012740 -0.028400
														CHANNELS 6 Xposition Yposition Zposition Xrotation Yrotation Zrotation
														JOINT finger4-1.R
														{
															OFFSET -0.026310 -0.039080 -0.027690
															CHANNELS 6 Xposition Yposition Zposition Xrotation Yrotation Zrotation
															JOINT finger4-2.R
															{
																OFFSET -0.008990 -0.011910 -0.023038
																CHANNELS 6 Xposition Yposition Zposition Xrotation Yrotation Zrotation
																JOINT finger4-3.R
																{
																	OFFSET -0.003680 -0.010500 -0.019533
																	CHANNELS 6 Xposition Yposition Zposition Xrotation Yrotation Zrotation
																	End Site
																	{
																		OFFSET -0.002026 -0.009230 -0.022827
																	}
																}
															}
														}
													}
													JOINT metacarpal4.R
													{
														OFFSET -0.020730 -0.012740 -0.028400
														CHANNELS 6 Xposition Yposition Zposition Xrotation Yrotation Zrotation
														JOINT finger5-1.R
														{
															OFFSET -0.028050 -0.021160 -0.034908
															CHANNELS 6 Xposition Yposition Zposition Xrotation Yrotation Zrotation
															JOINT finger5-2.R
															{
																OFFSET -0.005430 -0.005780 -0.017723
																CHANNELS 6 Xposition Yposition Zposition Xrotation Yrotation Zrotation
																JOINT finger5-3.R
																{
																	OFFSET -0.001710 -0.004750 -0.013489
																	CHANNELS 6 Xposition Yposition Zposition Xrotation Yrotation Zrotation
																	End Site
																	{
																		OFFSET -0.002191 -0.005530 -0.017130
																	}
																}
															}
														}
													}
												}
											}
										}
									}
								}
							}
						}
						JOINT neck01
						{
							OFFSET 0.000000 0.013620 0.144300
							CHANNELS 6 Xposition Yposition Zposition Xrotation Yrotation Zrotation
							JOINT neck02
							{
								OFFSET 0.000000 -0.019944 0.040070
								CHANNELS 6 Xposition Yposition Zposition Xrotation Yrotation Zrotation
								JOINT neck03
								{
									OFFSET 0.000000 -0.009604 0.035160
									CHANNELS 6 Xposition Yposition Zposition Xrotation Yrotation Zrotation
									JOINT head
									{
										OFFSET 0.000000 -0.012347 0.036510
										CHANNELS 6 Xposition Yposition Zposition Xrotation Yrotation Zrotation
										JOINT jaw
										{
											OFFSET 0.000000 -0.015570 -0.002570
											CHANNELS 6 Xposition Yposition Zposition Xrotation Yrotation Zrotation
											JOINT special04
											{
												OFFSET 0.000000 -0.042765 -0.068920
												CHANNELS 6 Xposition Yposition Zposition Xrotation Yrotation Zrotation
												JOINT oris02
												{
													OFFSET 0.000000 -0.025650 0.016070
													CHANNELS 6 Xposition Yposition Zposition Xrotation Yrotation Zrotation
													JOINT oris01
													{
														OFFSET 0.000000 -0.009910 0.010010
														CHANNELS 6 Xposition Yposition Zposition Xrotation Yrotation Zrotation
														End Site
														{
															OFFSET 0.000000 -0.006300 0.011520
														}
													}
												}
												JOINT oris06.L
												{
													OFFSET 0.000000 -0.025650 0.016070
													CHANNELS 6 Xposition Yposition Zposition Xrotation Yrotation Zrotation
													JOINT oris07.L
													{
														OFFSET 0.012190 -0.007380 0.004530
														CHANNELS 6 Xposition Yposition Zposition Xrotation Yrotation Zrotation
														End Site
														{
															OFFSET 0.004660 -0.002490 0.012040
														}
													}
												}
												JOINT oris06.R
												{
													OFFSET 0.000000 -0.025650 0.016070
													CHANNELS 6 Xposition Yposition Zposition Xrotation Yrotation Zrotation
													JOINT oris07.R
													{
														OFFSET -0.012190 -0.007380 0.004530
														CHANNELS 6 Xposition Yposition Zposition Xrotation Yrotation Zrotation
														End Site
														{
															OFFSET -0.004660 -0.002490 0.012040
														}
													}
												}
											}
											JOINT tongue00
											{
												OFFSET 0.000000 -0.042765 -0.068920
												CHANNELS 6 Xposition Yposition Zposition Xrotation Yrotation Zrotation
												JOINT tongue01
												{
													OFFSET 0.000000 0.038380 0.041920
													CHANNELS 6 Xposition Yposition Zposition Xrotation Yrotation Zrotation
													JOINT tongue02
													{
														OFFSET 0.000000 -0.029515 0.002930
														CHANNELS 6 Xposition Yposition Zposition Xrotation Yrotation Zrotation
														JOINT tongue03
														{
															OFFSET 0.000000 -0.020635 -0.000770
															CHANNELS 6 Xposition Yposition Zposition Xrotation Yrotation Zrotation
															JOINT tongue04
															{
																OFFSET 0.000000 -0.008190 -0.004820
																CHANNELS 6 Xposition Yposition Zposition Xrotation Yrotation Zrotation
																End Site
																{
																	OFFSET 0.000000 -0.008182 -0.004817
																}
															}
															JOINT tongue07.L
															{
																OFFSET 0.000000 -0.008190 -0.004820
																CHANNELS 6 Xposition Yposition Zposition Xrotation Yrotation Zrotation
																End Site
																{
																	OFFSET 0.011659 -0.000362 -0.003664
																}
															}
															JOINT tongue07.R
															{
																OFFSET 0.000000 -0.008190 -0.004820
																CHANNELS 6 Xposition Yposition Zposition Xrotation Yrotation Zrotation
																End Site
																{
																	OFFSET -0.011659 -0.000362 -0.003664
																}
															}
														}
														JOINT tongue06.L
														{
															OFFSET 0.000000 -0.020635 -0.000770
															CHANNELS 6 Xposition Yposition Zposition Xrotation Yrotation Zrotation
															End Site
															{
																OFFSET 0.016519 0.002000 -0.005314
															}
														}
														JOINT tongue06.R
														{
															OFFSET 0.000000 -0.020635 -0.000770
															CHANNELS 6 Xposition Yposition Zposition Xrotation Yrotation Zrotation
															End Site
															{
																OFFSET -0.016519 0.002000 -0.005314
															}
														}
													}
													JOINT tongue05.L
													{
														OFFSET 0.000000 -0.029515 0.002930
														CHANNELS 6 Xposition Yposition Zposition Xrotation Yrotation Zrotation
														End Site
														{
															OFFSET 0.019800 -0.002315 -0.004070
														}
													}
													JOINT tongue05.R
													{
														OFFSET 0.000000 -0.029515 0.002930
														CHANNELS 6 Xposition Yposition Zposition Xrotation Yrotation Zrotation
														End Site
														{
															OFFSET -0.019800 -0.002315 -0.004070
														}
													}
												}
											}
										}
										JOINT levator02.L
										{
											OFFSET 0.003170 -0.107445 0.016560
											CHANNELS 6 Xposition Yposition Zposition Xrotation Yrotation Zrotation
											JOINT levator03.L
											{
												OFFSET 0.015970 0.015990 -0.015670
												CHANNELS 6 Xposition Yposition Zposition Xrotation Yrotation Zrotation
												JOINT levator04.L
												{
													OFFSET 0.004910 0.000140 -0.016320
													CHANNELS 6 Xposition Yposition Zposition Xrotation Yrotation Zrotation
													JOINT levator05.L
													{
														OFFSET 0.002520 0.001590 -0.015850
														CHANNELS 6 Xposition Yposition Zposition Xrotation Yrotation Zrotation
														End Site
														{
															OFFSET -0.002320 0.001040 -0.007420
														}
													}
												}
											}
										}
										JOINT levator02.R
										{
											OFFSET -0.003170 -0.107445 0.016560
											CHANNELS 6 Xposition Yposition Zposition Xrotation Yrotation Zrotation
											JOINT levator03.R
											{
												OFFSET -0.015970 0.015990 -0.015670
												CHANNELS 6 Xposition Yposition Zposition Xrotation Yrotation Zrotation
												JOINT levator04.R
												{
													OFFSET -0.004910 0.000140 -0.016320
													CHANNELS 6 Xposition Yposition Zposition Xrotation Yrotation Zrotation
													JOINT levator05.R
													{
														OFFSET -0.002520 0.001590 -0.015850
														CHANNELS 6 Xposition Yposition Zposition Xrotation Yrotation Zrotation
														End Site
														{
															OFFSET 0.002320 0.001040 -0.007420
														}
													}
												}
											}
										}
										JOINT special01
										{
											OFFSET 0.000000 0.060955 -0.009070
											CHANNELS 6 Xposition Yposition Zposition Xrotation Yrotation Zrotation
											JOINT oris04.L
											{
												OFFSET 0.000000 -0.165600 -0.007130
												CHANNELS 6 Xposition Yposition Zposition Xrotation Yrotation Zrotation
												JOINT oris03.L
												{
													OFFSET 0.012610 0.003540 -0.005750
													CHANNELS 6 Xposition Yposition Zposition Xrotation Yrotation Zrotation
													End Site
													{
														OFFSET 0.002760 0.001280 -0.004990
													}
												}
											}
											JOINT oris04.R
											{
												OFFSET 0.000000 -0.165600 -0.007130
												CHANNELS 6 Xposition Yposition Zposition Xrotation Yrotation Zrotation
												JOINT oris03.R
												{
													OFFSET -0.012610 0.003540 -0.005750
													CHANNELS 6 Xposition Yposition Zposition Xrotation Yrotation Zrotation
													End Site
													{
														OFFSET -0.002760 0.001280 -0.004990
													}
												}
											}
											JOINT oris06
											{
												OFFSET 0.000000 -0.165600 -0.007130
												CHANNELS 6 Xposition Yposition Zposition Xrotation Yrotation Zrotation
												JOINT oris05
												{
													OFFSET 0.000000 -0.000280 -0.004420
													CHANNELS 6 Xposition Yposition Zposition Xrotation Yrotation Zrotation
													End Site
													{
														OFFSET 0.000000 -0.001740 -0.005660
													}
												}
											}
										}
										JOINT special03
										{
											OFFSET 0.000000 -0.015570 -0.002570
											CHANNELS 6 Xposition Yposition Zposition Xrotation Yrotation Zrotation
											JOINT levator06.L
											{
												OFFSET 0.005190 -0.100245 0.001800
												CHANNELS 6 Xposition Yposition Zposition Xrotation Yrotation Zrotation
												End Site
												{
													OFFSET 0.010710 0.022130 -0.001980
												}
											}
											JOINT levator06.R
											{
												OFFSET -0.005190 -0.100245 0.001800
												CHANNELS 6 Xposition Yposition Zposition Xrotation Yrotation Zrotation
												End Site
												{
													OFFSET -0.010710 0.022130 -0.001980
												}
											}
										}
										JOINT special06.L
										{
											OFFSET 0.000000 0.005880 0.136520
											CHANNELS 6 Xposition Yposition Zposition Xrotation Yrotation Zrotation
											JOINT special05.L
											{
												OFFSET 0.018370 -0.053455 -0.010310
												CHANNELS 6 Xposition Yposition Zposition Xrotation Yrotation Zrotation
												JOINT eye.L
												{
													OFFSET 0.010480 -0.023190 -0.097860
													CHANNELS 6 Xposition Yposition Zposition Xrotation Yrotation Zrotation
													End Site
													{
														OFFSET 0.000985 -0.041530 -0.000145
													}
												}
												JOINT orbicularis03.L
												{
													OFFSET 0.010480 -0.023190 -0.097860
													CHANNELS 6 Xposition Yposition Zposition Xrotation Yrotation Zrotation
													End Site
													{
														OFFSET 0.000875 -0.038899 0.011863
													}
												}
												JOINT orbicularis04.L
												{
													OFFSET 0.010480 -0.023190 -0.097860
													CHANNELS 6 Xposition Yposition Zposition Xrotation Yrotation Zrotation
													End Site
													{
														OFFSET 0.001005 -0.039440 -0.012110
													}
												}
											}
										}
										JOINT special06.R
										{
											OFFSET 0.000000 0.005880 0.136520
											CHANNELS 6 Xposition Yposition Zposition Xrotation Yrotation Zrotation
											JOINT special05.R
											{
												OFFSET -0.018370 -0.053455 -0.010310
												CHANNELS 6 Xposition Yposition Zposition Xrotation Yrotation Zrotation
												JOINT eye.R
												{
													OFFSET -0.010480 -0.023190 -0.097860
													CHANNELS 6 Xposition Yposition Zposition Xrotation Yrotation Zrotation
													End Site
													{
														OFFSET -0.000985 -0.041530 -0.000145
													}
												}
												JOINT orbicularis03.R
												{
													OFFSET -0.010480 -0.023190 -0.097860
													CHANNELS 6 Xposition Yposition Zposition Xrotation Yrotation Zrotation
													End Site
													{
														OFFSET -0.000875 -0.038899 0.011863
													}
												}
												JOINT orbicularis04.R
												{
													OFFSET -0.010480 -0.023190 -0.097860
													CHANNELS 6 Xposition Yposition Zposition Xrotation Yrotation Zrotation
													End Site
													{
														OFFSET -0.001005 -0.039440 -0.012110
													}
												}
											}
										}
										JOINT temporalis01.L
										{
											OFFSET 0.059020 -0.057595 0.035370
											CHANNELS 6 Xposition Yposition Zposition Xrotation Yrotation Zrotation
											JOINT oculi02.L
											{
												OFFSET -0.006410 -0.014690 0.000700
												CHANNELS 6 Xposition Yposition Zposition Xrotation Yrotation Zrotation
												JOINT oculi01.L
												{
													OFFSET -0.021380 -0.022210 0.016150
													CHANNELS 6 Xposition Yposition Zposition Xrotation Yrotation Zrotation
													End Site
													{
														OFFSET -0.015860 -0.005250 0.002990
													}
												}
											}
										}
										JOINT temporalis01.R
										{
											OFFSET -0.059020 -0.057595 0.035370
											CHANNELS 6 Xposition Yposition Zposition Xrotation Yrotation Zrotation
											JOINT oculi02.R
											{
												OFFSET 0.006410 -0.014690 0.000700
												CHANNELS 6 Xposition Yposition Zposition Xrotation Yrotation Zrotation
												JOINT oculi01.R
												{
													OFFSET 0.021380 -0.022210 0.016150
													CHANNELS 6 Xposition Yposition Zposition Xrotation Yrotation Zrotation
													End Site
													{
														OFFSET 0.015860 -0.005250 0.002990
													}
												}
											}
										}
										JOINT temporalis02.L
										{
											OFFSET 0.060990 -0.056545 0.013130
											CHANNELS 6 Xposition Yposition Zposition Xrotation Yrotation Zrotation
											JOINT risorius02.L
											{
												OFFSET -0.008060 -0.015130 0.004440
												CHANNELS 6 Xposition Yposition Zposition Xrotation Yrotation Zrotation
												JOINT risorius03.L
												{
													OFFSET -0.006190 -0.007170 -0.025090
													CHANNELS 6 Xposition Yposition Zposition Xrotation Yrotation Zrotation
													End Site
													{
														OFFSET 0.005840 0.014410 -0.017410
													}
												}
											}
										}
										JOINT temporalis02.R
										{
											OFFSET -0.060990 -0.056545 0.013130
											CHANNELS 6 Xposition Yposition Zposition Xrotation Yrotation Zrotation
											JOINT risorius02.R
											{
												OFFSET 0.008060 -0.015130 0.004440
												CHANNELS 6 Xposition Yposition Zposition Xrotation Yrotation Zrotation
												JOINT risorius03.R
												{
													OFFSET 0.006190 -0.007170 -0.025090
													CHANNELS 6 Xposition Yposition Zposition Xrotation Yrotation Zrotation
													End Site
													{
														OFFSET -0.005840 0.014410 -0.017410
													}
												}
											}
										}
									}
								}
							}
						}
					}
				}
			}
		}
	}
	JOINT pelvis.L
	{
		OFFSET 0.000000 -0.086690 -0.002105
		CHANNELS 6 Xposition Yposition Zposition Xrotation Yrotation Zrotation
		JOINT upperleg01.L
		{
			OFFSET 0.095465 0.006192 -0.011170
			CHANNELS 6 Xposition Yposition Zposition Xrotation Yrotation Zrotation
			JOINT upperleg02.L
			{
				OFFSET 0.008905 -0.024402 -0.076390
				CHANNELS 6 Xposition Yposition Zposition Xrotation Yrotation Zrotation
				JOINT lowerleg01.L
				{
					OFFSET 0.031030 -0.006165 -0.295805
					CHANNELS 6 Xposition Yposition Zposition Xrotation Yrotation Zrotation
					JOINT lowerleg02.L
					{
						OFFSET 0.015360 0.009080 -0.190400
						CHANNELS 6 Xposition Yposition Zposition Xrotation Yrotation Zrotation
						JOINT foot.L
						{
							OFFSET 0.015360 0.009080 -0.190390
							CHANNELS 6 Xposition Yposition Zposition Xrotation Yrotation Zrotation
							JOINT toe1-1.L
							{
								OFFSET -0.022590 -0.125145 -0.042940
								CHANNELS 6 Xposition Yposition Zposition Xrotation Yrotation Zrotation
								JOINT toe1-2.L
								{
									OFFSET 0.002000 -0.022260 -0.005260
									CHANNELS 6 Xposition Yposition Zposition Xrotation Yrotation Zrotation
									End Site
									{
										OFFSET 0.004047 -0.025321 -0.004385
									}
								}
							}
							JOINT toe2-1.L
							{
								OFFSET -0.001030 -0.124895 -0.044550
								CHANNELS 6 Xposition Yposition Zposition Xrotation Yrotation Zrotation
								JOINT toe2-2.L
								{
									OFFSET 0.002070 -0.018800 -0.003330
									CHANNELS 6 Xposition Yposition Zposition Xrotation Yrotation Zrotation
									JOINT toe2-3.L
									{
										OFFSET 0.001050 -0.011210 -0.003020
										CHANNELS 6 Xposition Yposition Zposition Xrotation Yrotation Zrotation
										End Site
										{
											OFFSET 0.000055 -0.016259 -0.006072
										}
									}
								}
							}
							JOINT toe3-1.L
							{
								OFFSET 0.013340 -0.122875 -0.045110
								CHANNELS 6 Xposition Yposition Zposition Xrotation Yrotation Zrotation
								JOINT toe3-2.L
								{
									OFFSET 0.002730 -0.015900 -0.002500
									CHANNELS 6 Xposition Yposition Zposition Xrotation Yrotation Zrotation
									JOINT toe3-3.L
									{
										OFFSET 0.001030 -0.011510 -0.004250
										CHANNELS 6 Xposition Yposition Zposition Xrotation Yrotation Zrotation
										End Site
										{
											OFFSET -0.000672 -0.012201 -0.004399
										}
									}
								}
							}
							JOINT toe4-1.L
							{
								OFFSET 0.028170 -0.116755 -0.044680
								CHANNELS 6 Xposition Yposition Zposition Xrotation Yrotation Zrotation
								JOINT toe4-2.L
								{
									OFFSET 0.002860 -0.013960 -0.004610
									CHANNELS 6 Xposition Yposition Zposition Xrotation Yrotation Zrotation
									JOINT toe4-3.L
									{
										OFFSET 0.000500 -0.010570 -0.000780
										CHANNELS 6 Xposition Yposition Zposition Xrotation Yrotation Zrotation
										End Site
										{
											OFFSET 0.001148 -0.008278 -0.005733
										}
									}
								}
							}
							JOINT toe5-1.L
							{
								OFFSET 0.041220 -0.107375 -0.042600
								CHANNELS 6 Xposition Yposition Zposition Xrotation Yrotation Zrotation
								JOINT toe5-2.L
								{
									OFFSET 0.000980 -0.007990 -0.002810
									CHANNELS 6 Xposition Yposition Zposition Xrotation Yrotation Zrotation
									JOINT toe5-3.L
									{
										OFFSET -0.000310 -0.007490 -0.005440
										CHANNELS 6 Xposition Yposition Zposition Xrotation Yrotation Zrotation
										End Site
										{
											OFFSET 0.000910 -0.010412 -0.004124
										}
									}
								}
							}
						}
					}
				}
			}
		}
	}
	JOINT pelvis.R
	{
		OFFSET 0.000000 -0.086690 -0.002105
		CHANNELS 6 Xposition Yposition Zposition Xrotation Yrotation Zrotation
		JOINT upperleg01.R
		{
			OFFSET -0.095465 0.006192 -0.011170
			CHANNELS 6 Xposition Yposition Zposition Xrotation Yrotation Zrotation
			JOINT upperleg02.R
			{
				OFFSET -0.008905 -0.024402 -0.076390
				CHANNELS 6 Xposition Yposition Zposition Xrotation Yrotation Zrotation
				JOINT lowerleg01.R
				{
					OFFSET -0.031030 -0.006165 -0.295805
					CHANNELS 6 Xposition Yposition Zposition Xrotation Yrotation Zrotation
					JOINT lowerleg02.R
					{
						OFFSET -0.015360 0.009080 -0.190400
						CHANNELS 6 Xposition Yposition Zposition Xrotation Yrotation Zrotation
						JOINT foot.R
						{
							OFFSET -0.015360 0.009080 -0.190390
							CHANNELS 6 Xposition Yposition Zposition Xrotation Yrotation Zrotation
							JOINT toe1-1.R
							{
								OFFSET 0.022590 -0.125145 -0.042940
								CHANNELS 6 Xposition Yposition Zposition Xrotation Yrotation Zrotation
								JOINT toe1-2.R
								{
									OFFSET -0.002000 -0.022260 -0.005260
									CHANNELS 6 Xposition Yposition Zposition Xrotation Yrotation Zrotation
									End Site
									{
										OFFSET -0.004047 -0.025321 -0.004385
									}
								}
							}
							JOINT toe2-1.R
							{
								OFFSET 0.001030 -0.124895 -0.044550
								CHANNELS 6 Xposition Yposition Zposition Xrotation Yrotation Zrotation
								JOINT toe2-2.R
								{
									OFFSET -0.002070 -0.018800 -0.003330
									CHANNELS 6 Xposition Yposition Zposition Xrotation Yrotation Zrotation
									JOINT toe2-3.R
									{
										OFFSET -0.001050 -0.011210 -0.003020
										CHANNELS 6 Xposition Yposition Zposition Xrotation Yrotation Zrotation
										End Site
										{
											OFFSET -0.000055 -0.016259 -0.006072
										}
									}
								}
							}
							JOINT toe3-1.R
							{
								OFFSET -0.013340 -0.122875 -0.045110
								CHANNELS 6 Xposition Yposition Zposition Xrotation Yrotation Zrotation
								JOINT toe3-2.R
								{
									OFFSET -0.002730 -0.015900 -0.002500
									CHANNELS 6 Xposition Yposition Zposition Xrotation Yrotation Zrotation
									JOINT toe3-3.R
									{
										OFFSET -0.001030 -0.011510 -0.004250
										CHANNELS 6 Xposition Yposition Zposition Xrotation Yrotation Zrotation
										End Site
										{
											OFFSET 0.000672 -0.012201 -0.004399
										}
									}
								}
							}
							JOINT toe4-1.R
							{
								OFFSET -0.028170 -0.116755 -0.044680
								CHANNELS 6 Xposition Yposition Zposition Xrotation Yrotation Zrotation
								JOINT toe4-2.R
								{
									OFFSET -0.002860 -0.013960 -0.004610
									CHANNELS 6 Xposition Yposition Zposition Xrotation Yrotation Zrotation
									JOINT toe4-3.R
									{
										OFFSET -0.000500 -0.010570 -0.000780
										CHANNELS 6 Xposition Yposition Zposition Xrotation Yrotation Zrotation
										End Site
										{
											OFFSET -0.001148 -0.008278 -0.005733
										}
									}
								}
							}
							JOINT toe5-1.R
							{
								OFFSET -0.041220 -0.107375 -0.042600
								CHANNELS 6 Xposition Yposition Zposition Xrotation Yrotation Zrotation
								JOINT toe5-2.R
								{
									OFFSET -0.000980 -0.007990 -0.002810
									CHANNELS 6 Xposition Yposition Zposition Xrotation Yrotation Zrotation
									JOINT toe5-3.R
									{
										OFFSET 0.000310 -0.007490 -0.005440
										CHANNELS 6 Xposition Yposition Zposition Xrotation Yrotation Zrotation
										End Site
										{
											OFFSET -0.000910 -0.010412 -0.004124
										}
									}
								}
							}
						}
					}
				}
			}
		}
	}
}
MOTION
Frames: 1
Frame Time: 0.041667
0.000000 0.000000 0.000000 -0.000000 0.000000 -0.000000 0.000000 0.000000 -0.000000 -0.000002 0.000000 -0.000000 0.000000 0.000000 -0.000000 -22.629812 0.000000 -0.000000 0.000000 0.000000 -0.000000 -0.000000 0.000000 -0.000000 0.000000 -0.000000 0.000000 0.000001 0.000000 -0.000000 -0.000000 -0.000000 -0.000000 -0.000000 -0.000001 0.000000 0.000000 -0.000000 -0.000000 -0.000000 0.000001 -0.000000 0.000000 -0.000000 -0.000000 0.000001 0.000000 -0.000000 0.000000 -0.000000 -0.000000 -0.571192 -22.583339 1.234263 0.000000 0.000000 -0.000000 0.523236 -22.623620 -0.055903 -0.000000 0.000000 0.000000 11.744157 -44.180225 -11.863565 -0.000000 0.000000 -0.000000 -0.144780 -22.616804 0.732409 0.000000 -0.000000 -0.000000 16.643689 2.471140 14.826107 -0.000000 0.000000 0.000000 -29.395785 21.076535 31.175767 0.000000 0.000000 -0.000000 -23.648060 29.579073 29.518660 0.000000 0.000000 -0.000000 0.000003 0.000004 -0.000002 -0.000000 -0.000000 0.000000 -0.000003 0.000001 -0.000009 0.000000 -0.000000 -0.000000 0.000001 0.000000 0.000002 0.000000 0.000000 -0.000000 -0.000002 -0.000003 0.000001 0.000000 -0.000000 -0.000000 -0.000000 0.000003 -0.000004 -0.000000 0.000000 0.000000 -0.000001 -0.000001 -0.000004 -0.000000 -0.000000 -0.000000 -0.000002 -0.000001 -0.000003 0.000000 0.000000 -0.000000 0.000001 0.000000 -0.000001 -0.000000 0.000000 -0.000000 -0.000005 -0.000003 -0.000003 0.000000 0.000000 0.000000 0.000003 -0.000001 0.000003 0.000000 -0.000000 0.000000 -0.000003 0.000002 0.000006 0.000000 0.000000 0.000000 0.000003 -0.000002 -0.000000 -0.000000 -0.000000 0.000000 0.000001 -0.000000 0.000001 -0.000000 0.000000 0.000000 0.000002 0.000001 -0.000003 -0.000000 -0.000000 -0.000000 -0.000006 0.000002 0.000003 -0.000000 0.000000 0.000000 0.000001 0.000000 0.000000 -0.000000 0.000000 -0.000000 -0.000001 0.000003 -0.000002 -0.000000 -0.000000 -0.000000 0.000004 -0.000003 0.000002 -0.000000 -0.000000 0.000000 0.000000 0.000000 0.000001 -0.000000 -0.000000 -0.000000 -0.571192 22.583339 -1.234263 -0.000000 0.000000 -0.000000 0.523236 22.623620 0.055903 0.000000 0.000000 0.000000 11.744157 44.180225 11.863565 0.000000 0.000000 -0.000000 -0.144780 22.616804 -0.732409 -0.000000 -0.000000 -0.000000 16.643689 -2.471140 -14.826107 0.000000 0.000000 0.000000 -29.395785 -21.076535 -31.175767 -0.000000 0.000000 -0.000000 -23.648060 -29.579073 -29.518660 -0.000000 0.000000 -0.000000 0.000003 -0.000004 0.000002 0.000000 -0.000000 0.000000 -0.000003 -0.000001 0.000009 -0.000000 -0.000000 -0.000000 0.000001 0.000000 -0.000002 -0.000000 0.000000 -0.000000 -0.000002 0.000003 -0.000001 -0.000000 -0.000000 -0.000000 -0.000000 -0.000003 0.000004 0.000000 0.000000 0.000000 -0.000001 0.000001 0.000004 0.000000 -0.000000 -0.000000 -0.000002 0.000001 0.000003 -0.000000 0.000000 -0.000000 0.000001 0.000000 0.000001 0.000000 0.000000 -0.000000 -0.000005 0.000003 0.000003 -0.000000 0.000000 0.000000 0.000003 0.000001 -0.000003 -0.000000 -0.000000 0.000000 -0.000003 -0.000002 -0.000006 -0.000000 0.000000 0.000000 0.000003 0.000002 0.000000 0.000000 -0.000000 0.000000 0.000001 0.000000 -0.000001 0.000000 0.000000 0.000000 0.000002 -0.000001 0.000003 0.000000 -0.000000 -0.000000 -0.000006 -0.000002 -0.000003 0.000000 0.000000 0.000000 0.000001 0.000000 -0.000000 0.000000 0.000000 -0.000000 -0.000001 -0.000003 0.000002 0.000000 -0.000000 -0.000000 0.000004 0.000003 -0.000002 0.000000 -0.000000 0.000000 0.000000 0.000000 -0.000001 0.000000 0.000000 -0.000000 -0.000003 0.000000 -0.000000 0.000000 -0.000000 -0.000000 -0.000000 0.000000 -0.000000 0.000000 0.000000 -0.000000 0.000002 0.000000 -0.000000 0.000000 -0.000000 -0.000000 0.000002 0.000000 -0.000000 0.000000 0.000000 -0.000000 -0.000002 0.000000 -0.000000 0.000000 -0.000000 -0.000000 0.000003 0.000000 -0.000000 0.000000 -0.000000 -0.000000 -0.000000 -0.000000 0.000000 0.000000 0.000000 -0.000000 -0.000000 0.000000 -0.000000 0.000000 -0.000000 0.000000 -0.000000 0.000001 -0.000000 0.000000 0.000000 -0.000000 -0.000003 0.000002 0.000000 0.000000 -0.000000 0.000000 -0.000002 0.000002 0.000001 -0.000000 0.000000 -0.000000 -0.000003 -0.000002 0.000003 0.000000 -0.000000 -0.000000 0.000002 0.000000 -0.000000 0.000000 -0.000000 0.000000 -0.000000 0.000000 -0.000000 -0.000000 0.000000 0.000000 -0.000001 0.000000 -0.000000 -0.000000 -0.000000 0.000000 -0.000003 -0.000000 -0.000000 -0.000000 -0.000000 0.000000 0.000005 -0.000000 -0.000000 0.000000 0.000000 -0.000000 0.000004 0.000000 -0.000000 -0.000000 -0.000000 -0.000000 0.000004 -0.000001 -0.000001 -0.000000 -0.000000 0.000000 0.000002 -0.000001 0.000000 -0.000000 -0.000000 0.000000 0.000001 -0.000001 -0.000000 0.000000 0.000000 0.000000 -0.000001 0.000001 -0.000000 0.000000 0.000000 0.000000 0.000000 -0.000000 0.000000 -0.000000 0.000000 0.000000 -0.000000 0.000000 0.000003 0.000000 -0.000000 -0.000000 0.000002 0.000003 0.000000 0.000000 0.000000 0.000000 -0.000002 0.000001 0.000001 -0.000000 -0.000000 0.000000 0.000000 0.000000 -0.000000 0.000000 0.000000 0.000000 -0.000000 0.000000 -0.000003 -0.000000 -0.000000 -0.000000 0.000002 -0.000003 -0.000000 -0.000000 0.000000 0.000000 -0.000002 -0.000001 -0.000001 0.000000 -0.000000 0.000000 0.000000 -0.000000 -0.000000 -0.000000 0.000000 0.000000 -0.000001 0.000000 -0.000000 -0.000000 0.000000 0.000000 0.000001 -0.000001 -0.000001 0.000000 0.000000 0.000000 -0.000006 0.000001 0.000000 0.000000 0.000000 -0.000000 0.000002 0.000002 -0.000000 -0.000000 0.000000 0.000000 -0.000002 -0.000001 0.000001 0.000000 0.000000 0.000000 0.000000 0.000000 -0.000000 -0.000000 0.000000 0.000000 0.000002 -0.000000 -0.000000 -0.000000 0.000000 0.000000 -0.000003 0.000000 -0.000000 0.000000 -0.000000 -0.000000 0.000000 0.000001 -0.000001 0.000000 -0.000000 -0.000000 0.000001 0.000000 -0.000001 0.000000 0.000000 -0.000000 0.000000 0.000000 0.000001 -0.000000 0.000000 0.000000 0.000000 0.000000 0.000002 -0.000000 0.000000 0.000000 -0.000000 -0.000000 0.000001 -0.000000 0.000000 -0.000000 -0.000000 -0.000000 0.000001 -0.000000 -0.000000 0.000000 -0.000001 -0.000000 0.000001 -0.000000 0.000000 -0.000000 0.000000 -0.000000 -0.000001 0.000000 0.000000 0.000000 0.000000 -0.000000 -0.000002 0.000000 0.000000 0.000000 -0.000000 0.000000 -0.000001 0.000000 0.000000 -0.000000 -0.000000 0.000000 -0.000001 0.000000 -0.000000 0.000000 -0.000001 0.000000 -0.000001 0.000000 0.000000 -0.000000 -0.000004 0.000002 0.000001 0.000000 -0.000000 -0.000000 0.000002 0.000003 -0.000001 -0.000000 -0.000000 -0.000000 -0.000001 -0.000003 -0.000002 -0.000000 0.000000 -0.000000 -0.000004 -0.000002 -0.000001 -0.000000 -0.000000 -0.000000 0.000002 -0.000003 0.000001 0.000000 -0.000000 -0.000000 -0.000001 0.000003 0.000002 -0.000000 -0.000000 0.000000 -0.000003 -0.000001 -0.000002 0.000000 0.000000 -0.000000 -0.000001 0.000001 -0.000001 -0.000000 -0.000000 -0.000000 0.000001 -0.000000 -0.000000 0.000000 -0.000000 0.000000 -0.000003 0.000001 0.000002 -0.000000 0.000000 -0.000000 -0.000001 -0.000001 0.000001 0.000000 -0.000000 -0.000000 0.000001 0.000000 -0.000000 -0.000000 0.000000 -0.000000 0.000001 0.000000 0.000000 -0.000000 0.000000 0.000000 0.000001 -0.000000 0.000000 -0.000000 0.000000 -0.000000 -0.000001 0.000000 0.000000 0.000000 -0.000000 -0.000000 -0.000000 0.000001 0.000000 -0.000000 -0.000000 0.000000 0.000000 -0.000000 -0.000000 -0.000000 -0.000000 -0.000000 0.000001 -0.000001 0.000000 -0.000000 -0.000000 -0.000000 0.000001 0.000001 0.000000 0.000000 0.000000 0.000000 -0.000000 0.000000 -0.000001 -0.000000 -0.000000 -0.000000 0.000001 0.000000 0.000001 -0.000000 -0.000000 0.000000 0.000001 0.000000 -0.000000 -0.000000 0.000000 0.000000 0.000001 0.000000 -0.000000 -0.000000 -0.000000 -0.000000 0.000001 0.000000 -0.000000 -0.000000 -0.000000 -0.000000 0.000000 0.000000 0.000000 -0.000000 -0.000000 -0.000000 0.000003 -0.000000 0.000000 -0.000000 0.000000 -0.000000 -0.000000 0.000000 -0.000001 0.000000 0.000000 -0.000000 -0.000001 0.000000 -0.000000 0.000000 0.000000 -0.000000 0.000001 0.000001 -0.000000 -0.000000 0.000000 -0.000000 0.000000 -0.000001 0.000000 -0.000000 0.000000 -0.000000 -0.000002 -0.000001 -0.000000 -0.000000 -0.000000 -0.000000 -0.000003 0.000000 0.000000 0.000000 0.000000 -0.000000 0.000001 0.000000 -0.000000 0.000000 0.000000 0.000000 0.000001 0.000000 -0.000000 0.000000 0.000000 -0.000000 -0.000001 -0.000000 -0.000000 -0.000000 -0.000000 -0.000000 -0.000000 -0.000001 -0.000000 0.000000 -0.000000 0.000000 0.000000 0.000000 0.000000 0.000000 -0.000000 -0.000000 0.000001 0.000001 -0.000000 0.000000 -0.000000 -0.000000 0.000001 -0.000001 -0.000000 -0.000000 0.000000 0.000000 -0.000000 -0.000000 0.000001 0.000000 -0.000000 -0.000000 0.000001 0.000000 -0.000001 0.000000 -0.000000 0.000000 0.000001 0.000000 0.000000 0.000000 0.000000 0.000000 0.000001 -0.000000 0.000000 0.000000 -0.000000 -0.000000 0.000001 -0.000000 0.000000 0.000000 -0.000000 -0.000000 0.000000 -0.000000 -0.000000 0.000000 -0.000000 -0.000000 0.000003 0.000000 -0.000000 0.000000 0.000000 -0.000000 -0.000000 -0.000000 0.000001 -0.000000 0.000000 -0.000000 -0.000001 -0.000000 0.000000 -0.000000 0.000000 -0.000000 0.000001 -0.000001 0.000000 0.000000 0.000000 -0.000000 0.000000 0.000001 -0.000000 0.000000 0.000000 -0.000000 -0.000002 0.000001 0.000000 0.000000 -0.000000 -0.000000 -0.000003 -0.000000 -0.000000 
