HIERARCHY
ROOT root
{
	OFFSET 0.0 0.0 0.0
	CHANNELS 6 Xposition Yposition Zposition Xrotation Yrotation Zrotation
	JOINT spine05
	{
		OFFSET 0.000000 -0.067552 0.019329
		CHANNELS 6 Xposition Yposition Zposition Xrotation Yrotation Zrotation
		JOINT spine04
		{
			OFFSET -0.000002 0.033916 0.083232
			CHANNELS 6 Xposition Yposition Zposition Xrotation Yrotation Zrotation
			JOINT spine03
			{
				OFFSET -0.001153 -0.016596 0.071750
				CHANNELS 6 Xposition Yposition Zposition Xrotation Yrotation Zrotation
				JOINT spine02
				{
					OFFSET 0.000000 0.016328 0.063820
					CHANNELS 6 Xposition Yposition Zposition Xrotation Yrotation Zrotation
					JOINT breast.L
					{
						OFFSET 0.002404 0.008331 0.126750
						CHANNELS 6 Xposition Yposition Zposition Xrotation Yrotation Zrotation
						End Site
						{
							OFFSET 0.082755 -0.183010 -0.030699
						}
					}
					JOINT breast.R
					{
						OFFSET 0.002404 0.008331 0.126750
						CHANNELS 6 Xposition Yposition Zposition Xrotation Yrotation Zrotation
						End Site
						{
							OFFSET -0.082755 -0.183009 -0.030699
						}
					}
					JOINT spine01
					{
						OFFSET 0.002404 0.008331 0.126750
						CHANNELS 6 Xposition Yposition Zposition Xrotation Yrotation Zrotation
						JOINT clavicle.L
						{
							OFFSET 0.021829 -0.074219 0.123570
							CHANNELS 6 Xposition Yposition Zposition Xrotation Yrotation Zrotation
							JOINT shoulder01.L
							{
								OFFSET 0.080037 0.004981 0.019210
								CHANNELS 6 Xposition Yposition Zposition Xrotation Yrotation Zrotation
								JOINT upperarm01.L
								{
									OFFSET 0.066590 0.005948 -0.043560
									CHANNELS 6 Xposition Yposition Zposition Xrotation Yrotation Zrotation
									JOINT upperarm02.L
									{
										OFFSET 0.049350 0.000818 -0.049470
										CHANNELS 6 Xposition Yposition Zposition Xrotation Yrotation Zrotation
										JOINT lowerarm01.L
										{
											OFFSET 0.113660 -0.008212 -0.129140
											CHANNELS 6 Xposition Yposition Zposition Xrotation Yrotation Zrotation
											JOINT lowerarm02.L
											{
												OFFSET 0.058860 -0.082576 -0.056840
												CHANNELS 6 Xposition Yposition Zposition Xrotation Yrotation Zrotation
												JOINT wrist.L
												{
													OFFSET 0.058870 -0.082580 -0.056840
													CHANNELS 6 Xposition Yposition Zposition Xrotation Yrotation Zrotation
													JOINT finger1-1.L
													{
														OFFSET 0.001800 -0.042290 -0.005270
														CHANNELS 6 Xposition Yposition Zposition Xrotation Yrotation Zrotation
														JOINT finger1-2.L
														{
															OFFSET -0.020330 -0.019940 -0.007550
															CHANNELS 6 Xposition Yposition Zposition Xrotation Yrotation Zrotation
															JOINT finger1-3.L
															{
																OFFSET -0.012540 -0.032270 -0.012730
																CHANNELS 6 Xposition Yposition Zposition Xrotation Yrotation Zrotation
																End Site
																{
																	OFFSET -0.005339 -0.022772 -0.017368
																}
															}
														}
													}
													JOINT metacarpal1.L
													{
														OFFSET 0.011000 -0.025550 -0.013580
														CHANNELS 6 Xposition Yposition Zposition Xrotation Yrotation Zrotation
														JOINT finger2-1.L
														{
															OFFSET 0.015780 -0.065360 -0.021060
															CHANNELS 6 Xposition Yposition Zposition Xrotation Yrotation Zrotation
															JOINT finger2-2.L
															{
																OFFSET 0.003930 -0.022450 -0.015160
																CHANNELS 6 Xposition Yposition Zposition Xrotation Yrotation Zrotation
																JOINT finger2-3.L
																{
																	OFFSET -0.000580 -0.017610 -0.016780
																	CHANNELS 6 Xposition Yposition Zposition Xrotation Yrotation Zrotation
																	End Site
																	{
																		OFFSET -0.003707 -0.018287 -0.019821
																	}
																}
															}
														}
													}
													JOINT metacarpal2.L
													{
														OFFSET 0.011000 -0.025550 -0.013580
														CHANNELS 6 Xposition Yposition Zposition Xrotation Yrotation Zrotation
														JOINT finger3-1.L
														{
															OFFSET 0.031780 -0.048740 -0.031640
															CHANNELS 6 Xposition Yposition Zposition Xrotation Yrotation Zrotation
															JOINT finger3-2.L
															{
																OFFSET 0.007050 -0.021300 -0.025270
																CHANNELS 6 Xposition Yposition Zposition Xrotation Yrotation Zrotation
																JOINT finger3-3.L
																{
																	OFFSET 0.002670 -0.018110 -0.021560
																	CHANNELS 6 Xposition Yposition Zposition Xrotation Yrotation Zrotation
																	End Site
																	{
																		OFFSET 0.000015 -0.015988 -0.022584
																	}
																}
															}
														}
													}
													JOINT metacarpal3.L
													{
														OFFSET 0.022080 -0.016010 -0.028280
														CHANNELS 6 Xposition Yposition Zposition Xrotation Yrotation Zrotation
														JOINT finger4-1.L
														{
															OFFSET 0.027460 -0.041900 -0.024990
															CHANNELS 6 Xposition Yposition Zposition Xrotation Yrotation Zrotation
															JOINT finger4-2.L
															{
																OFFSET 0.009550 -0.015430 -0.024660
																CHANNELS 6 Xposition Yposition Zposition Xrotation Yrotation Zrotation
																JOINT finger4-3.L
																{
																	OFFSET 0.004020 -0.012580 -0.019310
																	CHANNELS 6 Xposition Yposition Zposition Xrotation Yrotation Zrotation
																	End Site
																	{
																		OFFSET 0.002520 -0.011831 -0.023719
																	}
																}
															}
														}
													}
													JOINT metacarpal4.L
													{
														OFFSET 0.022080 -0.016010 -0.028280
														CHANNELS 6 Xposition Yposition Zposition Xrotation Yrotation Zrotation
														JOINT finger5-1.L
														{
															OFFSET 0.028570 -0.023610 -0.034160
															CHANNELS 6 Xposition Yposition Zposition Xrotation Yrotation Zrotation
															JOINT finger5-2.L
															{
																OFFSET 0.006610 -0.008500 -0.018970
																CHANNELS 6 Xposition Yposition Zposition Xrotation Yrotation Zrotation
																JOINT finger5-3.L
																{
																	OFFSET 0.001950 -0.006360 -0.014530
																	CHANNELS 6 Xposition Yposition Zposition Xrotation Yrotation Zrotation
																	End Site
																	{
																		OFFSET 0.002609 -0.007427 -0.018241
																	}
																}
															}
														}
													}
												}
											}
										}
									}
								}
							}
						}
						JOINT clavicle.R
						{
							OFFSET -0.021830 -0.074219 0.123570
							CHANNELS 6 Xposition Yposition Zposition Xrotation Yrotation Zrotation
							JOINT shoulder01.R
							{
								OFFSET -0.080039 0.004981 0.019210
								CHANNELS 6 Xposition Yposition Zposition Xrotation Yrotation Zrotation
								JOINT upperarm01.R
								{
									OFFSET -0.066585 0.005948 -0.043560
									CHANNELS 6 Xposition Yposition Zposition Xrotation Yrotation Zrotation
									JOINT upperarm02.R
									{
										OFFSET -0.049440 0.000853 -0.049440
										CHANNELS 6 Xposition Yposition Zposition Xrotation Yrotation Zrotation
										JOINT lowerarm01.R
										{
											OFFSET -0.110350 -0.008248 -0.125090
											CHANNELS 6 Xposition Yposition Zposition Xrotation Yrotation Zrotation
											JOINT lowerarm02.R
											{
												OFFSET -0.058920 -0.082715 -0.057120
												CHANNELS 6 Xposition Yposition Zposition Xrotation Yrotation Zrotation
												JOINT wrist.R
												{
													OFFSET -0.058920 -0.082710 -0.057110
													CHANNELS 6 Xposition Yposition Zposition Xrotation Yrotation Zrotation
													JOINT finger1-1.R
													{
														OFFSET -0.001960 -0.041940 -0.005190
														CHANNELS 6 Xposition Yposition Zposition Xrotation Yrotation Zrotation
														JOINT finger1-2.R
														{
															OFFSET 0.020210 -0.019700 -0.007530
															CHANNELS 6 Xposition Yposition Zposition Xrotation Yrotation Zrotation
															JOINT finger1-3.R
															{
																OFFSET 0.011840 -0.029550 -0.011630
																CHANNELS 6 Xposition Yposition Zposition Xrotation Yrotation Zrotation
																End Site
																{
																	OFFSET 0.004764 -0.019939 -0.015960
																}
															}
														}
													}
													JOINT metacarpal1.R
													{
														OFFSET -0.011030 -0.025430 -0.013400
														CHANNELS 6 Xposition Yposition Zposition Xrotation Yrotation Zrotation
														JOINT finger2-1.R
														{
															OFFSET -0.015730 -0.064680 -0.020970
															CHANNELS 6 Xposition Yposition Zposition Xrotation Yrotation Zrotation
															JOINT finger2-2.R
															{
																OFFSET -0.003130 -0.019820 -0.013410
																CHANNELS 6 Xposition Yposition Zposition Xrotation Yrotation Zrotation
																JOINT finger2-3.R
																{
																	OFFSET 0.000730 -0.015640 -0.014790
																	CHANNELS 6 Xposition Yposition Zposition Xrotation Yrotation Zrotation
																	End Site
																	{
																		OFFSET 0.003774 -0.016626 -0.018263
																	}
																}
															}
														}
													}
													JOINT metacarpal2.R
													{
														OFFSET -0.011030 -0.025430 -0.013400
														CHANNELS 6 Xposition Yposition Zposition Xrotation Yrotation Zrotation
														JOINT finger3-1.R
														{
															OFFSET -0.031550 -0.048340 -0.031400
															CHANNELS 6 Xposition Yposition Zposition Xrotation Yrotation Zrotation
															JOINT finger3-2.R
															{
																OFFSET -0.006400 -0.019860 -0.024040
																CHANNELS 6 Xposition Yposition Zposition Xrotation Yrotation Zrotation
																JOINT finger3-3.R
																{
																	OFFSET -0.002030 -0.016290 -0.019580
																	CHANNELS 6 Xposition Yposition Zposition Xrotation Yrotation Zrotation
																	End Site
																	{
																		OFFSET 0.000486 -0.014325 -0.020574
																	}
																}
															}
														}
													}
													JOINT metacarpal3.R
													{
														OFFSET -0.022000 -0.016050 -0.027960
														CHANNELS 6 Xposition Yposition Zposition Xrotation Yrotation Zrotation
														JOINT finger4-1.R
														{
															OFFSET -0.027230 -0.041580 -0.024810
															CHANNELS 6 Xposition Yposition Zposition Xrotation Yrotation Zrotation
															JOINT finger4-2.R
															{
																OFFSET -0.008480 -0.013790 -0.022680
																CHANNELS 6 Xposition Yposition Zposition Xrotation Yrotation Zrotation
																JOINT finger4-3.R
																{
																	OFFSET -0.003980 -0.012480 -0.019170
																	CHANNELS 6 Xposition Yposition Zposition Xrotation Yrotation Zrotation
																	End Site
																	{
																		OFFSET -0.001840 -0.010954 -0.022258
																	}
																}
															}
														}
													}
													JOINT metacarpal4.R
													{
														OFFSET -0.022000 -0.016050 -0.027960
														CHANNELS 6 Xposition Yposition Zposition Xrotation Yrotation Zrotation
														JOINT finger5-1.R
														{
															OFFSET -0.028300 -0.023540 -0.033960
															CHANNELS 6 Xposition Yposition Zposition Xrotation Yrotation Zrotation
															JOINT finger5-2.R
															{
																OFFSET -0.005690 -0.007560 -0.017320
																CHANNELS 6 Xposition Yposition Zposition Xrotation Yrotation Zrotation
																JOINT finger5-3.R
																{
																	OFFSET -0.001530 -0.005720 -0.013250
																	CHANNELS 6 Xposition Yposition Zposition Xrotation Yrotation Zrotation
																	End Site
																	{
																		OFFSET -0.002097 -0.006845 -0.017083
																	}
																}
															}
														}
													}
												}
											}
										}
									}
								}
							}
						}
						JOINT neck01
						{
							OFFSET 0.000000 -0.058736 0.198800
							CHANNELS 6 Xposition Yposition Zposition Xrotation Yrotation Zrotation
							JOINT neck02
							{
								OFFSET -0.000136 0.003345 0.041040
								CHANNELS 6 Xposition Yposition Zposition Xrotation Yrotation Zrotation
								JOINT neck03
								{
									OFFSET -0.000004 -0.009012 0.033790
									CHANNELS 6 Xposition Yposition Zposition Xrotation Yrotation Zrotation
									JOINT head
									{
										OFFSET 0.000091 -0.020295 0.031020
										CHANNELS 6 Xposition Yposition Zposition Xrotation Yrotation Zrotation
										JOINT jaw
										{
											OFFSET 0.000000 -0.013298 0.007910
											CHANNELS 6 Xposition Yposition Zposition Xrotation Yrotation Zrotation
											JOINT special04
											{
												OFFSET -0.000007 -0.053974 -0.088660
												CHANNELS 6 Xposition Yposition Zposition Xrotation Yrotation Zrotation
												JOINT oris02
												{
													OFFSET 0.000007 -0.015670 0.029110
													CHANNELS 6 Xposition Yposition Zposition Xrotation Yrotation Zrotation
													JOINT oris01
													{
														OFFSET -0.000652 -0.012750 0.009720
														CHANNELS 6 Xposition Yposition Zposition Xrotation Yrotation Zrotation
														End Site
														{
															OFFSET -0.001089 -0.000127 0.016780
														}
													}
												}
												JOINT oris06.L
												{
													OFFSET 0.000007 -0.015670 0.029110
													CHANNELS 6 Xposition Yposition Zposition Xrotation Yrotation Zrotation
													JOINT oris07.L
													{
														OFFSET 0.011831 -0.010050 0.004210
														CHANNELS 6 Xposition Yposition Zposition Xrotation Yrotation Zrotation
														End Site
														{
															OFFSET 0.003195 0.000110 0.018240
														}
													}
												}
												JOINT oris06.R
												{
													OFFSET 0.000007 -0.015670 0.029110
													CHANNELS 6 Xposition Yposition Zposition Xrotation Yrotation Zrotation
													JOINT oris07.R
													{
														OFFSET -0.012090 -0.010120 0.003930
														CHANNELS 6 Xposition Yposition Zposition Xrotation Yrotation Zrotation
														End Site
														{
															OFFSET -0.004826 -0.000197 0.017370
														}
													}
												}
											}
											JOINT tongue00
											{
												OFFSET -0.000007 -0.053974 -0.088660
												CHANNELS 6 Xposition Yposition Zposition Xrotation Yrotation Zrotation
												JOINT tongue01
												{
													OFFSET 0.000007 0.042586 0.047750
													CHANNELS 6 Xposition Yposition Zposition Xrotation Yrotation Zrotation
													JOINT tongue02
													{
														OFFSET 0.000000 -0.028153 0.006110
														CHANNELS 6 Xposition Yposition Zposition Xrotation Yrotation Zrotation
														JOINT tongue03
														{
															OFFSET 0.000000 -0.020543 0.000020
															CHANNELS 6 Xposition Yposition Zposition Xrotation Yrotation Zrotation
															JOINT tongue04
															{
																OFFSET 0.000000 -0.010090 -0.004150
																CHANNELS 6 Xposition Yposition Zposition Xrotation Yrotation Zrotation
																End Site
																{
																	OFFSET 0.000000 -0.010081 -0.004148
																}
															}
															JOINT tongue07.L
															{
																OFFSET 0.000000 -0.010090 -0.004150
																CHANNELS 6 Xposition Yposition Zposition Xrotation Yrotation Zrotation
																End Site
																{
																	OFFSET 0.010401 -0.002695 -0.003340
																}
															}
															JOINT tongue07.R
															{
																OFFSET 0.000000 -0.010090 -0.004150
																CHANNELS 6 Xposition Yposition Zposition Xrotation Yrotation Zrotation
																End Site
																{
																	OFFSET -0.011916 -0.002695 -0.003340
																}
															}
														}
														JOINT tongue06.L
														{
															OFFSET 0.000000 -0.020543 0.000020
															CHANNELS 6 Xposition Yposition Zposition Xrotation Yrotation Zrotation
															End Site
															{
																OFFSET 0.015042 -0.001314 -0.005503
															}
														}
														JOINT tongue06.R
														{
															OFFSET 0.000000 -0.020543 0.000020
															CHANNELS 6 Xposition Yposition Zposition Xrotation Yrotation Zrotation
															End Site
															{
																OFFSET -0.016557 -0.001314 -0.005503
															}
														}
													}
													JOINT tongue05.L
													{
														OFFSET 0.000000 -0.028153 0.006110
														CHANNELS 6 Xposition Yposition Zposition Xrotation Yrotation Zrotation
														End Site
														{
															OFFSET 0.018190 -0.005204 -0.004998
														}
													}
													JOINT tongue05.R
													{
														OFFSET 0.000000 -0.028153 0.006110
														CHANNELS 6 Xposition Yposition Zposition Xrotation Yrotation Zrotation
														End Site
														{
															OFFSET -0.019705 -0.005204 -0.004998
														}
													}
												}
											}
										}
										JOINT levator02.L
										{
											OFFSET 0.002639 -0.107312 0.018870
											CHANNELS 6 Xposition Yposition Zposition Xrotation Yrotation Zrotation
											JOINT levator03.L
											{
												OFFSET 0.017515 0.009000 -0.009260
												CHANNELS 6 Xposition Yposition Zposition Xrotation Yrotation Zrotation
												JOINT levator04.L
												{
													OFFSET 0.007499 0.002100 -0.017480
													CHANNELS 6 Xposition Yposition Zposition Xrotation Yrotation Zrotation
													JOINT levator05.L
													{
														OFFSET 0.000375 0.007530 -0.012510
														CHANNELS 6 Xposition Yposition Zposition Xrotation Yrotation Zrotation
														End Site
														{
															OFFSET -0.004969 0.000826 -0.006838
														}
													}
												}
											}
										}
										JOINT levator02.R
										{
											OFFSET -0.002561 -0.107292 0.018870
											CHANNELS 6 Xposition Yposition Zposition Xrotation Yrotation Zrotation
											JOINT levator03.R
											{
												OFFSET -0.018107 0.009000 -0.009470
												CHANNELS 6 Xposition Yposition Zposition Xrotation Yrotation Zrotation
												JOINT levator04.R
												{
													OFFSET -0.007373 0.001950 -0.017540
													CHANNELS 6 Xposition Yposition Zposition Xrotation Yrotation Zrotation
													JOINT levator05.R
													{
														OFFSET -0.001135 0.007570 -0.012480
														CHANNELS 6 Xposition Yposition Zposition Xrotation Yrotation Zrotation
														End Site
														{
															OFFSET 0.004769 0.000775 -0.006961
														}
													}
												}
											}
										}
										JOINT special01
										{
											OFFSET -0.000036 0.081735 0.006050
											CHANNELS 6 Xposition Yposition Zposition Xrotation Yrotation Zrotation
											JOINT oris04.L
											{
												OFFSET -0.000249 -0.191837 -0.019210
												CHANNELS 6 Xposition Yposition Zposition Xrotation Yrotation Zrotation
												JOINT oris03.L
												{
													OFFSET 0.012678 0.006270 -0.003420
													CHANNELS 6 Xposition Yposition Zposition Xrotation Yrotation Zrotation
													End Site
													{
														OFFSET 0.002975 0.002498 -0.004712
													}
												}
											}
											JOINT oris04.R
											{
												OFFSET -0.000249 -0.191837 -0.019210
												CHANNELS 6 Xposition Yposition Zposition Xrotation Yrotation Zrotation
												JOINT oris03.R
												{
													OFFSET -0.013351 0.006190 -0.003490
													CHANNELS 6 Xposition Yposition Zposition Xrotation Yrotation Zrotation
													End Site
													{
														OFFSET -0.003199 0.002425 -0.004782
													}
												}
											}
											JOINT oris06
											{
												OFFSET -0.000249 -0.191837 -0.019210
												CHANNELS 6 Xposition Yposition Zposition Xrotation Yrotation Zrotation
												JOINT oris05
												{
													OFFSET -0.000215 0.000330 -0.004290
													CHANNELS 6 Xposition Yposition Zposition Xrotation Yrotation Zrotation
													End Site
													{
														OFFSET -0.000229 0.002215 -0.005632
													}
												}
											}
										}
										JOINT special03
										{
											OFFSET 0.000000 -0.013298 0.007910
											CHANNELS 6 Xposition Yposition Zposition Xrotation Yrotation Zrotation
											JOINT levator06.L
											{
												OFFSET 0.006279 -0.104384 -0.012680
												CHANNELS 6 Xposition Yposition Zposition Xrotation Yrotation Zrotation
												End Site
												{
													OFFSET 0.010272 0.016991 0.008700
												}
											}
											JOINT levator06.R
											{
												OFFSET -0.006178 -0.104384 -0.012680
												CHANNELS 6 Xposition Yposition Zposition Xrotation Yrotation Zrotation
												End Site
												{
													OFFSET -0.011009 0.016851 0.008246
												}
											}
										}
										JOINT special06.L
										{
											OFFSET 0.000000 -0.000193 0.152010
											CHANNELS 6 Xposition Yposition Zposition Xrotation Yrotation Zrotation
											JOINT special05.L
											{
												OFFSET 0.017777 -0.065899 -0.026490
												CHANNELS 6 Xposition Yposition Zposition Xrotation Yrotation Zrotation
												JOINT eye.L
												{
													OFFSET 0.011938 -0.011770 -0.088750
													CHANNELS 6 Xposition Yposition Zposition Xrotation Yrotation Zrotation
													End Site
													{
														OFFSET 0.001803 -0.037920 -0.003302
													}
												}
												JOINT orbicularis03.L
												{
													OFFSET 0.011938 -0.011770 -0.088750
													CHANNELS 6 Xposition Yposition Zposition Xrotation Yrotation Zrotation
													End Site
													{
														OFFSET 0.001709 -0.036100 0.006771
													}
												}
												JOINT orbicularis04.L
												{
													OFFSET 0.011938 -0.011770 -0.088750
													CHANNELS 6 Xposition Yposition Zposition Xrotation Yrotation Zrotation
													End Site
													{
														OFFSET 0.001820 -0.037069 -0.009522
													}
												}
											}
										}
										JOINT special06.R
										{
											OFFSET 0.000000 -0.000193 0.152010
											CHANNELS 6 Xposition Yposition Zposition Xrotation Yrotation Zrotation
											JOINT special05.R
											{
												OFFSET -0.017778 -0.065899 -0.026490
												CHANNELS 6 Xposition Yposition Zposition Xrotation Yrotation Zrotation
												JOINT eye.R
												{
													OFFSET -0.012219 -0.011770 -0.088660
													CHANNELS 6 Xposition Yposition Zposition Xrotation Yrotation Zrotation
													End Site
													{
														OFFSET -0.001803 -0.037920 -0.003302
													}
												}
												JOINT orbicularis03.R
												{
													OFFSET -0.012219 -0.011770 -0.088660
													CHANNELS 6 Xposition Yposition Zposition Xrotation Yrotation Zrotation
													End Site
													{
														OFFSET -0.001709 -0.036161 0.006457
													}
												}
												JOINT orbicularis04.R
												{
													OFFSET -0.012219 -0.011770 -0.088660
													CHANNELS 6 Xposition Yposition Zposition Xrotation Yrotation Zrotation
													End Site
													{
														OFFSET -0.001820 -0.036951 -0.009997
													}
												}
											}
										}
										JOINT temporalis01.L
										{
											OFFSET 0.059879 -0.061642 0.044000
											CHANNELS 6 Xposition Yposition Zposition Xrotation Yrotation Zrotation
											JOINT oculi02.L
											{
												OFFSET -0.007308 -0.017780 -0.001680
												CHANNELS 6 Xposition Yposition Zposition Xrotation Yrotation Zrotation
												JOINT oculi01.L
												{
													OFFSET -0.020464 -0.020400 0.015670
													CHANNELS 6 Xposition Yposition Zposition Xrotation Yrotation Zrotation
													End Site
													{
														OFFSET -0.017252 -0.004142 0.001212
													}
												}
											}
										}
										JOINT temporalis01.R
										{
											OFFSET -0.059886 -0.061562 0.043980
											CHANNELS 6 Xposition Yposition Zposition Xrotation Yrotation Zrotation
											JOINT oculi02.R
											{
												OFFSET 0.007224 -0.017840 -0.001640
												CHANNELS 6 Xposition Yposition Zposition Xrotation Yrotation Zrotation
												JOINT oculi01.R
												{
													OFFSET 0.020105 -0.020280 0.016330
													CHANNELS 6 Xposition Yposition Zposition Xrotation Yrotation Zrotation
													End Site
													{
														OFFSET 0.017414 -0.004250 0.001260
													}
												}
											}
										}
										JOINT temporalis02.L
										{
											OFFSET 0.063509 -0.059872 0.022530
											CHANNELS 6 Xposition Yposition Zposition Xrotation Yrotation Zrotation
											JOINT risorius02.L
											{
												OFFSET -0.010936 -0.017240 0.005490
												CHANNELS 6 Xposition Yposition Zposition Xrotation Yrotation Zrotation
												JOINT risorius03.L
												{
													OFFSET -0.003896 -0.007710 -0.026410
													CHANNELS 6 Xposition Yposition Zposition Xrotation Yrotation Zrotation
													End Site
													{
														OFFSET 0.004700 0.018340 -0.027839
													}
												}
											}
										}
										JOINT temporalis02.R
										{
											OFFSET -0.063507 -0.059602 0.022670
											CHANNELS 6 Xposition Yposition Zposition Xrotation Yrotation Zrotation
											JOINT risorius02.R
											{
												OFFSET 0.010954 -0.017530 0.005530
												CHANNELS 6 Xposition Yposition Zposition Xrotation Yrotation Zrotation
												JOINT risorius03.R
												{
													OFFSET 0.004342 -0.007690 -0.026150
													CHANNELS 6 Xposition Yposition Zposition Xrotation Yrotation Zrotation
													End Site
													{
														OFFSET -0.004830 0.018108 -0.028201
													}
												}
											}
										}
									}
								}
							}
						}
					}
				}
			}
		}
	}
	JOINT pelvis.L
	{
		OFFSET 0.000000 -0.067552 0.019329
		CHANNELS 6 Xposition Yposition Zposition Xrotation Yrotation Zrotation
		JOINT upperleg01.L
		{
			OFFSET 0.110215 0.010256 -0.020202
			CHANNELS 6 Xposition Yposition Zposition Xrotation Yrotation Zrotation
			JOINT upperleg02.L
			{
				OFFSET -0.012552 -0.024332 -0.068784
				CHANNELS 6 Xposition Yposition Zposition Xrotation Yrotation Zrotation
				JOINT lowerleg01.L
				{
					OFFSET 0.055012 -0.014055 -0.344112
					CHANNELS 6 Xposition Yposition Zposition Xrotation Yrotation Zrotation
					JOINT lowerleg02.L
					{
						OFFSET 0.018050 0.007377 -0.201570
						CHANNELS 6 Xposition Yposition Zposition Xrotation Yrotation Zrotation
						JOINT foot.L
						{
							OFFSET 0.018060 0.007377 -0.201570
							CHANNELS 6 Xposition Yposition Zposition Xrotation Yrotation Zrotation
							JOINT toe1-1.L
							{
								OFFSET -0.032160 -0.154204 -0.043300
								CHANNELS 6 Xposition Yposition Zposition Xrotation Yrotation Zrotation
								JOINT toe1-2.L
								{
									OFFSET 0.002490 -0.028610 -0.008200
									CHANNELS 6 Xposition Yposition Zposition Xrotation Yrotation Zrotation
									End Site
									{
										OFFSET 0.004620 -0.032049 -0.011303
									}
								}
							}
							JOINT toe2-1.L
							{
								OFFSET -0.005150 -0.157184 -0.046980
								CHANNELS 6 Xposition Yposition Zposition Xrotation Yrotation Zrotation
								JOINT toe2-2.L
								{
									OFFSET 0.001880 -0.023800 -0.004560
									CHANNELS 6 Xposition Yposition Zposition Xrotation Yrotation Zrotation
									JOINT toe2-3.L
									{
										OFFSET 0.000390 -0.014830 -0.004960
										CHANNELS 6 Xposition Yposition Zposition Xrotation Yrotation Zrotation
										End Site
										{
											OFFSET 0.000897 -0.018889 -0.007483
										}
									}
								}
							}
							JOINT toe3-1.L
							{
								OFFSET 0.013940 -0.154054 -0.049820
								CHANNELS 6 Xposition Yposition Zposition Xrotation Yrotation Zrotation
								JOINT toe3-2.L
								{
									OFFSET 0.000980 -0.021730 -0.003860
									CHANNELS 6 Xposition Yposition Zposition Xrotation Yrotation Zrotation
									JOINT toe3-3.L
									{
										OFFSET -0.000170 -0.013710 -0.004070
										CHANNELS 6 Xposition Yposition Zposition Xrotation Yrotation Zrotation
										End Site
										{
											OFFSET -0.000013 -0.014592 -0.004713
										}
									}
								}
							}
							JOINT toe4-1.L
							{
								OFFSET 0.031080 -0.145494 -0.050780
								CHANNELS 6 Xposition Yposition Zposition Xrotation Yrotation Zrotation
								JOINT toe4-2.L
								{
									OFFSET 0.000720 -0.017180 -0.003840
									CHANNELS 6 Xposition Yposition Zposition Xrotation Yrotation Zrotation
									JOINT toe4-3.L
									{
										OFFSET -0.001080 -0.013350 -0.002990
										CHANNELS 6 Xposition Yposition Zposition Xrotation Yrotation Zrotation
										End Site
										{
											OFFSET 0.000791 -0.011892 -0.005905
										}
									}
								}
							}
							JOINT toe5-1.L
							{
								OFFSET 0.047270 -0.140294 -0.051970
								CHANNELS 6 Xposition Yposition Zposition Xrotation Yrotation Zrotation
								JOINT toe5-2.L
								{
									OFFSET 0.000180 -0.012410 -0.003100
									CHANNELS 6 Xposition Yposition Zposition Xrotation Yrotation Zrotation
									JOINT toe5-3.L
									{
										OFFSET -0.001430 -0.009090 -0.003120
										CHANNELS 6 Xposition Yposition Zposition Xrotation Yrotation Zrotation
										End Site
										{
											OFFSET 0.000024 -0.012369 -0.006591
										}
									}
								}
							}
						}
					}
				}
			}
		}
	}
	JOINT pelvis.R
	{
		OFFSET 0.000000 -0.067552 0.019329
		CHANNELS 6 Xposition Yposition Zposition Xrotation Yrotation Zrotation
		JOINT upperleg01.R
		{
			OFFSET -0.110245 0.010256 -0.020201
			CHANNELS 6 Xposition Yposition Zposition Xrotation Yrotation Zrotation
			JOINT upperleg02.R
			{
				OFFSET 0.012141 -0.024291 -0.068720
				CHANNELS 6 Xposition Yposition Zposition Xrotation Yrotation Zrotation
				JOINT lowerleg01.R
				{
					OFFSET -0.058301 -0.014057 -0.344857
					CHANNELS 6 Xposition Yposition Zposition Xrotation Yrotation Zrotation
					JOINT lowerleg02.R
					{
						OFFSET -0.018880 0.009582 -0.201970
						CHANNELS 6 Xposition Yposition Zposition Xrotation Yrotation Zrotation
						JOINT foot.R
						{
							OFFSET -0.018880 0.009582 -0.201980
							CHANNELS 6 Xposition Yposition Zposition Xrotation Yrotation Zrotation
							JOINT toe1-1.R
							{
								OFFSET 0.031530 -0.151353 -0.042130
								CHANNELS 6 Xposition Yposition Zposition Xrotation Yrotation Zrotation
								JOINT toe1-2.R
								{
									OFFSET -0.002450 -0.028060 -0.008200
									CHANNELS 6 Xposition Yposition Zposition Xrotation Yrotation Zrotation
									End Site
									{
										OFFSET -0.004532 -0.031420 -0.011301
									}
								}
							}
							JOINT toe2-1.R
							{
								OFFSET 0.005020 -0.154273 -0.045810
								CHANNELS 6 Xposition Yposition Zposition Xrotation Yrotation Zrotation
								JOINT toe2-2.R
								{
									OFFSET -0.001840 -0.023340 -0.004560
									CHANNELS 6 Xposition Yposition Zposition Xrotation Yrotation Zrotation
									JOINT toe2-3.R
									{
										OFFSET -0.000390 -0.014540 -0.004960
										CHANNELS 6 Xposition Yposition Zposition Xrotation Yrotation Zrotation
										End Site
										{
											OFFSET -0.000880 -0.018528 -0.007484
										}
									}
								}
							}
							JOINT toe3-1.R
							{
								OFFSET -0.013700 -0.151203 -0.048660
								CHANNELS 6 Xposition Yposition Zposition Xrotation Yrotation Zrotation
								JOINT toe3-2.R
								{
									OFFSET -0.000980 -0.021310 -0.003850
									CHANNELS 6 Xposition Yposition Zposition Xrotation Yrotation Zrotation
									JOINT toe3-3.R
									{
										OFFSET 0.000170 -0.013440 -0.004080
										CHANNELS 6 Xposition Yposition Zposition Xrotation Yrotation Zrotation
										End Site
										{
											OFFSET 0.000016 -0.014318 -0.004716
										}
									}
								}
							}
							JOINT toe4-1.R
							{
								OFFSET -0.030520 -0.142813 -0.049610
								CHANNELS 6 Xposition Yposition Zposition Xrotation Yrotation Zrotation
								JOINT toe4-2.R
								{
									OFFSET -0.000720 -0.016860 -0.003850
									CHANNELS 6 Xposition Yposition Zposition Xrotation Yrotation Zrotation
									JOINT toe4-3.R
									{
										OFFSET 0.001060 -0.013080 -0.002990
										CHANNELS 6 Xposition Yposition Zposition Xrotation Yrotation Zrotation
										End Site
										{
											OFFSET -0.000776 -0.011658 -0.005904
										}
									}
								}
							}
							JOINT toe5-1.R
							{
								OFFSET -0.046410 -0.137703 -0.050810
								CHANNELS 6 Xposition Yposition Zposition Xrotation Yrotation Zrotation
								JOINT toe5-2.R
								{
									OFFSET -0.000170 -0.012160 -0.003100
									CHANNELS 6 Xposition Yposition Zposition Xrotation Yrotation Zrotation
									JOINT toe5-3.R
									{
										OFFSET 0.001390 -0.008920 -0.003120
										CHANNELS 6 Xposition Yposition Zposition Xrotation Yrotation Zrotation
										End Site
										{
											OFFSET -0.000024 -0.012130 -0.006590
										}
									}
								}
							}
						}
					}
				}
			}
		}
	}
}
MOTION
Frames: 1
Frame Time: 0.041667
0.0 0.0 0.0 -0.000000 0.000000 -0.000000 -0.000000 -0.067552 0.019329 0.000002 0.000000 -0.000000 -0.000002 0.033916 0.083232 0.000001 -0.000000 -0.000000 -0.001153 -0.016596 0.071750 -0.000000 -0.000000 -0.000000 -0.000000 0.016328 0.063820 0.000000 -0.000000 0.000000 0.002404 0.008331 0.126750 0.000001 -0.000000 0.000000 0.002404 0.008331 0.126750 0.000001 0.000000 0.000000 0.002404 0.008331 0.126750 -0.000000 -0.000000 0.000000 0.021829 -0.074219 0.123570 0.000000 0.000000 -0.000000 0.080037 0.004981 0.019210 -0.000000 0.000001 -0.000000 0.066590 0.005948 -0.043560 7.004215 -44.758308 9.897716 0.049350 0.000818 -0.049470 0.000001 -0.000001 -0.000001 0.113660 -0.008212 -0.129140 14.014729 1.719475 13.921272 0.058860 -0.082576 -0.056840 -0.000003 -0.000006 0.000003 0.058870 -0.082580 -0.056840 0.000002 0.000003 -0.000002 0.001800 -0.042290 -0.005270 10.760570 -2.229690 6.918539 -0.020330 -0.019940 -0.007550 -0.157793 -34.254775 -1.979060 -0.012540 -0.032270 -0.012730 6.737959 -29.847066 4.365799 0.011000 -0.025550 -0.013580 -0.277267 -11.579763 6.630075 0.015780 -0.065360 -0.021060 23.136904 17.591429 -15.239957 0.003930 -0.022450 -0.015160 26.933108 18.143909 -25.838821 -0.000580 -0.017610 -0.016780 54.728482 14.731579 -41.245764 0.011000 -0.025550 -0.013580 -6.057017 -11.315638 1.762945 0.031780 -0.048740 -0.031640 23.030249 14.563142 -16.273610 0.007050 -0.021300 -0.025270 37.398807 40.327243 -34.107014 0.002670 -0.018110 -0.021560 42.932954 21.652108 -43.477805 0.022080 -0.016010 -0.028280 -7.065392 -11.219987 0.914936 0.027460 -0.041900 -0.024990 17.195775 14.536627 -12.118035 0.009550 -0.015430 -0.024660 26.308775 40.300705 -24.477250 0.004020 -0.012580 -0.019310 51.796528 44.859552 -54.116805 0.022080 -0.016010 -0.028280 -7.127517 -13.853282 2.208419 0.028570 -0.023610 -0.034160 9.068661 14.132350 -25.356695 0.006610 -0.008500 -0.018970 8.801761 38.287209 -17.903010 0.001950 -0.006360 -0.014530 31.435235 63.306524 -34.043995 -0.021830 -0.074219 0.123570 0.000000 0.000000 -0.000000 -0.080039 0.004981 0.019210 0.000000 0.000003 -0.000000 -0.066585 0.005948 -0.043560 6.843435 44.794556 -9.721961 -0.049440 0.000853 -0.049440 0.000000 -0.000002 -0.000001 -0.110350 -0.008248 -0.125090 14.007253 -1.661688 -13.942666 -0.058920 -0.082715 -0.057120 0.000001 0.000000 0.000004 -0.058920 -0.082710 -0.057110 -0.000001 0.000002 0.000001 -0.001960 -0.041940 -0.005190 10.865016 2.330586 -6.724476 0.020210 -0.019700 -0.007530 -0.369346 34.241712 2.246640 0.011840 -0.029550 -0.011630 6.784680 29.897613 -3.524955 -0.011030 -0.025430 -0.013400 -0.104848 11.563432 -6.680814 -0.015730 -0.064680 -0.020970 23.021506 -17.439597 15.627644 -0.003130 -0.019820 -0.013410 26.589896 -18.099800 26.219775 0.000730 -0.015640 -0.014790 54.342751 -14.786031 41.832815 -0.011030 -0.025430 -0.013400 -5.953089 11.345351 -1.888009 -0.031550 -0.048340 -0.031400 22.817854 -14.745263 16.452276 -0.006400 -0.019860 -0.024040 37.168496 -40.382684 34.308566 -0.002030 -0.016290 -0.019580 42.480676 -21.864366 43.890635 -0.022000 -0.016050 -0.027960 -7.012576 11.241041 -0.998989 -0.027230 -0.041580 -0.024810 17.039191 -14.707030 12.144414 -0.008480 -0.013790 -0.022680 26.054947 -40.407850 24.513819 -0.003980 -0.012480 -0.019170 51.545757 -44.947726 54.289393 -0.022000 -0.016050 -0.027960 -7.209804 13.819203 -2.164575 -0.028300 -0.023540 -0.033960 8.950573 -14.380325 25.260563 -0.005690 -0.007560 -0.017320 9.022088 -38.319820 17.779155 -0.001530 -0.005720 -0.013250 32.097678 -63.171573 34.103510 0.000000 -0.058736 0.198800 0.000001 0.000000 0.000000 -0.000137 0.003345 0.041040 -0.000000 0.000000 0.000000 -0.000004 -0.009012 0.033790 0.000000 0.000000 -0.000000 0.000091 -0.020295 0.031020 0.000000 0.000000 -0.000000 0.000000 -0.013298 0.007910 -0.000000 -0.000000 -0.000000 -0.000007 -0.053974 -0.088660 -0.000000 0.000000 0.000000 0.000007 -0.015670 0.029110 -0.000002 0.000000 0.000000 -0.000652 -0.012750 0.009720 -0.000002 0.000000 0.000001 0.000007 -0.015670 0.029110 0.000002 -0.000003 0.000001 0.011831 -0.010050 0.004210 0.000002 -0.000002 -0.000000 0.000007 -0.015670 0.029110 0.000002 0.000000 -0.000001 -0.012090 -0.010120 0.003930 0.000002 0.000001 -0.000001 -0.000007 -0.053974 -0.088660 0.000003 -0.000000 -0.000000 0.000007 0.042586 0.047750 0.000001 -0.000000 -0.000000 -0.000000 -0.028153 0.006110 -0.000000 -0.000000 -0.000000 -0.000000 -0.020543 0.000020 -0.000001 -0.000000 -0.000000 -0.000000 -0.010090 -0.004150 -0.000001 -0.000000 -0.000000 0.000000 -0.010090 -0.004150 -0.000003 0.000001 0.000000 -0.000000 -0.010090 -0.004150 0.000000 -0.000000 -0.000001 0.000000 -0.020543 0.000020 -0.000000 -0.000000 0.000000 0.000000 -0.020543 0.000020 -0.000000 0.000000 -0.000000 0.000000 -0.028153 0.006110 -0.000002 0.000002 -0.000001 -0.000000 -0.028153 0.006110 0.000000 0.000000 0.000000 0.002639 -0.107312 0.018870 0.000002 -0.000002 0.000001 0.017515 0.009000 -0.009260 0.000002 -0.000001 0.000001 0.007499 0.002100 -0.017480 -0.000004 0.000001 0.000001 0.000375 0.007530 -0.012510 -0.000003 0.000001 0.000000 -0.002561 -0.107292 0.018870 -0.000000 -0.000000 -0.000000 -0.018107 0.009000 -0.009470 -0.000000 0.000000 0.000001 -0.007373 0.001950 -0.017540 0.000002 -0.000000 -0.000001 -0.001135 0.007570 -0.012480 0.000002 0.000001 -0.000002 -0.000036 0.081735 0.006050 -0.000000 0.000000 0.000000 -0.000249 -0.191837 -0.019210 -0.000000 0.000001 0.000001 0.012678 0.006270 -0.003420 -0.000000 0.000001 0.000001 -0.000249 -0.191837 -0.019210 0.000000 0.000001 -0.000000 -0.013351 0.006190 -0.003490 -0.000002 0.000001 0.000001 -0.000249 -0.191837 -0.019210 -0.000000 0.000000 0.000000 -0.000215 0.000330 -0.004290 -0.000001 0.000000 0.000000 -0.000000 -0.013298 0.007910 -0.000000 -0.000000 0.000000 0.006279 -0.104384 -0.012680 -0.000001 -0.000003 -0.000000 -0.006178 -0.104384 -0.012680 -0.000001 0.000000 -0.000002 -0.000000 -0.000193 0.152010 0.000001 0.000000 0.000001 0.017777 -0.065899 -0.026490 0.000001 0.000000 0.000002 0.011938 -0.011770 -0.088750 -0.000000 0.000000 0.000001 0.011938 -0.011770 -0.088750 0.000001 0.000000 0.000001 0.011938 -0.011770 -0.088750 0.000001 0.000000 0.000001 0.000000 -0.000193 0.152010 -0.000001 -0.000000 0.000000 -0.017778 -0.065899 -0.026490 -0.000002 0.000000 0.000001 -0.012219 -0.011770 -0.088660 -0.000001 0.000000 0.000001 -0.012219 -0.011770 -0.088660 -0.000001 0.000000 0.000001 -0.012219 -0.011770 -0.088660 -0.000000 0.000000 0.000001 0.059879 -0.061642 0.044000 0.000000 -0.000001 0.000001 -0.007308 -0.017780 -0.001680 0.000003 0.000000 -0.000000 -0.020464 -0.020400 0.015670 0.000003 0.000002 -0.000003 -0.059886 -0.061562 0.043980 -0.000000 -0.000000 -0.000000 0.007224 -0.017840 -0.001640 0.000002 -0.000003 -0.000000 0.020105 -0.020280 0.016330 0.000001 -0.000002 0.000000 0.063509 -0.059872 0.022530 0.000000 0.000000 -0.000002 -0.010936 -0.017240 0.005490 0.000001 -0.000000 -0.000003 -0.003896 -0.007710 -0.026410 -0.000001 -0.000000 -0.000003 -0.063507 -0.059602 0.022670 0.000000 0.000000 0.000000 0.010954 -0.017530 0.005530 -0.000000 -0.000001 -0.000001 0.004342 -0.007690 -0.026150 0.000001 -0.000000 -0.000002 -0.000000 -0.067552 0.019329 0.000000 -0.000000 0.000001 0.110215 0.010256 -0.020202 0.000000 -0.000001 0.000001 -0.012552 -0.024332 -0.068784 0.000000 -0.000000 0.000000 0.055012 -0.014055 -0.344112 -0.000000 -0.000000 0.000000 0.018050 0.007377 -0.201570 -0.000000 0.000000 0.000000 0.018060 0.007377 -0.201570 -0.000001 0.000000 0.000000 -0.032160 -0.154204 -0.043300 0.000002 -0.000000 -0.000000 0.002490 -0.028610 -0.008200 0.000002 0.000000 -0.000001 -0.005150 -0.157184 -0.046980 -0.000002 -0.000000 -0.000000 0.001880 -0.023800 -0.004560 0.000001 -0.000001 -0.000000 0.000390 -0.014830 -0.004960 0.000001 -0.000001 -0.000000 0.013940 -0.154054 -0.049820 0.000000 0.000000 0.000000 0.000980 -0.021730 -0.003860 0.000002 0.000001 -0.000000 -0.000170 -0.013710 -0.004070 0.000001 0.000001 0.000000 0.031080 -0.145494 -0.050780 -0.000001 -0.000001 0.000000 0.000720 -0.017180 -0.003840 0.000001 -0.000000 0.000000 -0.001080 -0.013350 -0.002990 0.000002 -0.000000 0.000000 0.047270 -0.140294 -0.051970 -0.000001 -0.000000 0.000000 0.000180 -0.012410 -0.003100 0.000001 -0.000001 0.000000 -0.001430 -0.009090 -0.003120 0.000002 -0.000000 0.000000 0.000000 -0.067552 0.019329 -0.000002 0.000000 -0.000000 -0.110245 0.010256 -0.020201 -0.000003 -0.000001 -0.000000 0.012141 -0.024291 -0.068720 -0.000001 0.000000 0.000000 -0.058301 -0.014057 -0.344857 0.000000 0.000001 -0.000000 -0.018880 0.009582 -0.201970 -0.000000 -0.000001 -0.000000 -0.018880 0.009582 -0.201980 -0.000001 -0.000001 0.000000 0.031530 -0.151353 -0.042130 -0.000001 -0.000000 -0.000000 -0.002450 -0.028060 -0.008200 -0.000000 0.000000 -0.000000 0.005020 -0.154273 -0.045810 -0.000002 -0.000001 0.000000 -0.001840 -0.023340 -0.004560 -0.000000 -0.000001 0.000000 -0.000390 -0.014540 -0.004960 0.000001 -0.000000 0.000000 -0.013700 -0.151203 -0.048660 -0.000002 -0.000000 0.000000 -0.000980 -0.021310 -0.003850 -0.000001 0.000000 -0.000000 0.000170 -0.013440 -0.004080 -0.000002 0.000000 -0.000000 -0.030520 -0.142813 -0.049610 -0.000001 -0.000000 0.000000 -0.000720 -0.016860 -0.003850 0.000001 0.000001 -0.000000 0.001060 -0.013080 -0.002990 -0.000001 0.000000 -0.000000 -0.046410 -0.137703 -0.050810 -0.000001 -0.000001 0.000000 -0.000170 -0.012160 -0.003100 -0.000004 -0.000001 -0.000001 0.001390 -0.008920 -0.003120 -0.000001 -0.000001 -0.000001 
