HIERARCHY
ROOT root
{
	OFFSET 0.000000 0.540890 9.218400
	CHANNELS 6 Xposition Yposition Zposition Xrotation Yrotation Zrotation
	JOINT spine05
	{
		OFFSET 0.000000 -0.761950 0.011700
		CHANNELS 6 Xposition Yposition Zposition Xrotation Yrotation Zrotation
		JOINT spine04
		{
			OFFSET 0.000000 0.430790 0.542500
			CHANNELS 6 Xposition Yposition Zposition Xrotation Yrotation Zrotation
			JOINT spine03
			{
				OFFSET 0.000000 -0.150328 0.576599
				CHANNELS 6 Xposition Yposition Zposition Xrotation Yrotation Zrotation
				JOINT spine02
				{
					OFFSET 0.000000 -0.131088 0.880100
					CHANNELS 6 Xposition Yposition Zposition Xrotation Yrotation Zrotation
					JOINT breast.L
					{
						OFFSET 0.000000 0.048117 1.640700
						CHANNELS 6 Xposition Yposition Zposition Xrotation Yrotation Zrotation
						End Site
						{
							OFFSET 1.104732 -1.744812 -0.363645
						}
					}
					JOINT breast.R
					{
						OFFSET 0.000000 0.048117 1.640700
						CHANNELS 6 Xposition Yposition Zposition Xrotation Yrotation Zrotation
						End Site
						{
							OFFSET -1.104732 -1.744812 -0.363645
						}
					}
					JOINT spine01
					{
						OFFSET 0.000000 0.048117 1.640700
						CHANNELS 6 Xposition Yposition Zposition Xrotation Yrotation Zrotation
						JOINT clavicle.L
						{
							OFFSET 0.264200 -0.215081 0.848900
							CHANNELS 6 Xposition Yposition Zposition Xrotation Yrotation Zrotation
							JOINT shoulder01.L
							{
								OFFSET 0.746900 -0.001850 0.217800
								CHANNELS 6 Xposition Yposition Zposition Xrotation Yrotation Zrotation
								JOINT upperarm01.L
								{
									OFFSET 0.556300 0.039250 -0.378600
									CHANNELS 6 Xposition Yposition Zposition Xrotation Yrotation Zrotation
									JOINT upperarm02.L
									{
										OFFSET 0.569300 0.022600 -0.581200
										CHANNELS 6 Xposition Yposition Zposition Xrotation Yrotation Zrotation
										JOINT lowerarm01.L
										{
											OFFSET 1.183000 -0.066570 -1.327300
											CHANNELS 6 Xposition Yposition Zposition Xrotation Yrotation Zrotation
											JOINT lowerarm02.L
											{
												OFFSET 0.594500 -0.777180 -0.642000
												CHANNELS 6 Xposition Yposition Zposition Xrotation Yrotation Zrotation
												JOINT wrist.L
												{
													OFFSET 0.594400 -0.777200 -0.642000
													CHANNELS 6 Xposition Yposition Zposition Xrotation Yrotation Zrotation
													JOINT finger1-1.L
													{
														OFFSET 0.009900 -0.398800 -0.078800
														CHANNELS 6 Xposition Yposition Zposition Xrotation Yrotation Zrotation
														JOINT finger1-2.L
														{
															OFFSET -0.191100 -0.189500 -0.082500
															CHANNELS 6 Xposition Yposition Zposition Xrotation Yrotation Zrotation
															JOINT finger1-3.L
															{
																OFFSET -0.112000 -0.279200 -0.133600
																CHANNELS 6 Xposition Yposition Zposition Xrotation Yrotation Zrotation
																End Site
																{
																	OFFSET -0.050261 -0.193666 -0.163951
																}
															}
														}
													}
													JOINT metacarpal1.L
													{
														OFFSET 0.097600 -0.234900 -0.149500
														CHANNELS 6 Xposition Yposition Zposition Xrotation Yrotation Zrotation
														JOINT finger2-1.L
														{
															OFFSET 0.157300 -0.620000 -0.240200
															CHANNELS 6 Xposition Yposition Zposition Xrotation Yrotation Zrotation
															JOINT finger2-2.L
															{
																OFFSET 0.031000 -0.185700 -0.140400
																CHANNELS 6 Xposition Yposition Zposition Xrotation Yrotation Zrotation
																JOINT finger2-3.L
																{
																	OFFSET -0.005700 -0.144600 -0.152300
																	CHANNELS 6 Xposition Yposition Zposition Xrotation Yrotation Zrotation
																	End Site
																	{
																		OFFSET -0.035263 -0.157332 -0.189463
																	}
																}
															}
														}
													}
													JOINT metacarpal2.L
													{
														OFFSET 0.097600 -0.234900 -0.149500
														CHANNELS 6 Xposition Yposition Zposition Xrotation Yrotation Zrotation
														JOINT finger3-1.L
														{
															OFFSET 0.302900 -0.452100 -0.335400
															CHANNELS 6 Xposition Yposition Zposition Xrotation Yrotation Zrotation
															JOINT finger3-2.L
															{
																OFFSET 0.067500 -0.182100 -0.241301
																CHANNELS 6 Xposition Yposition Zposition Xrotation Yrotation Zrotation
																JOINT finger3-3.L
																{
																	OFFSET 0.023500 -0.153600 -0.199900
																	CHANNELS 6 Xposition Yposition Zposition Xrotation Yrotation Zrotation
																	End Site
																	{
																		OFFSET -0.002016 -0.131520 -0.209689
																	}
																}
															}
														}
													}
													JOINT metacarpal3.L
													{
														OFFSET 0.203900 -0.136900 -0.286200
														CHANNELS 6 Xposition Yposition Zposition Xrotation Yrotation Zrotation
														JOINT finger4-1.L
														{
															OFFSET 0.263200 -0.395100 -0.266400
															CHANNELS 6 Xposition Yposition Zposition Xrotation Yrotation Zrotation
															JOINT finger4-2.L
															{
																OFFSET 0.090100 -0.124300 -0.226400
																CHANNELS 6 Xposition Yposition Zposition Xrotation Yrotation Zrotation
																JOINT finger4-3.L
																{
																	OFFSET 0.037400 -0.110600 -0.192499
																	CHANNELS 6 Xposition Yposition Zposition Xrotation Yrotation Zrotation
																	End Site
																	{
																		OFFSET 0.020782 -0.096903 -0.223831
																	}
																}
															}
														}
													}
													JOINT metacarpal4.L
													{
														OFFSET 0.203900 -0.136900 -0.286200
														CHANNELS 6 Xposition Yposition Zposition Xrotation Yrotation Zrotation
														JOINT finger5-1.L
														{
															OFFSET 0.281100 -0.217700 -0.341701
															CHANNELS 6 Xposition Yposition Zposition Xrotation Yrotation Zrotation
															JOINT finger5-2.L
															{
																OFFSET 0.055100 -0.063300 -0.175400
																CHANNELS 6 Xposition Yposition Zposition Xrotation Yrotation Zrotation
																JOINT finger5-3.L
																{
																	OFFSET 0.016600 -0.049900 -0.133300
																	CHANNELS 6 Xposition Yposition Zposition Xrotation Yrotation Zrotation
																	End Site
																	{
																		OFFSET 0.021685 -0.058725 -0.169192
																	}
																}
															}
														}
													}
												}
											}
										}
									}
								}
							}
						}
						JOINT clavicle.R
						{
							OFFSET -0.264200 -0.215081 0.848900
							CHANNELS 6 Xposition Yposition Zposition Xrotation Yrotation Zrotation
							JOINT shoulder01.R
							{
								OFFSET -0.746900 -0.001850 0.217800
								CHANNELS 6 Xposition Yposition Zposition Xrotation Yrotation Zrotation
								JOINT upperarm01.R
								{
									OFFSET -0.556300 0.039250 -0.378600
									CHANNELS 6 Xposition Yposition Zposition Xrotation Yrotation Zrotation
									JOINT upperarm02.R
									{
										OFFSET -0.529100 0.014780 -0.580999
										CHANNELS 6 Xposition Yposition Zposition Xrotation Yrotation Zrotation
										JOINT lowerarm01.R
										{
											OFFSET -1.223200 -0.058750 -1.327500
											CHANNELS 6 Xposition Yposition Zposition Xrotation Yrotation Zrotation
											JOINT lowerarm02.R
											{
												OFFSET -0.594500 -0.777180 -0.642000
												CHANNELS 6 Xposition Yposition Zposition Xrotation Yrotation Zrotation
												JOINT wrist.R
												{
													OFFSET -0.594400 -0.777200 -0.642000
													CHANNELS 6 Xposition Yposition Zposition Xrotation Yrotation Zrotation
													JOINT finger1-1.R
													{
														OFFSET -0.009900 -0.398800 -0.078800
														CHANNELS 6 Xposition Yposition Zposition Xrotation Yrotation Zrotation
														JOINT finger1-2.R
														{
															OFFSET 0.191100 -0.189500 -0.082500
															CHANNELS 6 Xposition Yposition Zposition Xrotation Yrotation Zrotation
															JOINT finger1-3.R
															{
																OFFSET 0.112000 -0.279200 -0.133600
																CHANNELS 6 Xposition Yposition Zposition Xrotation Yrotation Zrotation
																End Site
																{
																	OFFSET 0.050261 -0.193666 -0.163951
																}
															}
														}
													}
													JOINT metacarpal1.R
													{
														OFFSET -0.097600 -0.234900 -0.149500
														CHANNELS 6 Xposition Yposition Zposition Xrotation Yrotation Zrotation
														JOINT finger2-1.R
														{
															OFFSET -0.157300 -0.620000 -0.240200
															CHANNELS 6 Xposition Yposition Zposition Xrotation Yrotation Zrotation
															JOINT finger2-2.R
															{
																OFFSET -0.031000 -0.185700 -0.140400
																CHANNELS 6 Xposition Yposition Zposition Xrotation Yrotation Zrotation
																JOINT finger2-3.R
																{
																	OFFSET 0.005700 -0.144600 -0.152300
																	CHANNELS 6 Xposition Yposition Zposition Xrotation Yrotation Zrotation
																	End Site
																	{
																		OFFSET 0.035263 -0.157332 -0.189463
																	}
																}
															}
														}
													}
													JOINT metacarpal2.R
													{
														OFFSET -0.097600 -0.234900 -0.149500
														CHANNELS 6 Xposition Yposition Zposition Xrotation Yrotation Zrotation
														JOINT finger3-1.R
														{
															OFFSET -0.302900 -0.452100 -0.335400
															CHANNELS 6 Xposition Yposition Zposition Xrotation Yrotation Zrotation
															JOINT finger3-2.R
															{
																OFFSET -0.067500 -0.182100 -0.241301
																CHANNELS 6 Xposition Yposition Zposition Xrotation Yrotation Zrotation
																JOINT finger3-3.R
																{
																	OFFSET -0.023500 -0.153600 -0.199900
																	CHANNELS 6 Xposition Yposition Zposition Xrotation Yrotation Zrotation
																	End Site
																	{
																		OFFSET 0.002016 -0.131520 -0.209689
																	}
																}
															}
														}
													}
													JOINT metacarpal3.R
													{
														OFFSET -0.203900 -0.136900 -0.286200
														CHANNELS 6 Xposition Yposition Zposition Xrotation Yrotation Zrotation
														JOINT finger4-1.R
														{
															OFFSET -0.263200 -0.395100 -0.266400
															CHANNELS 6 Xposition Yposition Zposition Xrotation Yrotation Zrotation
															JOINT finger4-2.R
															{
																OFFSET -0.090100 -0.124300 -0.226400
																CHANNELS 6 Xposition Yposition Zposition Xrotation Yrotation Zrotation
																JOINT finger4-3.R
																{
																	OFFSET -0.037400 -0.110600 -0.192499
																	CHANNELS 6 Xposition Yposition Zposition Xrotation Yrotation Zrotation
																	End Site
																	{
																		OFFSET -0.020782 -0.096903 -0.223831
																	}
																}
															}
														}
													}
													JOINT metacarpal4.R
													{
														OFFSET -0.203900 -0.136900 -0.286200
														CHANNELS 6 Xposition Yposition Zposition Xrotation Yrotation Zrotation
														JOINT finger5-1.R
														{
															OFFSET -0.281100 -0.217700 -0.341701
															CHANNELS 6 Xposition Yposition Zposition Xrotation Yrotation Zrotation
															JOINT finger5-2.R
															{
																OFFSET -0.055100 -0.063300 -0.175300
																CHANNELS 6 Xposition Yposition Zposition Xrotation Yrotation Zrotation
																JOINT finger5-3.R
																{
																	OFFSET -0.016600 -0.049900 -0.133400
																	CHANNELS 6 Xposition Yposition Zposition Xrotation Yrotation Zrotation
																	End Site
																	{
																		OFFSET -0.021685 -0.058725 -0.169192
																	}
																}
															}
														}
													}
												}
											}
										}
									}
								}
							}
						}
						JOINT neck01
						{
							OFFSET 0.000000 0.017617 1.593200
							CHANNELS 6 Xposition Yposition Zposition Xrotation Yrotation Zrotation
							JOINT neck02
							{
								OFFSET 0.000000 -0.092369 0.410800
								CHANNELS 6 Xposition Yposition Zposition Xrotation Yrotation Zrotation
								JOINT neck03
								{
									OFFSET 0.000000 0.027396 0.465700
									CHANNELS 6 Xposition Yposition Zposition Xrotation Yrotation Zrotation
									JOINT head
									{
										OFFSET 0.000000 -0.309455 0.221100
										CHANNELS 6 Xposition Yposition Zposition Xrotation Yrotation Zrotation
										JOINT jaw
										{
											OFFSET 0.000000 -0.194590 -0.016700
											CHANNELS 6 Xposition Yposition Zposition Xrotation Yrotation Zrotation
											JOINT special04
											{
												OFFSET 0.000000 -0.462330 -0.650400
												CHANNELS 6 Xposition Yposition Zposition Xrotation Yrotation Zrotation
												JOINT oris02
												{
													OFFSET 0.000000 -0.271100 0.166901
													CHANNELS 6 Xposition Yposition Zposition Xrotation Yrotation Zrotation
													JOINT oris01
													{
														OFFSET 0.000000 -0.097000 0.070000
														CHANNELS 6 Xposition Yposition Zposition Xrotation Yrotation Zrotation
														End Site
														{
															OFFSET 0.000000 -0.061578 0.108813
														}
													}
												}
												JOINT oris06.L
												{
													OFFSET 0.000000 -0.271100 0.166901
													CHANNELS 6 Xposition Yposition Zposition Xrotation Yrotation Zrotation
													JOINT oris07.L
													{
														OFFSET 0.119720 -0.066900 0.023800
														CHANNELS 6 Xposition Yposition Zposition Xrotation Yrotation Zrotation
														End Site
														{
															OFFSET 0.056706 -0.025950 0.112995
														}
													}
												}
												JOINT oris06.R
												{
													OFFSET 0.000000 -0.271100 0.166901
													CHANNELS 6 Xposition Yposition Zposition Xrotation Yrotation Zrotation
													JOINT oris07.R
													{
														OFFSET -0.119720 -0.066900 0.023699
														CHANNELS 6 Xposition Yposition Zposition Xrotation Yrotation Zrotation
														End Site
														{
															OFFSET -0.056712 -0.025953 0.113092
														}
													}
												}
											}
											JOINT tongue00
											{
												OFFSET 0.000000 -0.462330 -0.650400
												CHANNELS 6 Xposition Yposition Zposition Xrotation Yrotation Zrotation
												JOINT tongue01
												{
													OFFSET 0.000000 0.407950 0.365000
													CHANNELS 6 Xposition Yposition Zposition Xrotation Yrotation Zrotation
													JOINT tongue02
													{
														OFFSET 0.000000 -0.308990 0.045401
														CHANNELS 6 Xposition Yposition Zposition Xrotation Yrotation Zrotation
														JOINT tongue03
														{
															OFFSET 0.000000 -0.213660 -0.003700
															CHANNELS 6 Xposition Yposition Zposition Xrotation Yrotation Zrotation
															JOINT tongue04
															{
																OFFSET 0.000000 -0.087500 -0.047700
																CHANNELS 6 Xposition Yposition Zposition Xrotation Yrotation Zrotation
																End Site
																{
																	OFFSET 0.000000 -0.087556 -0.047680
																}
															}
															JOINT tongue07.L
															{
																OFFSET 0.000000 -0.087500 -0.047700
																CHANNELS 6 Xposition Yposition Zposition Xrotation Yrotation Zrotation
																End Site
																{
																	OFFSET 0.113319 -0.006491 -0.036334
																}
															}
															JOINT tongue07.R
															{
																OFFSET 0.000000 -0.087500 -0.047700
																CHANNELS 6 Xposition Yposition Zposition Xrotation Yrotation Zrotation
																End Site
																{
																	OFFSET -0.113319 -0.006491 -0.036334
																}
															}
														}
														JOINT tongue06.L
														{
															OFFSET 0.000000 -0.213660 -0.003700
															CHANNELS 6 Xposition Yposition Zposition Xrotation Yrotation Zrotation
															End Site
															{
																OFFSET 0.163357 0.017151 -0.052926
															}
														}
														JOINT tongue06.R
														{
															OFFSET 0.000000 -0.213660 -0.003700
															CHANNELS 6 Xposition Yposition Zposition Xrotation Yrotation Zrotation
															End Site
															{
																OFFSET -0.163357 0.017151 -0.052926
															}
														}
													}
													JOINT tongue05.L
													{
														OFFSET 0.000000 -0.308990 0.045401
														CHANNELS 6 Xposition Yposition Zposition Xrotation Yrotation Zrotation
														End Site
														{
															OFFSET 0.196962 -0.026608 -0.038997
														}
													}
													JOINT tongue05.R
													{
														OFFSET 0.000000 -0.308990 0.045401
														CHANNELS 6 Xposition Yposition Zposition Xrotation Yrotation Zrotation
														End Site
														{
															OFFSET -0.196962 -0.026608 -0.038997
														}
													}
												}
											}
										}
										JOINT levator02.L
										{
											OFFSET 0.031567 -1.140320 0.191300
											CHANNELS 6 Xposition Yposition Zposition Xrotation Yrotation Zrotation
											JOINT levator03.L
											{
												OFFSET 0.166893 0.131300 -0.165100
												CHANNELS 6 Xposition Yposition Zposition Xrotation Yrotation Zrotation
												JOINT levator04.L
												{
													OFFSET 0.059480 0.003500 -0.151200
													CHANNELS 6 Xposition Yposition Zposition Xrotation Yrotation Zrotation
													JOINT levator05.L
													{
														OFFSET 0.026460 0.033100 -0.166900
														CHANNELS 6 Xposition Yposition Zposition Xrotation Yrotation Zrotation
														End Site
														{
															OFFSET -0.028835 0.006809 -0.081398
														}
													}
												}
											}
										}
										JOINT levator02.R
										{
											OFFSET -0.031567 -1.140320 0.191300
											CHANNELS 6 Xposition Yposition Zposition Xrotation Yrotation Zrotation
											JOINT levator03.R
											{
												OFFSET -0.166893 0.131400 -0.165100
												CHANNELS 6 Xposition Yposition Zposition Xrotation Yrotation Zrotation
												JOINT levator04.R
												{
													OFFSET -0.059250 0.003000 -0.154200
													CHANNELS 6 Xposition Yposition Zposition Xrotation Yrotation Zrotation
													JOINT levator05.R
													{
														OFFSET -0.026460 0.033800 -0.163900
														CHANNELS 6 Xposition Yposition Zposition Xrotation Yrotation Zrotation
														End Site
														{
															OFFSET 0.028598 0.006543 -0.081397
														}
													}
												}
											}
										}
										JOINT special01
										{
											OFFSET 0.000000 0.626330 -0.077300
											CHANNELS 6 Xposition Yposition Zposition Xrotation Yrotation Zrotation
											JOINT oris04.L
											{
												OFFSET 0.000000 -1.748150 -0.058000
												CHANNELS 6 Xposition Yposition Zposition Xrotation Yrotation Zrotation
												JOINT oris03.L
												{
													OFFSET 0.136380 0.027200 -0.049500
													CHANNELS 6 Xposition Yposition Zposition Xrotation Yrotation Zrotation
													End Site
													{
														OFFSET 0.035066 0.013739 -0.056011
													}
												}
											}
											JOINT oris04.R
											{
												OFFSET 0.000000 -1.748150 -0.058000
												CHANNELS 6 Xposition Yposition Zposition Xrotation Yrotation Zrotation
												JOINT oris03.R
												{
													OFFSET -0.136380 0.027200 -0.050700
													CHANNELS 6 Xposition Yposition Zposition Xrotation Yrotation Zrotation
													End Site
													{
														OFFSET -0.035092 0.013749 -0.054792
													}
												}
											}
											JOINT oris06
											{
												OFFSET 0.000000 -1.748150 -0.058000
												CHANNELS 6 Xposition Yposition Zposition Xrotation Yrotation Zrotation
												JOINT oris05
												{
													OFFSET 0.000000 -0.017300 -0.041400
													CHANNELS 6 Xposition Yposition Zposition Xrotation Yrotation Zrotation
													End Site
													{
														OFFSET 0.000000 -0.010370 -0.054306
													}
												}
											}
										}
										JOINT special03
										{
											OFFSET 0.000000 -0.194590 -0.016700
											CHANNELS 6 Xposition Yposition Zposition Xrotation Yrotation Zrotation
											JOINT levator06.L
											{
												OFFSET 0.062420 -1.032630 0.011600
												CHANNELS 6 Xposition Yposition Zposition Xrotation Yrotation Zrotation
												End Site
												{
													OFFSET 0.110196 0.200781 -0.004070
												}
											}
											JOINT levator06.R
											{
												OFFSET -0.062420 -1.032630 0.008900
												CHANNELS 6 Xposition Yposition Zposition Xrotation Yrotation Zrotation
												End Site
												{
													OFFSET -0.110194 0.200780 -0.001430
												}
											}
										}
										JOINT special06.L
										{
											OFFSET 0.000000 0.056030 1.394900
											CHANNELS 6 Xposition Yposition Zposition Xrotation Yrotation Zrotation
											JOINT special05.L
											{
												OFFSET 0.198480 -0.578590 -0.014400
												CHANNELS 6 Xposition Yposition Zposition Xrotation Yrotation Zrotation
												JOINT eye.L
												{
													OFFSET 0.122050 -0.248860 -1.031799
													CHANNELS 6 Xposition Yposition Zposition Xrotation Yrotation Zrotation
													End Site
													{
														OFFSET 0.010737 -0.423998 0.001548
													}
												}
												JOINT orbicularis03.L
												{
													OFFSET 0.122050 -0.248860 -1.031799
													CHANNELS 6 Xposition Yposition Zposition Xrotation Yrotation Zrotation
													End Site
													{
														OFFSET 0.009445 -0.396173 0.122881
													}
												}
												JOINT orbicularis04.L
												{
													OFFSET 0.122050 -0.248860 -1.031799
													CHANNELS 6 Xposition Yposition Zposition Xrotation Yrotation Zrotation
													End Site
													{
														OFFSET 0.010937 -0.403909 -0.119675
													}
												}
											}
										}
										JOINT special06.R
										{
											OFFSET 0.000000 0.056030 1.394900
											CHANNELS 6 Xposition Yposition Zposition Xrotation Yrotation Zrotation
											JOINT special05.R
											{
												OFFSET -0.198480 -0.578590 -0.014400
												CHANNELS 6 Xposition Yposition Zposition Xrotation Yrotation Zrotation
												JOINT eye.R
												{
													OFFSET -0.096100 -0.248860 -1.029400
													CHANNELS 6 Xposition Yposition Zposition Xrotation Yrotation Zrotation
													End Site
													{
														OFFSET -0.010737 -0.423999 0.001548
													}
												}
												JOINT orbicularis03.R
												{
													OFFSET -0.096100 -0.248860 -1.029400
													CHANNELS 6 Xposition Yposition Zposition Xrotation Yrotation Zrotation
													End Site
													{
														OFFSET -0.009445 -0.396201 0.122890
													}
												}
												JOINT orbicularis04.R
												{
													OFFSET -0.096100 -0.248860 -1.029400
													CHANNELS 6 Xposition Yposition Zposition Xrotation Yrotation Zrotation
													End Site
													{
														OFFSET -0.010936 -0.403909 -0.119675
													}
												}
											}
										}
										JOINT temporalis01.L
										{
											OFFSET 0.624230 -0.631420 0.388801
											CHANNELS 6 Xposition Yposition Zposition Xrotation Yrotation Zrotation
											JOINT oculi02.L
											{
												OFFSET -0.066100 -0.157300 0.009800
												CHANNELS 6 Xposition Yposition Zposition Xrotation Yrotation Zrotation
												JOINT oculi01.L
												{
													OFFSET -0.220870 -0.224100 0.148600
													CHANNELS 6 Xposition Yposition Zposition Xrotation Yrotation Zrotation
													End Site
													{
														OFFSET -0.176676 -0.059051 0.022102
													}
												}
											}
										}
										JOINT temporalis01.R
										{
											OFFSET -0.624230 -0.631420 0.389200
											CHANNELS 6 Xposition Yposition Zposition Xrotation Yrotation Zrotation
											JOINT oculi02.R
											{
												OFFSET 0.072700 -0.157300 0.009700
												CHANNELS 6 Xposition Yposition Zposition Xrotation Yrotation Zrotation
												JOINT oculi01.R
												{
													OFFSET 0.220410 -0.224100 0.151800
													CHANNELS 6 Xposition Yposition Zposition Xrotation Yrotation Zrotation
													End Site
													{
														OFFSET 0.170536 -0.059051 0.018602
													}
												}
											}
										}
										JOINT temporalis02.L
										{
											OFFSET 0.638390 -0.614160 0.185500
											CHANNELS 6 Xposition Yposition Zposition Xrotation Yrotation Zrotation
											JOINT risorius02.L
											{
												OFFSET -0.083760 -0.161060 0.021200
												CHANNELS 6 Xposition Yposition Zposition Xrotation Yrotation Zrotation
												JOINT risorius03.L
												{
													OFFSET -0.060620 -0.076300 -0.246600
													CHANNELS 6 Xposition Yposition Zposition Xrotation Yrotation Zrotation
													End Site
													{
														OFFSET 0.039576 0.161248 -0.188157
													}
												}
											}
										}
										JOINT temporalis02.R
										{
											OFFSET -0.638240 -0.614140 0.191700
											CHANNELS 6 Xposition Yposition Zposition Xrotation Yrotation Zrotation
											JOINT risorius02.R
											{
												OFFSET 0.085320 -0.161080 0.015000
												CHANNELS 6 Xposition Yposition Zposition Xrotation Yrotation Zrotation
												JOINT risorius03.R
												{
													OFFSET 0.060690 -0.075200 -0.247000
													CHANNELS 6 Xposition Yposition Zposition Xrotation Yrotation Zrotation
													End Site
													{
														OFFSET -0.038698 0.160789 -0.187210
													}
												}
											}
										}
									}
								}
							}
						}
					}
				}
			}
		}
	}
	JOINT pelvis.L
	{
		OFFSET 0.000000 -0.761950 0.011700
		CHANNELS 6 Xposition Yposition Zposition Xrotation Yrotation Zrotation
		JOINT upperleg01.L
		{
			OFFSET 0.940010 -0.001020 -0.156370
			CHANNELS 6 Xposition Yposition Zposition Xrotation Yrotation Zrotation
			JOINT upperleg02.L
			{
				OFFSET 0.044190 -0.189800 -0.611790
				CHANNELS 6 Xposition Yposition Zposition Xrotation Yrotation Zrotation
				JOINT lowerleg01.L
				{
					OFFSET 0.402300 -0.065830 -3.508440
					CHANNELS 6 Xposition Yposition Zposition Xrotation Yrotation Zrotation
					JOINT lowerleg02.L
					{
						OFFSET 0.139200 0.160780 -2.137800
						CHANNELS 6 Xposition Yposition Zposition Xrotation Yrotation Zrotation
						JOINT foot.L
						{
							OFFSET 0.139200 0.160790 -2.137700
							CHANNELS 6 Xposition Yposition Zposition Xrotation Yrotation Zrotation
							JOINT toe1-1.L
							{
								OFFSET 0.057200 -1.105760 -0.599400
								CHANNELS 6 Xposition Yposition Zposition Xrotation Yrotation Zrotation
								End Site
								{
									OFFSET 0.042802 -0.749010 0.098134
								}
							}
						}
					}
				}
			}
		}
	}
	JOINT pelvis.R
	{
		OFFSET 0.000000 -0.761950 0.011700
		CHANNELS 6 Xposition Yposition Zposition Xrotation Yrotation Zrotation
		JOINT upperleg01.R
		{
			OFFSET -0.940010 -0.001020 -0.156370
			CHANNELS 6 Xposition Yposition Zposition Xrotation Yrotation Zrotation
			JOINT upperleg02.R
			{
				OFFSET -0.043590 -0.189800 -0.611790
				CHANNELS 6 Xposition Yposition Zposition Xrotation Yrotation Zrotation
				JOINT lowerleg01.R
				{
					OFFSET -0.402900 -0.065830 -3.508440
					CHANNELS 6 Xposition Yposition Zposition Xrotation Yrotation Zrotation
					JOINT lowerleg02.R
					{
						OFFSET -0.139200 0.160780 -2.137800
						CHANNELS 6 Xposition Yposition Zposition Xrotation Yrotation Zrotation
						JOINT foot.R
						{
							OFFSET -0.139200 0.160790 -2.137700
							CHANNELS 6 Xposition Yposition Zposition Xrotation Yrotation Zrotation
							JOINT toe1-1.R
							{
								OFFSET -0.057200 -1.105760 -0.599400
								CHANNELS 6 Xposition Yposition Zposition Xrotation Yrotation Zrotation
								End Site
								{
									OFFSET -0.042801 -0.748997 0.098132
								}
							}
						}
					}
				}
			}
		}
	}
}
MOTION
Frames: 1
Frame Time: 0.041667
-0.001878 0.537626 0 -0.000000 -0.000057 -29.923001 0.000000 -0.761950 0.011699 0.069756 3.168219 -2.521150 -0.000000 0.430790 0.542502 -0.066287 5.384084 1.408989 -0.000000 -0.150328 0.576599 -0.171095 -11.586827 -4.006037 -0.000000 -0.131088 0.880099 0.000038 -0.380889 0.011177 -0.000000 0.048117 1.640698 0.000001 0.000000 0.000002 0.000000 0.048117 1.640698 -0.000000 0.000000 0.000001 0.000000 0.048117 1.640698 -1.339178 1.305594 3.483928 0.264200 -0.215081 0.848898 0.000001 -0.000002 0.000000 0.746900 -0.001850 0.217802 0.000002 -0.000001 0.000001 0.556300 0.039251 -0.378599 -30.995248 27.550775 -30.641219 0.569300 0.022600 -0.581199 -0.000000 -0.000008 0.000002 1.182999 -0.066570 -1.327299 17.506180 2.942365 15.518581 0.594500 -0.777180 -0.642000 -0.000000 0.000000 0.000003 0.594399 -0.777201 -0.641998 -0.000001 0.000000 -0.000005 0.009899 -0.398799 -0.078800 -1.638713 -1.603894 7.442444 -0.191100 -0.189500 -0.082497 -0.000003 -0.000001 0.000000 -0.112000 -0.279199 -0.133601 0.000003 0.000002 -0.000000 0.097600 -0.234899 -0.149499 0.000000 -0.000005 -0.000001 0.157299 -0.620001 -0.240201 -0.000000 0.000002 0.000001 0.031000 -0.185701 -0.140401 -0.000007 -0.000000 0.000001 -0.005701 -0.144600 -0.152300 -0.000002 -0.000001 -0.000003 0.097600 -0.234899 -0.149498 -0.000006 0.000002 0.000001 0.302901 -0.452099 -0.335399 -0.000003 0.000002 -0.000003 0.067500 -0.182098 -0.241302 -0.000007 0.000005 -0.000002 0.023500 -0.153600 -0.199901 -0.000000 -0.000000 -0.000000 0.203898 -0.136899 -0.286201 -0.000000 -0.000006 0.000004 0.263199 -0.395100 -0.266401 -0.000001 0.000002 0.000001 0.090100 -0.124299 -0.226402 -0.000002 0.000004 -0.000003 0.037400 -0.110600 -0.192500 0.000004 -0.000003 0.000006 0.203899 -0.136899 -0.286200 -0.000006 -0.000002 0.000003 0.281101 -0.217700 -0.341701 0.000004 0.000003 0.000001 0.055099 -0.063301 -0.175399 -0.000000 0.000001 0.000003 0.016600 -0.049901 -0.133300 0.000001 0.000003 0.000001 -0.264199 -0.215081 0.848899 -1.976623 0.037668 -6.785746 -0.746900 -0.001850 0.217801 2.503341 -0.033174 -3.676519 -0.556299 0.039250 -0.378598 -0.150972 -9.435881 -0.125132 -0.529099 0.014781 -0.580998 -34.770085 10.472619 -38.118890 -1.223201 -0.058749 -1.327499 -10.340024 -0.825405 9.527515 -0.594501 -0.777180 -0.642000 -19.345386 -17.675548 -20.441484 -0.594400 -0.777200 -0.642001 12.413011 2.276017 -13.219338 -0.009898 -0.398801 -0.078799 3.113968 0.907471 17.800865 0.191101 -0.189499 -0.082501 0.194296 37.294281 16.677602 0.112001 -0.279201 -0.133598 0.000001 0.000000 0.000003 -0.097599 -0.234900 -0.149498 0.000006 -0.000005 -0.000003 -0.157300 -0.620002 -0.240200 35.433963 -13.497145 25.293341 -0.031000 -0.185702 -0.140401 24.538435 -10.914364 17.075540 0.005698 -0.144601 -0.152301 30.470796 -11.050174 22.498216 -0.097601 -0.234901 -0.149500 0.000007 -0.000009 -0.000000 -0.302903 -0.452099 -0.335400 42.207936 -30.062640 34.777920 -0.067500 -0.182101 -0.241302 17.189496 -15.684814 14.321143 -0.023501 -0.153602 -0.199900 25.469285 -21.035379 21.165448 -0.203899 -0.136901 -0.286199 0.000002 -0.000003 -0.000003 -0.263198 -0.395102 -0.266400 39.764911 -40.076422 32.037375 -0.090103 -0.124301 -0.226401 6.594114 -9.700817 5.117121 -0.037400 -0.110603 -0.192499 29.356331 -32.357482 23.315768 -0.203900 -0.136901 -0.286199 0.000007 -0.000003 -0.000000 -0.281100 -0.217702 -0.341701 13.265744 -31.976203 13.174081 -0.055101 -0.063303 -0.175299 7.777643 -20.223613 8.456105 -0.016601 -0.049901 -0.133400 8.237953 -21.683294 8.551843 0.000000 0.017617 1.593200 -0.000001 0.000000 0.000001 0.000000 -0.092369 0.410799 0.734083 -1.603145 18.852475 0.000000 0.027396 0.465699 0.000002 0.000000 0.000000 0.000000 -0.309455 0.221104 -0.000001 -0.000000 -0.000001 0.000000 -0.194590 -0.016700 -0.000000 0.000000 0.000000 0.000000 -0.462330 -0.650401 0.000002 0.000000 0.000001 -0.000000 -0.271100 0.166901 -0.000003 -0.000001 0.000000 -0.000000 -0.097001 0.069999 0.000002 -0.000000 0.000000 0.000000 -0.271099 0.166899 -0.000002 0.000001 -0.000001 0.119720 -0.066899 0.023801 -0.000002 -0.000002 -0.000001 -0.000000 -0.271100 0.166901 -0.000003 0.000002 0.000004 -0.119720 -0.066900 0.023700 -0.000003 0.000005 0.000001 0.000000 -0.462331 -0.650401 0.000000 -0.000000 0.000001 0.000000 0.407951 0.365000 -0.000000 -0.000000 -0.000001 -0.000000 -0.308990 0.045400 0.000000 -0.000000 -0.000002 0.000000 -0.213660 -0.003700 -0.000002 0.000000 0.000001 -0.000000 -0.087501 -0.047697 0.000003 0.000000 -0.000001 -0.000000 -0.087500 -0.047701 0.000003 0.000001 0.000001 0.000001 -0.087501 -0.047701 0.000004 0.000000 -0.000001 0.000000 -0.213660 -0.003700 -0.000000 -0.000001 -0.000000 0.000001 -0.213660 -0.003701 -0.000000 0.000002 0.000002 0.000000 -0.308990 0.045402 0.000001 0.000001 -0.000001 -0.000000 -0.308990 0.045402 -0.000001 0.000000 -0.000002 0.031567 -1.140321 0.191299 0.000004 0.000002 0.000002 0.166894 0.131301 -0.165102 0.000001 0.000002 -0.000003 0.059481 0.003500 -0.151198 -0.000001 0.000001 0.000002 0.026460 0.033100 -0.166899 0.000003 0.000002 0.000001 -0.031567 -1.140321 0.191300 0.000003 0.000001 0.000001 -0.166894 0.131399 -0.165101 0.000001 0.000001 -0.000000 -0.059250 0.003000 -0.154201 0.000001 0.000001 0.000003 -0.026461 0.033800 -0.163902 -0.000001 -0.000003 0.000000 0.000000 0.626330 -0.077301 0.000001 0.000000 0.000001 0.000000 -1.748150 -0.057997 0.000001 -0.000001 -0.000001 0.136380 0.027200 -0.049502 0.000000 -0.000004 -0.000000 0.000000 -1.748150 -0.057998 0.000001 -0.000001 0.000002 -0.136382 0.027200 -0.050700 -0.000000 -0.000005 -0.000000 0.000000 -1.748150 -0.057999 0.000002 0.000001 0.000000 -0.000000 -0.017301 -0.041400 -0.000001 -0.000000 0.000001 0.000000 -0.194590 -0.016700 -0.000000 -0.000000 0.000000 0.062421 -1.032630 0.011600 0.000000 0.000001 -0.000003 -0.062420 -1.032630 0.008900 0.000001 -0.000001 -0.000001 0.000000 0.056030 1.394897 0.000000 -0.000000 0.000004 0.198480 -0.578589 -0.014400 -0.000004 -0.000000 -0.000002 0.122050 -0.248860 -1.031798 -0.000001 -0.000001 -0.000001 0.122050 -0.248861 -1.031799 0.000003 0.000001 0.000002 0.122050 -0.248860 -1.031799 0.000000 -0.000001 -0.000001 0.000000 0.056030 1.394898 -0.000000 -0.000000 -0.000004 -0.198480 -0.578590 -0.014402 0.000001 0.000001 0.000001 -0.096100 -0.248860 -1.029399 0.000001 -0.000000 -0.000003 -0.096100 -0.248859 -1.029401 -0.000002 0.000000 0.000001 -0.096100 -0.248859 -1.029401 0.000000 -0.000000 -0.000001 0.624231 -0.631421 0.388801 -0.000000 0.000002 -0.000000 -0.066099 -0.157301 0.009799 0.000001 -0.000004 -0.000002 -0.220870 -0.224100 0.148602 0.000001 -0.000003 0.000001 -0.624231 -0.631421 0.389198 0.000001 0.000000 0.000003 0.072701 -0.157298 0.009700 -0.000003 -0.000001 -0.000002 0.220411 -0.224100 0.151798 -0.000001 -0.000003 -0.000000 0.638390 -0.614160 0.185499 0.000000 -0.000000 -0.000001 -0.083760 -0.161061 0.021201 -0.000002 0.000001 0.000002 -0.060620 -0.076300 -0.246600 0.000001 -0.000001 0.000003 -0.638240 -0.614140 0.191700 -0.000000 -0.000001 0.000001 0.085319 -0.161079 0.015004 -0.000003 -0.000002 0.000001 0.060691 -0.075201 -0.246997 -0.000003 0.000001 -0.000002 -0.000000 -0.761950 0.011699 -0.000000 0.000000 0.000002 0.940010 -0.001020 -0.156370 -8.429691 -10.097758 1.538975 0.044190 -0.189801 -0.611789 -2.089885 0.008686 18.073464 0.402300 -0.065830 -3.508439 22.702476 0.643110 1.398547 0.139200 0.160780 -2.137801 0.000001 -0.000000 -0.000000 0.139200 0.160790 -2.137700 -5.902012 -0.072610 -0.395918 0.057200 -1.105760 -0.599400 -0.000001 -0.000000 -0.000000 -0.000000 -0.761950 0.011699 -0.000001 -0.000001 0.000000 -0.940010 -0.001020 -0.156371 -5.520268 7.280860 -1.121118 -0.043590 -0.189800 -0.611787 -0.407165 -0.053636 -3.532266 -0.402900 -0.065830 -3.508440 15.521542 -0.380223 -0.985285 -0.139200 0.160780 -2.137800 0.000001 0.000000 -0.000003 -0.139200 0.160790 -2.137700 -7.170349 0.082861 0.481880 -0.057200 -1.105760 -0.599400 0.000001 0.000001 -0.000002 
