HIERARCHY
ROOT root
{
	OFFSET 0.000000 0.540890 9.218400
	CHANNELS 6 Xposition Yposition Zposition Xrotation Yrotation Zrotation
	JOINT spine05
	{
		OFFSET 0.000000 -0.761950 0.011700
		CHANNELS 6 Xposition Yposition Zposition Xrotation Yrotation Zrotation
		JOINT spine04
		{
			OFFSET 0.000000 0.430790 0.542500
			CHANNELS 6 Xposition Yposition Zposition Xrotation Yrotation Zrotation
			JOINT spine03
			{
				OFFSET 0.000000 -0.150328 0.576599
				CHANNELS 6 Xposition Yposition Zposition Xrotation Yrotation Zrotation
				JOINT spine02
				{
					OFFSET 0.000000 -0.131088 0.880100
					CHANNELS 6 Xposition Yposition Zposition Xrotation Yrotation Zrotation
					JOINT breast.L
					{
						OFFSET 0.000000 0.048117 1.640700
						CHANNELS 6 Xposition Yposition Zposition Xrotation Yrotation Zrotation
						End Site
						{
							OFFSET 1.104732 -1.744812 -0.363645
						}
					}
					JOINT breast.R
					{
						OFFSET 0.000000 0.048117 1.640700
						CHANNELS 6 Xposition Yposition Zposition Xrotation Yrotation Zrotation
						End Site
						{
							OFFSET -1.104732 -1.744812 -0.363645
						}
					}
					JOINT spine01
					{
						OFFSET 0.000000 0.048117 1.640700
						CHANNELS 6 Xposition Yposition Zposition Xrotation Yrotation Zrotation
						JOINT clavicle.L
						{
							OFFSET 0.264200 -0.215081 0.848900
							CHANNELS 6 Xposition Yposition Zposition Xrotation Yrotation Zrotation
							JOINT shoulder01.L
							{
								OFFSET 0.746900 -0.001850 0.217800
								CHANNELS 6 Xposition Yposition Zposition Xrotation Yrotation Zrotation
								JOINT upperarm01.L
								{
									OFFSET 0.556300 0.039250 -0.378600
									CHANNELS 6 Xposition Yposition Zposition Xrotation Yrotation Zrotation
									JOINT upperarm02.L
									{
										OFFSET 0.569300 0.022600 -0.581200
										CHANNELS 6 Xposition Yposition Zposition Xrotation Yrotation Zrotation
										JOINT lowerarm01.L
										{
											OFFSET 1.183000 -0.066570 -1.327300
											CHANNELS 6 Xposition Yposition Zposition Xrotation Yrotation Zrotation
											JOINT lowerarm02.L
											{
												OFFSET 0.594500 -0.777180 -0.642000
												CHANNELS 6 Xposition Yposition Zposition Xrotation Yrotation Zrotation
												JOINT wrist.L
												{
													OFFSET 0.594400 -0.777200 -0.642000
													CHANNELS 6 Xposition Yposition Zposition Xrotation Yrotation Zrotation
													JOINT finger1-1.L
													{
														OFFSET 0.009900 -0.398800 -0.078800
														CHANNELS 6 Xposition Yposition Zposition Xrotation Yrotation Zrotation
														JOINT finger1-2.L
														{
															OFFSET -0.191100 -0.189500 -0.082500
															CHANNELS 6 Xposition Yposition Zposition Xrotation Yrotation Zrotation
															JOINT finger1-3.L
															{
																OFFSET -0.112000 -0.279200 -0.133600
																CHANNELS 6 Xposition Yposition Zposition Xrotation Yrotation Zrotation
																End Site
																{
																	OFFSET -0.050261 -0.193666 -0.163951
																}
															}
														}
													}
													JOINT metacarpal1.L
													{
														OFFSET 0.097600 -0.234900 -0.149500
														CHANNELS 6 Xposition Yposition Zposition Xrotation Yrotation Zrotation
														JOINT finger2-1.L
														{
															OFFSET 0.157300 -0.620000 -0.240200
															CHANNELS 6 Xposition Yposition Zposition Xrotation Yrotation Zrotation
															JOINT finger2-2.L
															{
																OFFSET 0.031000 -0.185700 -0.140400
																CHANNELS 6 Xposition Yposition Zposition Xrotation Yrotation Zrotation
																JOINT finger2-3.L
																{
																	OFFSET -0.005700 -0.144600 -0.152300
																	CHANNELS 6 Xposition Yposition Zposition Xrotation Yrotation Zrotation
																	End Site
																	{
																		OFFSET -0.035263 -0.157332 -0.189463
																	}
																}
															}
														}
													}
													JOINT metacarpal2.L
													{
														OFFSET 0.097600 -0.234900 -0.149500
														CHANNELS 6 Xposition Yposition Zposition Xrotation Yrotation Zrotation
														JOINT finger3-1.L
														{
															OFFSET 0.302900 -0.452100 -0.335400
															CHANNELS 6 Xposition Yposition Zposition Xrotation Yrotation Zrotation
															JOINT finger3-2.L
															{
																OFFSET 0.067500 -0.182100 -0.241301
																CHANNELS 6 Xposition Yposition Zposition Xrotation Yrotation Zrotation
																JOINT finger3-3.L
																{
																	OFFSET 0.023500 -0.153600 -0.199900
																	CHANNELS 6 Xposition Yposition Zposition Xrotation Yrotation Zrotation
																	End Site
																	{
																		OFFSET -0.002016 -0.131520 -0.209689
																	}
																}
															}
														}
													}
													JOINT metacarpal3.L
													{
														OFFSET 0.203900 -0.136900 -0.286200
														CHANNELS 6 Xposition Yposition Zposition Xrotation Yrotation Zrotation
														JOINT finger4-1.L
														{
															OFFSET 0.263200 -0.395100 -0.266400
															CHANNELS 6 Xposition Yposition Zposition Xrotation Yrotation Zrotation
															JOINT finger4-2.L
															{
																OFFSET 0.090100 -0.124300 -0.226400
																CHANNELS 6 Xposition Yposition Zposition Xrotation Yrotation Zrotation
																JOINT finger4-3.L
																{
																	OFFSET 0.037400 -0.110600 -0.192499
																	CHANNELS 6 Xposition Yposition Zposition Xrotation Yrotation Zrotation
																	End Site
																	{
																		OFFSET 0.020782 -0.096903 -0.223831
																	}
																}
															}
														}
													}
													JOINT metacarpal4.L
													{
														OFFSET 0.203900 -0.136900 -0.286200
														CHANNELS 6 Xposition Yposition Zposition Xrotation Yrotation Zrotation
														JOINT finger5-1.L
														{
															OFFSET 0.281100 -0.217700 -0.341701
															CHANNELS 6 Xposition Yposition Zposition Xrotation Yrotation Zrotation
															JOINT finger5-2.L
															{
																OFFSET 0.055100 -0.063300 -0.175400
																CHANNELS 6 Xposition Yposition Zposition Xrotation Yrotation Zrotation
																JOINT finger5-3.L
																{
																	OFFSET 0.016600 -0.049900 -0.133300
																	CHANNELS 6 Xposition Yposition Zposition Xrotation Yrotation Zrotation
																	End Site
																	{
																		OFFSET 0.021685 -0.058725 -0.169192
																	}
																}
															}
														}
													}
												}
											}
										}
									}
								}
							}
						}
						JOINT clavicle.R
						{
							OFFSET -0.264200 -0.215081 0.848900
							CHANNELS 6 Xposition Yposition Zposition Xrotation Yrotation Zrotation
							JOINT shoulder01.R
							{
								OFFSET -0.746900 -0.001850 0.217800
								CHANNELS 6 Xposition Yposition Zposition Xrotation Yrotation Zrotation
								JOINT upperarm01.R
								{
									OFFSET -0.556300 0.039250 -0.378600
									CHANNELS 6 Xposition Yposition Zposition Xrotation Yrotation Zrotation
									JOINT upperarm02.R
									{
										OFFSET -0.529100 0.014780 -0.580999
										CHANNELS 6 Xposition Yposition Zposition Xrotation Yrotation Zrotation
										JOINT lowerarm01.R
										{
											OFFSET -1.223200 -0.058750 -1.327500
											CHANNELS 6 Xposition Yposition Zposition Xrotation Yrotation Zrotation
											JOINT lowerarm02.R
											{
												OFFSET -0.594500 -0.777180 -0.642000
												CHANNELS 6 Xposition Yposition Zposition Xrotation Yrotation Zrotation
												JOINT wrist.R
												{
													OFFSET -0.594400 -0.777200 -0.642000
													CHANNELS 6 Xposition Yposition Zposition Xrotation Yrotation Zrotation
													JOINT finger1-1.R
													{
														OFFSET -0.009900 -0.398800 -0.078800
														CHANNELS 6 Xposition Yposition Zposition Xrotation Yrotation Zrotation
														JOINT finger1-2.R
														{
															OFFSET 0.191100 -0.189500 -0.082500
															CHANNELS 6 Xposition Yposition Zposition Xrotation Yrotation Zrotation
															JOINT finger1-3.R
															{
																OFFSET 0.112000 -0.279200 -0.133600
																CHANNELS 6 Xposition Yposition Zposition Xrotation Yrotation Zrotation
																End Site
																{
																	OFFSET 0.050261 -0.193666 -0.163951
																}
															}
														}
													}
													JOINT metacarpal1.R
													{
														OFFSET -0.097600 -0.234900 -0.149500
														CHANNELS 6 Xposition Yposition Zposition Xrotation Yrotation Zrotation
														JOINT finger2-1.R
														{
															OFFSET -0.157300 -0.620000 -0.240200
															CHANNELS 6 Xposition Yposition Zposition Xrotation Yrotation Zrotation
															JOINT finger2-2.R
															{
																OFFSET -0.031000 -0.185700 -0.140400
																CHANNELS 6 Xposition Yposition Zposition Xrotation Yrotation Zrotation
																JOINT finger2-3.R
																{
																	OFFSET 0.005700 -0.144600 -0.152300
																	CHANNELS 6 Xposition Yposition Zposition Xrotation Yrotation Zrotation
																	End Site
																	{
																		OFFSET 0.035263 -0.157332 -0.189463
																	}
																}
															}
														}
													}
													JOINT metacarpal2.R
													{
														OFFSET -0.097600 -0.234900 -0.149500
														CHANNELS 6 Xposition Yposition Zposition Xrotation Yrotation Zrotation
														JOINT finger3-1.R
														{
															OFFSET -0.302900 -0.452100 -0.335400
															CHANNELS 6 Xposition Yposition Zposition Xrotation Yrotation Zrotation
															JOINT finger3-2.R
															{
																OFFSET -0.067500 -0.182100 -0.241301
																CHANNELS 6 Xposition Yposition Zposition Xrotation Yrotation Zrotation
																JOINT finger3-3.R
																{
																	OFFSET -0.023500 -0.153600 -0.199900
																	CHANNELS 6 Xposition Yposition Zposition Xrotation Yrotation Zrotation
																	End Site
																	{
																		OFFSET 0.002016 -0.131520 -0.209689
																	}
																}
															}
														}
													}
													JOINT metacarpal3.R
													{
														OFFSET -0.203900 -0.136900 -0.286200
														CHANNELS 6 Xposition Yposition Zposition Xrotation Yrotation Zrotation
														JOINT finger4-1.R
														{
															OFFSET -0.263200 -0.395100 -0.266400
															CHANNELS 6 Xposition Yposition Zposition Xrotation Yrotation Zrotation
															JOINT finger4-2.R
															{
																OFFSET -0.090100 -0.124300 -0.226400
																CHANNELS 6 Xposition Yposition Zposition Xrotation Yrotation Zrotation
																JOINT finger4-3.R
																{
																	OFFSET -0.037400 -0.110600 -0.192499
																	CHANNELS 6 Xposition Yposition Zposition Xrotation Yrotation Zrotation
																	End Site
																	{
																		OFFSET -0.020782 -0.096903 -0.223831
																	}
																}
															}
														}
													}
													JOINT metacarpal4.R
													{
														OFFSET -0.203900 -0.136900 -0.286200
														CHANNELS 6 Xposition Yposition Zposition Xrotation Yrotation Zrotation
														JOINT finger5-1.R
														{
															OFFSET -0.281100 -0.217700 -0.341701
															CHANNELS 6 Xposition Yposition Zposition Xrotation Yrotation Zrotation
															JOINT finger5-2.R
															{
																OFFSET -0.055100 -0.063300 -0.175300
																CHANNELS 6 Xposition Yposition Zposition Xrotation Yrotation Zrotation
																JOINT finger5-3.R
																{
																	OFFSET -0.016600 -0.049900 -0.133400
																	CHANNELS 6 Xposition Yposition Zposition Xrotation Yrotation Zrotation
																	End Site
																	{
																		OFFSET -0.021685 -0.058725 -0.169192
																	}
																}
															}
														}
													}
												}
											}
										}
									}
								}
							}
						}
						JOINT neck01
						{
							OFFSET 0.000000 0.017617 1.593200
							CHANNELS 6 Xposition Yposition Zposition Xrotation Yrotation Zrotation
							JOINT neck02
							{
								OFFSET 0.000000 -0.092369 0.410800
								CHANNELS 6 Xposition Yposition Zposition Xrotation Yrotation Zrotation
								JOINT neck03
								{
									OFFSET 0.000000 0.027396 0.465700
									CHANNELS 6 Xposition Yposition Zposition Xrotation Yrotation Zrotation
									JOINT head
									{
										OFFSET 0.000000 -0.309455 0.221100
										CHANNELS 6 Xposition Yposition Zposition Xrotation Yrotation Zrotation
										JOINT jaw
										{
											OFFSET 0.000000 -0.194590 -0.016700
											CHANNELS 6 Xposition Yposition Zposition Xrotation Yrotation Zrotation
											JOINT special04
											{
												OFFSET 0.000000 -0.462330 -0.650400
												CHANNELS 6 Xposition Yposition Zposition Xrotation Yrotation Zrotation
												JOINT oris02
												{
													OFFSET 0.000000 -0.271100 0.166901
													CHANNELS 6 Xposition Yposition Zposition Xrotation Yrotation Zrotation
													JOINT oris01
													{
														OFFSET 0.000000 -0.097000 0.070000
														CHANNELS 6 Xposition Yposition Zposition Xrotation Yrotation Zrotation
														End Site
														{
															OFFSET 0.000000 -0.061578 0.108813
														}
													}
												}
												JOINT oris06.L
												{
													OFFSET 0.000000 -0.271100 0.166901
													CHANNELS 6 Xposition Yposition Zposition Xrotation Yrotation Zrotation
													JOINT oris07.L
													{
														OFFSET 0.119720 -0.066900 0.023800
														CHANNELS 6 Xposition Yposition Zposition Xrotation Yrotation Zrotation
														End Site
														{
															OFFSET 0.056706 -0.025950 0.112995
														}
													}
												}
												JOINT oris06.R
												{
													OFFSET 0.000000 -0.271100 0.166901
													CHANNELS 6 Xposition Yposition Zposition Xrotation Yrotation Zrotation
													JOINT oris07.R
													{
														OFFSET -0.119720 -0.066900 0.023699
														CHANNELS 6 Xposition Yposition Zposition Xrotation Yrotation Zrotation
														End Site
														{
															OFFSET -0.056712 -0.025953 0.113092
														}
													}
												}
											}
											JOINT tongue00
											{
												OFFSET 0.000000 -0.462330 -0.650400
												CHANNELS 6 Xposition Yposition Zposition Xrotation Yrotation Zrotation
												JOINT tongue01
												{
													OFFSET 0.000000 0.407950 0.365000
													CHANNELS 6 Xposition Yposition Zposition Xrotation Yrotation Zrotation
													JOINT tongue02
													{
														OFFSET 0.000000 -0.308990 0.045401
														CHANNELS 6 Xposition Yposition Zposition Xrotation Yrotation Zrotation
														JOINT tongue03
														{
															OFFSET 0.000000 -0.213660 -0.003700
															CHANNELS 6 Xposition Yposition Zposition Xrotation Yrotation Zrotation
															JOINT tongue04
															{
																OFFSET 0.000000 -0.087500 -0.047700
																CHANNELS 6 Xposition Yposition Zposition Xrotation Yrotation Zrotation
																End Site
																{
																	OFFSET 0.000000 -0.087556 -0.047680
																}
															}
															JOINT tongue07.L
															{
																OFFSET 0.000000 -0.087500 -0.047700
																CHANNELS 6 Xposition Yposition Zposition Xrotation Yrotation Zrotation
																End Site
																{
																	OFFSET 0.113319 -0.006491 -0.036334
																}
															}
															JOINT tongue07.R
															{
																OFFSET 0.000000 -0.087500 -0.047700
																CHANNELS 6 Xposition Yposition Zposition Xrotation Yrotation Zrotation
																End Site
																{
																	OFFSET -0.113319 -0.006491 -0.036334
																}
															}
														}
														JOINT tongue06.L
														{
															OFFSET 0.000000 -0.213660 -0.003700
															CHANNELS 6 Xposition Yposition Zposition Xrotation Yrotation Zrotation
															End Site
															{
																OFFSET 0.163357 0.017151 -0.052926
															}
														}
														JOINT tongue06.R
														{
															OFFSET 0.000000 -0.213660 -0.003700
															CHANNELS 6 Xposition Yposition Zposition Xrotation Yrotation Zrotation
															End Site
															{
																OFFSET -0.163357 0.017151 -0.052926
															}
														}
													}
													JOINT tongue05.L
													{
														OFFSET 0.000000 -0.308990 0.045401
														CHANNELS 6 Xposition Yposition Zposition Xrotation Yrotation Zrotation
														End Site
														{
															OFFSET 0.196962 -0.026608 -0.038997
														}
													}
													JOINT tongue05.R
													{
														OFFSET 0.000000 -0.308990 0.045401
														CHANNELS 6 Xposition Yposition Zposition Xrotation Yrotation Zrotation
														End Site
														{
															OFFSET -0.196962 -0.026608 -0.038997
														}
													}
												}
											}
										}
										JOINT levator02.L
										{
											OFFSET 0.031567 -1.140320 0.191300
											CHANNELS 6 Xposition Yposition Zposition Xrotation Yrotation Zrotation
											JOINT levator03.L
											{
												OFFSET 0.166893 0.131300 -0.165100
												CHANNELS 6 Xposition Yposition Zposition Xrotation Yrotation Zrotation
												JOINT levator04.L
												{
													OFFSET 0.059480 0.003500 -0.151200
													CHANNELS 6 Xposition Yposition Zposition Xrotation Yrotation Zrotation
													JOINT levator05.L
													{
														OFFSET 0.026460 0.033100 -0.166900
														CHANNELS 6 Xposition Yposition Zposition Xrotation Yrotation Zrotation
														End Site
														{
															OFFSET -0.028835 0.006809 -0.081398
														}
													}
												}
											}
										}
										JOINT levator02.R
										{
											OFFSET -0.031567 -1.140320 0.191300
											CHANNELS 6 Xposition Yposition Zposition Xrotation Yrotation Zrotation
											JOINT levator03.R
											{
												OFFSET -0.166893 0.131400 -0.165100
												CHANNELS 6 Xposition Yposition Zposition Xrotation Yrotation Zrotation
												JOINT levator04.R
												{
													OFFSET -0.059250 0.003000 -0.154200
													CHANNELS 6 Xposition Yposition Zposition Xrotation Yrotation Zrotation
													JOINT levator05.R
													{
														OFFSET -0.026460 0.033800 -0.163900
														CHANNELS 6 Xposition Yposition Zposition Xrotation Yrotation Zrotation
														End Site
														{
															OFFSET 0.028598 0.006543 -0.081397
														}
													}
												}
											}
										}
										JOINT special01
										{
											OFFSET 0.000000 0.626330 -0.077300
											CHANNELS 6 Xposition Yposition Zposition Xrotation Yrotation Zrotation
											JOINT oris04.L
											{
												OFFSET 0.000000 -1.748150 -0.058000
												CHANNELS 6 Xposition Yposition Zposition Xrotation Yrotation Zrotation
												JOINT oris03.L
												{
													OFFSET 0.136380 0.027200 -0.049500
													CHANNELS 6 Xposition Yposition Zposition Xrotation Yrotation Zrotation
													End Site
													{
														OFFSET 0.035066 0.013739 -0.056011
													}
												}
											}
											JOINT oris04.R
											{
												OFFSET 0.000000 -1.748150 -0.058000
												CHANNELS 6 Xposition Yposition Zposition Xrotation Yrotation Zrotation
												JOINT oris03.R
												{
													OFFSET -0.136380 0.027200 -0.050700
													CHANNELS 6 Xposition Yposition Zposition Xrotation Yrotation Zrotation
													End Site
													{
														OFFSET -0.035092 0.013749 -0.054792
													}
												}
											}
											JOINT oris06
											{
												OFFSET 0.000000 -1.748150 -0.058000
												CHANNELS 6 Xposition Yposition Zposition Xrotation Yrotation Zrotation
												JOINT oris05
												{
													OFFSET 0.000000 -0.017300 -0.041400
													CHANNELS 6 Xposition Yposition Zposition Xrotation Yrotation Zrotation
													End Site
													{
														OFFSET 0.000000 -0.010370 -0.054306
													}
												}
											}
										}
										JOINT special03
										{
											OFFSET 0.000000 -0.194590 -0.016700
											CHANNELS 6 Xposition Yposition Zposition Xrotation Yrotation Zrotation
											JOINT levator06.L
											{
												OFFSET 0.062420 -1.032630 0.011600
												CHANNELS 6 Xposition Yposition Zposition Xrotation Yrotation Zrotation
												End Site
												{
													OFFSET 0.110196 0.200781 -0.004070
												}
											}
											JOINT levator06.R
											{
												OFFSET -0.062420 -1.032630 0.008900
												CHANNELS 6 Xposition Yposition Zposition Xrotation Yrotation Zrotation
												End Site
												{
													OFFSET -0.110194 0.200780 -0.001430
												}
											}
										}
										JOINT special06.L
										{
											OFFSET 0.000000 0.056030 1.394900
											CHANNELS 6 Xposition Yposition Zposition Xrotation Yrotation Zrotation
											JOINT special05.L
											{
												OFFSET 0.198480 -0.578590 -0.014400
												CHANNELS 6 Xposition Yposition Zposition Xrotation Yrotation Zrotation
												JOINT eye.L
												{
													OFFSET 0.122050 -0.248860 -1.031799
													CHANNELS 6 Xposition Yposition Zposition Xrotation Yrotation Zrotation
													End Site
													{
														OFFSET 0.010737 -0.423998 0.001548
													}
												}
												JOINT orbicularis03.L
												{
													OFFSET 0.122050 -0.248860 -1.031799
													CHANNELS 6 Xposition Yposition Zposition Xrotation Yrotation Zrotation
													End Site
													{
														OFFSET 0.009445 -0.396173 0.122881
													}
												}
												JOINT orbicularis04.L
												{
													OFFSET 0.122050 -0.248860 -1.031799
													CHANNELS 6 Xposition Yposition Zposition Xrotation Yrotation Zrotation
													End Site
													{
														OFFSET 0.010937 -0.403909 -0.119675
													}
												}
											}
										}
										JOINT special06.R
										{
											OFFSET 0.000000 0.056030 1.394900
											CHANNELS 6 Xposition Yposition Zposition Xrotation Yrotation Zrotation
											JOINT special05.R
											{
												OFFSET -0.198480 -0.578590 -0.014400
												CHANNELS 6 Xposition Yposition Zposition Xrotation Yrotation Zrotation
												JOINT eye.R
												{
													OFFSET -0.096100 -0.248860 -1.029400
													CHANNELS 6 Xposition Yposition Zposition Xrotation Yrotation Zrotation
													End Site
													{
														OFFSET -0.010737 -0.423999 0.001548
													}
												}
												JOINT orbicularis03.R
												{
													OFFSET -0.096100 -0.248860 -1.029400
													CHANNELS 6 Xposition Yposition Zposition Xrotation Yrotation Zrotation
													End Site
													{
														OFFSET -0.009445 -0.396201 0.122890
													}
												}
												JOINT orbicularis04.R
												{
													OFFSET -0.096100 -0.248860 -1.029400
													CHANNELS 6 Xposition Yposition Zposition Xrotation Yrotation Zrotation
													End Site
													{
														OFFSET -0.010936 -0.403909 -0.119675
													}
												}
											}
										}
										JOINT temporalis01.L
										{
											OFFSET 0.624230 -0.631420 0.388801
											CHANNELS 6 Xposition Yposition Zposition Xrotation Yrotation Zrotation
											JOINT oculi02.L
											{
												OFFSET -0.066100 -0.157300 0.009800
												CHANNELS 6 Xposition Yposition Zposition Xrotation Yrotation Zrotation
												JOINT oculi01.L
												{
													OFFSET -0.220870 -0.224100 0.148600
													CHANNELS 6 Xposition Yposition Zposition Xrotation Yrotation Zrotation
													End Site
													{
														OFFSET -0.176676 -0.059051 0.022102
													}
												}
											}
										}
										JOINT temporalis01.R
										{
											OFFSET -0.624230 -0.631420 0.389200
											CHANNELS 6 Xposition Yposition Zposition Xrotation Yrotation Zrotation
											JOINT oculi02.R
											{
												OFFSET 0.072700 -0.157300 0.009700
												CHANNELS 6 Xposition Yposition Zposition Xrotation Yrotation Zrotation
												JOINT oculi01.R
												{
													OFFSET 0.220410 -0.224100 0.151800
													CHANNELS 6 Xposition Yposition Zposition Xrotation Yrotation Zrotation
													End Site
													{
														OFFSET 0.170536 -0.059051 0.018602
													}
												}
											}
										}
										JOINT temporalis02.L
										{
											OFFSET 0.638390 -0.614160 0.185500
											CHANNELS 6 Xposition Yposition Zposition Xrotation Yrotation Zrotation
											JOINT risorius02.L
											{
												OFFSET -0.083760 -0.161060 0.021200
												CHANNELS 6 Xposition Yposition Zposition Xrotation Yrotation Zrotation
												JOINT risorius03.L
												{
													OFFSET -0.060620 -0.076300 -0.246600
													CHANNELS 6 Xposition Yposition Zposition Xrotation Yrotation Zrotation
													End Site
													{
														OFFSET 0.039576 0.161248 -0.188157
													}
												}
											}
										}
										JOINT temporalis02.R
										{
											OFFSET -0.638240 -0.614140 0.191700
											CHANNELS 6 Xposition Yposition Zposition Xrotation Yrotation Zrotation
											JOINT risorius02.R
											{
												OFFSET 0.085320 -0.161080 0.015000
												CHANNELS 6 Xposition Yposition Zposition Xrotation Yrotation Zrotation
												JOINT risorius03.R
												{
													OFFSET 0.060690 -0.075200 -0.247000
													CHANNELS 6 Xposition Yposition Zposition Xrotation Yrotation Zrotation
													End Site
													{
														OFFSET -0.038698 0.160789 -0.187210
													}
												}
											}
										}
									}
								}
							}
						}
					}
				}
			}
		}
	}
	JOINT pelvis.L
	{
		OFFSET 0.000000 -0.761950 0.011700
		CHANNELS 6 Xposition Yposition Zposition Xrotation Yrotation Zrotation
		JOINT upperleg01.L
		{
			OFFSET 0.940010 -0.001020 -0.156370
			CHANNELS 6 Xposition Yposition Zposition Xrotation Yrotation Zrotation
			JOINT upperleg02.L
			{
				OFFSET 0.044190 -0.189800 -0.611790
				CHANNELS 6 Xposition Yposition Zposition Xrotation Yrotation Zrotation
				JOINT lowerleg01.L
				{
					OFFSET 0.402300 -0.065830 -3.508440
					CHANNELS 6 Xposition Yposition Zposition Xrotation Yrotation Zrotation
					JOINT lowerleg02.L
					{
						OFFSET 0.139200 0.160780 -2.137800
						CHANNELS 6 Xposition Yposition Zposition Xrotation Yrotation Zrotation
						JOINT foot.L
						{
							OFFSET 0.139200 0.160790 -2.137700
							CHANNELS 6 Xposition Yposition Zposition Xrotation Yrotation Zrotation
							JOINT toe1-1.L
							{
								OFFSET 0.057200 -1.105760 -0.599400
								CHANNELS 6 Xposition Yposition Zposition Xrotation Yrotation Zrotation
								End Site
								{
									OFFSET 0.042802 -0.749010 0.098134
								}
							}
						}
					}
				}
			}
		}
	}
	JOINT pelvis.R
	{
		OFFSET 0.000000 -0.761950 0.011700
		CHANNELS 6 Xposition Yposition Zposition Xrotation Yrotation Zrotation
		JOINT upperleg01.R
		{
			OFFSET -0.940010 -0.001020 -0.156370
			CHANNELS 6 Xposition Yposition Zposition Xrotation Yrotation Zrotation
			JOINT upperleg02.R
			{
				OFFSET -0.043590 -0.189800 -0.611790
				CHANNELS 6 Xposition Yposition Zposition Xrotation Yrotation Zrotation
				JOINT lowerleg01.R
				{
					OFFSET -0.402900 -0.065830 -3.508440
					CHANNELS 6 Xposition Yposition Zposition Xrotation Yrotation Zrotation
					JOINT lowerleg02.R
					{
						OFFSET -0.139200 0.160780 -2.137800
						CHANNELS 6 Xposition Yposition Zposition Xrotation Yrotation Zrotation
						JOINT foot.R
						{
							OFFSET -0.139200 0.160790 -2.137700
							CHANNELS 6 Xposition Yposition Zposition Xrotation Yrotation Zrotation
							JOINT toe1-1.R
							{
								OFFSET -0.057200 -1.105760 -0.599400
								CHANNELS 6 Xposition Yposition Zposition Xrotation Yrotation Zrotation
								End Site
								{
									OFFSET -0.042801 -0.748997 0.098132
								}
							}
						}
					}
				}
			}
		}
	}
}
MOTION
Frames: 1
Frame Time: 0.041667
0 0 -0.3 -1.083170 -0.851854 -103.616654 -0.000003 -0.761950 0.011700 -1.624621 0.000002 0.000006 -0.000002 0.430789 0.542502 6.323221 0.000001 0.000011 -0.000001 -0.150329 0.576599 -8.823968 0.000002 -0.000004 -0.000000 -0.131088 0.880102 -11.690291 0.000003 -0.000022 0.000001 0.048116 1.640698 0.000001 -0.000001 0.000002 0.000002 0.048117 1.640698 -0.000000 0.000000 0.000003 0.000001 0.048116 1.640699 -1.339176 1.305593 3.483925 0.264201 -0.215081 0.848897 -0.146418 -11.182939 0.593173 0.746899 -0.001850 0.217800 0.627482 -12.320714 -0.252096 0.556299 0.039249 -0.378599 1.198167 -32.356532 0.178807 0.569300 0.022602 -0.581199 -33.433725 -9.697100 37.984830 1.182998 -0.066568 -1.327298 20.907737 4.089212 18.498244 0.594496 -0.777181 -0.641997 -29.018168 22.344552 30.483353 0.594397 -0.777197 -0.641996 -23.286618 30.319958 29.436271 0.009898 -0.398799 -0.078799 0.000003 -0.000002 0.000008 -0.191099 -0.189501 -0.082498 -0.000002 -0.000001 0.000001 -0.111999 -0.279202 -0.133601 0.000000 -0.000001 -0.000003 0.097598 -0.234899 -0.149499 0.000003 -0.000003 0.000001 0.157299 -0.620001 -0.240200 -0.000001 -0.000002 -0.000002 0.030998 -0.185699 -0.140401 -0.000001 -0.000007 0.000005 -0.005701 -0.144599 -0.152299 0.000003 0.000005 -0.000001 0.097598 -0.234898 -0.149499 -0.000002 0.000000 0.000003 0.302902 -0.452101 -0.335400 -0.000004 -0.000001 -0.000002 0.067499 -0.182100 -0.241303 -0.000001 0.000000 -0.000005 0.023501 -0.153599 -0.199899 -0.000000 0.000000 0.000002 0.203899 -0.136900 -0.286201 0.000003 0.000001 -0.000004 0.263202 -0.395101 -0.266402 -0.000005 0.000000 -0.000002 0.090099 -0.124300 -0.226401 -0.000001 -0.000001 0.000003 0.037399 -0.110599 -0.192500 -0.000003 0.000002 0.000000 0.203900 -0.136900 -0.286199 -0.000001 0.000002 -0.000000 0.281098 -0.217701 -0.341703 0.000001 0.000002 -0.000000 0.055098 -0.063302 -0.175399 0.000001 0.000001 -0.000000 0.016599 -0.049899 -0.133301 0.000007 0.000002 -0.000003 -0.264198 -0.215081 0.848897 0.602694 0.035770 2.070514 -0.746900 -0.001851 0.217804 19.445658 13.890849 -19.342083 -0.556300 0.039253 -0.378600 7.932251 -0.533824 -7.225144 -0.529100 0.014781 -0.580997 -31.564363 8.371803 -34.526845 -1.223201 -0.058754 -1.327500 24.271074 -4.947073 -22.264632 -0.594503 -0.777183 -0.642002 -20.361234 -18.265090 -21.502013 -0.594399 -0.777201 -0.641998 13.892743 -9.023222 -27.136594 -0.009902 -0.398800 -0.078800 2.778455 0.237153 17.819267 0.191100 -0.189503 -0.082498 0.194296 37.294274 16.677591 0.111999 -0.279200 -0.133597 0.000001 -0.000000 0.000001 -0.097602 -0.234899 -0.149500 -2.361421 1.260208 -1.585267 -0.157300 -0.620005 -0.240199 35.433966 -13.497148 25.293345 -0.030999 -0.185701 -0.140399 24.538430 -10.914367 17.075541 0.005700 -0.144605 -0.152298 30.470796 -11.050175 22.498215 -0.097603 -0.234900 -0.149500 -1.745072 2.209866 -1.319798 -0.302900 -0.452106 -0.335401 42.207926 -30.062637 34.777923 -0.067498 -0.182099 -0.241300 17.189494 -15.684809 14.321142 -0.023498 -0.153607 -0.199898 25.469282 -21.035371 21.165455 -0.203902 -0.136900 -0.286200 -1.804268 2.156640 -1.327728 -0.263201 -0.395102 -0.266400 39.764917 -40.076429 32.037378 -0.090102 -0.124303 -0.226403 6.594110 -9.700814 5.117120 -0.037402 -0.110601 -0.192500 29.356334 -32.357485 23.315766 -0.203903 -0.136900 -0.286200 -0.904900 2.809874 -1.000088 -0.281103 -0.217702 -0.341699 13.265740 -31.976203 13.174081 -0.055104 -0.063298 -0.175299 7.777640 -20.223615 8.456096 -0.016598 -0.049900 -0.133401 8.237955 -21.683294 8.551844 0.000001 0.017616 1.593199 0.854454 -4.608163 21.003895 -0.000001 -0.092369 0.410799 -0.198833 1.138288 19.767648 -0.000001 0.027394 0.465699 0.000005 0.000001 -0.000002 -0.000000 -0.309454 0.221099 -4.410229 -1.147279 28.495160 0.000002 -0.194589 -0.016700 0.000003 -0.000002 -0.000001 -0.000000 -0.462328 -0.650399 0.000002 0.000000 -0.000001 0.000000 -0.271101 0.166899 -0.000003 0.000002 -0.000005 -0.000001 -0.097000 0.069999 0.000002 0.000001 -0.000001 0.000001 -0.271101 0.166897 -0.000002 0.000001 -0.000000 0.119721 -0.066897 0.023796 -0.000001 -0.000004 -0.000004 0.000000 -0.271101 0.166898 -0.000003 0.000000 -0.000004 -0.119721 -0.066898 0.023699 -0.000000 0.000005 0.000002 0.000000 -0.462329 -0.650399 -0.000002 0.000001 -0.000002 -0.000001 0.407950 0.365000 0.000002 0.000001 -0.000004 0.000001 -0.308988 0.045398 -0.000002 0.000001 0.000000 -0.000000 -0.213660 -0.003699 0.000002 -0.000001 -0.000001 0.000001 -0.087502 -0.047698 0.000000 0.000001 0.000000 0.000000 -0.087502 -0.047701 0.000001 -0.000001 -0.000000 0.000002 -0.087502 -0.047700 -0.000002 0.000002 0.000001 0.000000 -0.213660 -0.003698 -0.000002 0.000001 0.000001 0.000001 -0.213660 -0.003699 0.000001 -0.000001 -0.000003 0.000002 -0.308988 0.045400 -0.000002 0.000003 0.000000 0.000001 -0.308988 0.045399 -0.000000 -0.000000 0.000001 0.031568 -1.140321 0.191301 0.000004 0.000000 -0.000003 0.166894 0.131302 -0.165100 0.000001 -0.000003 -0.000004 0.059476 0.003501 -0.151201 0.000001 -0.000001 0.000001 0.026459 0.033101 -0.166897 0.000001 0.000000 0.000000 -0.031565 -1.140320 0.191299 -0.000000 0.000001 -0.000000 -0.166894 0.131401 -0.165097 0.000001 -0.000001 -0.000000 -0.059251 0.003002 -0.154197 0.000003 0.000002 -0.000001 -0.026460 0.033800 -0.163901 0.000001 0.000001 0.000001 0.000001 0.626331 -0.077300 0.000001 -0.000001 -0.000004 -0.000001 -1.748149 -0.057997 0.000004 -0.000002 -0.000005 0.136381 0.027200 -0.049501 0.000002 -0.000005 -0.000003 -0.000001 -1.748149 -0.057998 0.000001 -0.000001 0.000001 -0.136381 0.027202 -0.050702 0.000000 0.000004 -0.000003 -0.000001 -1.748149 -0.057999 0.000003 0.000000 0.000001 0.000000 -0.017302 -0.041398 -0.000001 -0.000004 -0.000002 0.000002 -0.194588 -0.016700 0.000001 -0.000001 -0.000001 0.062421 -1.032631 0.011602 -0.000000 0.000000 -0.000008 -0.062419 -1.032634 0.008901 0.000002 -0.000001 -0.000001 0.000001 0.056032 1.394898 0.000000 -0.000002 -0.000003 0.198479 -0.578584 -0.014402 -0.000003 0.000000 -0.000000 0.122051 -0.248860 -1.031799 -0.000001 0.000000 0.000002 0.122051 -0.248860 -1.031800 -0.000001 -0.000001 0.000003 0.122051 -0.248860 -1.031800 0.000000 -0.000002 0.000002 0.000001 0.056032 1.394898 0.000000 -0.000002 -0.000009 -0.198481 -0.578590 -0.014400 -0.000000 -0.000000 0.000001 -0.096103 -0.248859 -1.029398 0.000002 -0.000000 -0.000003 -0.096103 -0.248858 -1.029398 0.000003 -0.000002 0.000001 -0.096103 -0.248858 -1.029400 0.000002 -0.000001 0.000000 0.624232 -0.631420 0.388800 0.000006 0.000002 -0.000006 -0.066102 -0.157300 0.009800 -0.000001 -0.000002 0.000001 -0.220870 -0.224099 0.148602 0.000004 -0.000002 -0.000003 -0.624230 -0.631419 0.389197 0.000001 -0.000002 -0.000004 0.072698 -0.157300 0.009701 0.000002 -0.000002 -0.000001 0.220410 -0.224098 0.151802 -0.000001 -0.000003 -0.000000 0.638391 -0.614158 0.185498 0.000001 -0.000002 -0.000002 -0.083758 -0.161062 0.021203 -0.000002 -0.000003 0.000001 -0.060619 -0.076299 -0.246594 0.000006 0.000000 -0.000000 -0.638239 -0.614139 0.191700 -0.000000 -0.000002 0.000001 0.085317 -0.161084 0.015001 -0.000000 -0.000003 -0.000003 0.060691 -0.075200 -0.246996 -0.000004 -0.000001 0.000000 -0.000003 -0.761950 0.011700 -0.000001 0.000000 -0.000000 0.940010 -0.001021 -0.156369 -17.687810 0.187402 -1.257316 0.044188 -0.189800 -0.611790 -2.089884 0.008686 18.073464 0.402301 -0.065830 -3.508441 34.159825 1.163359 1.980548 0.139202 0.160781 -2.137800 -0.000000 -0.000002 -0.000000 0.139203 0.160790 -2.137699 -12.424227 -0.105042 -0.839612 0.057202 -1.105760 -0.599400 -0.000000 0.000000 -0.000001 -0.000003 -0.761950 0.011701 0.000001 0.000001 0.000001 -0.940009 -0.001021 -0.156370 -23.092772 -0.323024 1.601866 -0.043588 -0.189800 -0.611787 -0.000002 -0.000001 -0.000000 -0.402900 -0.065828 -3.508440 43.712992 -1.678830 -2.379969 -0.139200 0.160779 -2.137800 -0.000001 -0.000000 -0.000001 -0.139198 0.160789 -2.137700 -7.170351 0.082863 0.481879 -0.057203 -1.105760 -0.599400 -0.000004 -0.000000 -0.000001 
